OGF_ID,MUNICIPAL_TYPE,MUNICIPAL_TYPE_FR,MUNICIPAL_NAME,MUNICIPAL_NAME_FR,MUNID,MAH_CODE,MUNICIPAL_AREA_EXTENT_TYPE,MUNICIPAL_AREA_EXTENT_TYPE_FR,ASSESSMENT_CODE,MUNICIPAL_NAME_PREFIX,MUNICIPAL_NAME_PREFIX_FR,MUNICIPAL_NAME_SHORTFORM,MUNICIPAL_NAME_SHORTFORM_FR,UPPER_TIER_ASSESSMENT_CODE,UPPER_TIER_MUNICIPALITY,UPPER_TIER_MUNICIPALITY_FR,EFFECTIVE_DATETIME,SYSTEM_DATETIME,OBJECTID,SHAPEAREA,SHAPELEN
319585724,Single Tier Municipality,Municipalités à palier unique,TOWNSHIP OF ARMOUR,CANTON D'ARMOUR,49019,86601,Mainland,Terre ferme,4919,TOWNSHIP OF,CANTON DE,ARMOUR,ARMOUR,,,,2024/02/15 10:26:33+00,2024/02/15 19:24:59+00,1,0,0
319585954,Lower Tier Municipality,Municipalités de palier inférieur,TOWNSHIP OF FRONT OF YONGE,CANTON DE FRONT OF YONGE,7017,56615,Islands,Îles,806,TOWNSHIP OF,CANTON DE,FRONT OF YONGE,FRONT OF YONGE,,UNITED COUNTIES OF LEEDS AND GRENVILLE,COMTÉS UNIS DE LEEDS AND GRENVILLE,2024/02/15 10:26:33+00,2024/02/15 19:24:59+00,17,0,0
319585849,Single Tier Municipality,Municipalités à palier unique,TOWN OF COBALT,VILLE DE COBALT,54008,90402,Mainland,Terre ferme,5408,TOWN OF,VILLE DE,COBALT,COBALT,,,,2024/02/15 10:26:33+00,2024/02/15 19:24:59+00,33,0,0
319585688,Single Tier Municipality,Municipalités à palier unique,CITY OF OTTAWA,VILLE D'OTTAWA,6005,20107,Islands,Îles,614,CITY OF,CITÉ DE,OTTAWA,OTTAWA,,,,2024/02/15 10:26:33+00,2024/02/15 19:24:59+00,49,0,0
319585745,Lower Tier Municipality,Municipalités de palier inférieur,TOWN OF THE BLUE MOUNTAINS,VILLE DE THE BLUE MOUNTAINS,42041,47405,Mainland,Terre ferme,4242,TOWN OF,VILLE DE,THE BLUE MOUNTAINS,THE BLUE MOUNTAINS,,COUNTY OF GREY,COMTÉ DE GREY,2024/02/15 10:26:33+00,2024/02/15 19:24:59+00,65,0,0
319585747,Lower Tier Municipality,Municipalités de palier inférieur,TOWNSHIP OF TUDOR AND CASHEL,CANTON DE TUDOR AND CASHEL,12048,51617,Mainland,Terre ferme,1248,TOWNSHIP OF,CANTON DE,TUDOR AND CASHEL,TUDOR AND CASHEL,,COUNTY OF HASTINGS,COMTÉ DE HASTINGS,2024/02/15 10:26:33+00,2024/02/15 19:24:59+00,81,0,0
319586058,Single Tier Municipality,Municipalités à palier unique,TOWNSHIP OF SOUTH ALGONQUIN,CANTON DE SOUTH ALGONQUIN,48001,85601,Mainland,Terre ferme,4801,TOWNSHIP OF,CANTON DE,SOUTH ALGONQUIN,SOUTH ALGONQUIN,,,,2024/02/15 10:26:33+00,2024/02/15 19:24:59+00,97,0,0
319585966,Lower Tier Municipality,Municipalités de palier inférieur,TOWNSHIP OF BECKWITH,CANTON DE BECKWITH,9024,55602,Mainland,Terre ferme,924,TOWNSHIP OF,CANTON DE,BECKWITH,BECKWITH,,COUNTY OF LANARK,COMTÉ DE LANARK,2024/02/15 10:26:33+00,2024/02/15 19:24:59+00,113,0,0
319585699,Lower Tier Municipality,Municipalités de palier inférieur,TOWN OF HUNTSVILLE,VILLE DE HUNTSVILLE,44042,33403,Mainland,Terre ferme,4442,TOWN OF,VILLE DE,HUNTSVILLE,HUNTSVILLE,,DISTRICT MUNICIPALITY OF MUSKOKA,DISTRICT MUNICIPALITÉ DE MUSKOKA,2024/02/15 10:26:33+00,2024/02/15 19:24:59+00,129,0,0
319585636,Single Tier Municipality,Municipalités à palier unique,TOWNSHIP OF DAWSON,CANTON DE DAWSON,59040,87613,Water,Eau,5934,TOWNSHIP OF,CANTON DE,DAWSON,DAWSON,,,,2024/02/15 10:26:33+00,2024/02/15 19:24:59+00,145,0,0
319585641,Single Tier Municipality,Municipalités à palier unique,TOWNSHIP OF MCMURRICH/MONTEITH,CANTON DE MCMURRICH / MONTEITH,49012,86614,Mainland,Terre ferme,4912,TOWNSHIP OF,CANTON DE,MCMURRICH/MONTEITH,MCMURRICH / MONTEITH,,,,2024/02/15 10:26:33+00,2024/02/15 19:24:59+00,161,0,0
319585788,Single Tier Municipality,Municipalités à palier unique,CITY OF DRYDEN,CITÉ DE DRYDEN,60025,82101,Mainland,Terre ferme,6026,CITY OF,CITÉ DE,DRYDEN,DRYDEN,,,,2024/02/15 10:26:33+00,2024/02/15 19:24:59+00,177,0,0
319586084,Lower Tier Municipality,Municipalités de palier inférieur,TOWN OF GRIMSBY,VILLE DE GRIMSBY,26065,18402,Mainland,Terre ferme,2615,TOWN OF,VILLE DE,GRIMSBY,GRIMSBY,,REGIONAL MUNICIPALITY OF NIAGARA,MUNICIPALITÉ RÉGIONALE DE NIAGARA,2024/02/15 10:26:33+00,2024/02/15 19:24:59+00,193,0,0
319585960,Single Tier Municipality,Municipalités à palier unique,MUNICIPALITY OF CHARLTON AND DACK,MUNICIPALITÉ DE CHARLTON AND DACK,54047,90620,Mainland,Terre ferme,5447,MUNICIPALITY OF,MUNICIPALITÉ DE,CHARLTON AND DACK,CHARLTON AND DACK,,,,2024/02/15 10:26:33+00,2024/02/15 19:24:59+00,209,0,0
319586116,Single Tier Municipality,Municipalités à palier unique,TOWN OF BLIND RIVER,VILLE DE BLIND RIVER,57038,80401,Water,Eau,5738,TOWN OF,VILLE DE,BLIND RIVER,BLIND RIVER,,,,2024/02/15 10:26:33+00,2024/02/15 19:24:59+00,225,0,0
319585934,Lower Tier Municipality,Municipalités de palier inférieur,TOWN OF GRAVENHURST,VILLE DE GRAVENHURST,44002,33402,Islands,Îles,4402,TOWN OF,VILLE DE,GRAVENHURST,GRAVENHURST,,DISTRICT MUNICIPALITY OF MUSKOKA,DISTRICT MUNICIPALITÉ DE MUSKOKA,2024/02/15 10:26:33+00,2024/02/15 19:24:59+00,241,0,0
319586219,Single Tier Municipality,Municipalités à palier unique,TOWN OF LATCHFORD,VILLE DE LATCHFORD,54006,90406,Mainland,Terre ferme,5406,TOWN OF,VILLE DE,LATCHFORD,LATCHFORD,,,,2024/02/15 10:26:33+00,2024/02/15 19:24:59+00,257,0,0
319586142,Single Tier Municipality,Municipalités à palier unique,TOWNSHIP OF PLUMMER ADDITIONAL,CANTON DE PLUMMER ADDITIONAL,57019,80609,Islands,Îles,5719,TOWNSHIP OF,CANTON DE,PLUMMER ADDITIONAL,PLUMMER ADDITIONAL,,,,2024/02/15 10:26:33+00,2024/02/15 19:24:59+00,273,0,0
319585864,Single Tier Municipality,Municipalités à palier unique,VILLAGE OF HILTON BEACH,VILLAGE DE HILTON BEACH,57006,80501,Water,Eau,5706,VILLAGE OF,VILLAGE DE,HILTON BEACH,HILTON BEACH,,,,2024/02/15 10:26:33+00,2024/02/15 19:24:59+00,289,0,0
319585929,Lower Tier Municipality,Municipalités de palier inférieur,TOWNSHIP OF FRONTENAC ISLANDS,CANTON DE FRONTENAC ISLANDS,10002,46617,Mainland,Terre ferme,1001,TOWNSHIP OF,CANTON DE,FRONTENAC ISLANDS,FRONTENAC ISLANDS,,COUNTY OF FRONTENAC,COMTÉ DE FRONTENAC,2024/02/15 10:26:33+00,2024/02/15 19:24:59+00,305,0,0
319585869,Single Tier Municipality,Municipalités à palier unique,TOWNSHIP OF THE NORTH SHORE,CANTON DE THE NORTH SHORE,57040,80616,Mainland,Terre ferme,5740,TOWNSHIP OF,CANTON DE,THE NORTH SHORE,THE NORTH SHORE,,,,2024/02/15 10:26:33+00,2024/02/15 19:24:59+00,321,0,0
319585785,Lower Tier Municipality,Municipalités de palier inférieur,TOWNSHIP OF FARADAY,CANTON DE FARADAY,12058,51605,Mainland,Terre ferme,1258,TOWNSHIP OF,CANTON DE,FARADAY,FARADAY,,COUNTY OF HASTINGS,COMTÉ DE HASTINGS,2024/02/15 10:26:33+00,2024/02/15 19:24:59+00,337,0,0
319585707,Single Tier Municipality,Municipalités à palier unique,TOWN OF ENGLEHART,VILLE D'ENGLEHART,54052,90403,Mainland,Terre ferme,5452,TOWN OF,VILLE DE,ENGLEHART,ENGLEHART,,,,2024/02/15 10:26:33+00,2024/02/15 19:24:59+00,353,0,0
319586236,Lower Tier Municipality,Municipalités de palier inférieur,TOWNSHIP OF ESSA,CANTON D'ESSA,43021,70602,Mainland,Terre ferme,4321,TOWNSHIP OF,CANTON DE,ESSA,ESSA,,COUNTY OF SIMCOE,COMTÉ DE SIMCOE,2024/02/15 10:26:33+00,2024/02/15 19:24:59+00,369,0,0
319585995,Single Tier Municipality,Municipalités à palier unique,TOWNSHIP OF CASEY,CANTON DE CASEY,54029,90604,Mainland,Terre ferme,5429,TOWNSHIP OF,CANTON DE,CASEY,CASEY,,,,2024/02/15 10:26:33+00,2024/02/15 19:24:59+00,385,0,0
319586186,Lower Tier Municipality,Municipalités de palier inférieur,TOWNSHIP OF ST. CLAIR,CANTON DE ST. CLAIR,38002,54614,Water,Eau,3805,TOWNSHIP OF,CANTON DE,ST. CLAIR,ST. CLAIR,,COUNTY OF LAMBTON,COMTÉ DE LAMBTON,2024/02/15 10:26:33+00,2024/02/15 19:24:59+00,401,0,0
319586180,Lower Tier Municipality,Municipalités de palier inférieur,MUNICIPALITY OF DUTTON/DUNWICH,MUNICIPALITÉ DE DUTTON / DUNWICH,34028,44611,Water,Eau,3429,MUNICIPALITY OF,MUNICIPALITÉ DE,DUTTON/DUNWICH,DUTTON / DUNWICH,,COUNTY OF ELGIN,COMTÉ D'ELGIN,2024/02/15 10:26:33+00,2024/02/15 19:24:59+00,417,0,0
319585839,Lower Tier Municipality,Municipalités de palier inférieur,TOWNSHIP OF SOUTH FRONTENAC,CANTON DE SOUTH FRONTENAC,10013,46619,Mainland,Terre ferme,1029,TOWNSHIP OF,CANTON DE,SOUTH FRONTENAC,SOUTH FRONTENAC,,COUNTY OF FRONTENAC,COMTÉ DE FRONTENAC,2024/02/15 10:26:33+00,2024/02/15 19:24:59+00,433,0,0
319586038,Lower Tier Municipality,Municipalités de palier inférieur,MUNICIPALITY OF THAMES CENTRE,MUNICIPALITÉ DE THAMES CENTRE,39025,59622,Mainland,Terre ferme,3926,MUNICIPALITY OF,MUNICIPALITÉ DE,THAMES CENTRE,THAMES CENTRE,,COUNTY OF MIDDLESEX,COMTÉ DE MIDDLESEX,2024/02/15 10:26:33+00,2024/02/15 19:24:59+00,449,0,0
319585813,Single Tier Municipality,Municipalités à palier unique,MUNICIPALITY OF WEST NIPISSING,MUNICIPALITÉ DE WEST NIPISSING,48050,85406,Mainland,Terre ferme,4852,MUNICIPALITY OF,MUNICIPALITÉ DE,WEST NIPISSING,WEST NIPISSING,,,,2024/02/15 10:26:33+00,2024/02/15 19:24:59+00,465,0,0
319586097,Single Tier Municipality,Municipalités à palier unique,TOWNSHIP OF PAPINEAU-CAMERON,CANTON DE PAPINEAU-CAMERON,48017,85612,Water,Eau,4816,TOWNSHIP OF,CANTON DE,PAPINEAU-CAMERON,PAPINEAU-CAMERON,,,,2024/02/15 10:26:33+00,2024/02/15 19:24:59+00,481,0,0
319585985,Lower Tier Municipality,Municipalités de palier inférieur,TOWN OF DEEP RIVER,VILLE DE DEEP RIVER,47096,69402,Islands,Îles,4796,TOWN OF,VILLE DE,DEEP RIVER,DEEP RIVER,,COUNTY OF RENFREW,COMTÉ DE RENFREW,2024/02/15 10:26:33+00,2024/02/15 19:24:59+00,497,0,0
319585825,Single Tier Municipality,Municipalités à palier unique,MUNICIPALITY OF GORDON / BARRIE ISLAND,MUNICIPALITÉ DE GORDON / BARRIE ISLAND,51024,83607,Water,Eau,5124,MUNICIPALITY OF,MUNICIPALITÉ DE,GORDON / BARRIE ISLAND,GORDON / BARRIE ISLAND,,,,2024/02/15 10:26:33+00,2024/02/15 19:24:59+00,513,0,0
319585858,Single Tier Municipality,Municipalités à palier unique,TOWNSHIP OF MCKELLAR,CANTON DE MCKELLAR,49028,86613,Mainland,Terre ferme,4928,TOWNSHIP OF,CANTON DE,MCKELLAR,MCKELLAR,,,,2024/02/15 10:26:33+00,2024/02/15 19:24:59+00,529,0,0
319586156,Lower Tier Municipality,Municipalités de palier inférieur,TOWNSHIP OF ALNWICK/HALDIMAND,CANTON D'ALNWICK / HALDIMAND,14015,61616,Mainland,Terre ferme,1450,TOWNSHIP OF,CANTON DE,ALNWICK/HALDIMAND,ALNWICK / HALDIMAND,,COUNTY OF NORTHUMBERLAND,COMTÉ DE NORTHUMBERLAND,2024/02/15 10:26:33+00,2024/02/15 19:24:59+00,545,0,0
319586244,Single Tier Municipality,Municipalités à palier unique,MUNICIPALITY OF MATTAWAN,MUNICIPALITÉ DE MATTAWAN,48019,85608,Mainland,Terre ferme,4819,MUNICIPALITY OF,MUNICIPALITÉ DE,MATTAWAN,MATTAWAN,,,,2024/02/15 10:26:33+00,2024/02/15 19:24:59+00,561,0,0
319586034,Lower Tier Municipality,Municipalités de palier inférieur,TOWN OF OAKVILLE,VILLE D'OAKVILLE,24001,14403,Mainland,Terre ferme,2401,TOWN OF,VILLE DE,OAKVILLE,OAKVILLE,,REGIONAL MUNICIPALITY OF HALTON,REGIONAL MUNICIPALITÉ DE HALTON,2024/02/15 10:26:33+00,2024/02/15 19:24:59+00,577,0,0
319585807,Lower Tier Municipality,Municipalités de palier inférieur,MUNICIPALITY OF MEAFORD,MUNICIPALITÉ DE MEAFORD,42047,47406,Islands,Îles,4210,MUNICIPALITY OF,MUNICIPALITÉ DE,MEAFORD,MEAFORD,,COUNTY OF GREY,COMTÉ DE GREY,2024/02/15 10:26:33+00,2024/02/15 19:24:59+00,593,0,0
319585710,Single Tier Municipality,Municipalités à palier unique,TOWNSHIP OF JOCELYN,CANTON DE JOCELYN,57001,80604,Islands,Îles,5701,TOWNSHIP OF,CANTON DE,JOCELYN,JOCELYN,,,,2024/02/15 10:26:33+00,2024/02/15 19:24:59+00,609,0,0
319585993,Single Tier Municipality,Municipalités à palier unique,COUNTY OF PRINCE EDWARD,CITÉ DE PRINCE EDWARD COUNTY,13002,68101,Water,Eau,1350,COUNTY OF,COMPTÉ DE,PRINCE EDWARD,PRINCE EDWARD COUNTY,,,,2024/02/15 10:26:33+00,2024/02/15 19:24:59+00,625,0,0
319585933,Lower Tier Municipality,Municipalités de palier inférieur,TOWN OF DESERONTO,VILLE DE DESERONTO,12002,51401,Islands,Îles,1202,TOWN OF,VILLE DE,DESERONTO,DESERONTO,,COUNTY OF HASTINGS,COMTÉ DE HASTINGS,2024/02/15 10:26:33+00,2024/02/15 19:24:59+00,641,0,0
319585986,Single Tier Municipality,Municipalités à palier unique,CITY OF BELLEVILLE,CITÉ DE BELLEVILLE,12005,51103,Islands,Îles,1208,CITY OF,CITÉ DE,BELLEVILLE,BELLEVILLE,,,,2024/02/15 10:26:33+00,2024/02/15 19:24:59+00,657,0,0
319586198,Single Tier Municipality,Municipalités à palier unique,TOWN OF MARATHON,VILLE DE MARATHON,58059,89403,Mainland,Terre ferme,5859,TOWN OF,VILLE DE,MARATHON,MARATHON,,,,2024/02/15 10:26:33+00,2024/02/15 19:24:59+00,673,0,0
319586267,Single Tier Municipality,Municipalités à palier unique,TOWNSHIP OF ASSIGINACK,CANTON D'ASSIGINACK,51011,83601,Islands,Îles,5111,TOWNSHIP OF,CANTON DE,ASSIGINACK,ASSIGINACK,,,,2024/02/15 10:26:33+00,2024/02/15 19:24:59+00,689,0,0
319585817,Single Tier Municipality,Municipalités à palier unique,TOWNSHIP OF BILLINGS,CANTON DE BILLINGS,51021,83603,Islands,Îles,5121,TOWNSHIP OF,CANTON DE,BILLINGS,BILLINGS,,,,2024/02/15 10:26:33+00,2024/02/15 19:24:59+00,705,0,0
319586145,Lower Tier Municipality,Municipalités de palier inférieur,MUNICIPALITY OF SOUTH BRUCE,MUNICIPALITÉ DE SOUTH BRUCE,41004,41626,Mainland,Terre ferme,4105,MUNICIPALITY OF,MUNICIPALITÉ DE,SOUTH BRUCE,SOUTH BRUCE,,COUNTY OF BRUCE,COMTÉ DE BRUCE,2024/02/15 10:26:33+00,2024/02/15 19:24:59+00,721,0,0
319586085,Lower Tier Municipality,Municipalités de palier inférieur,TOWNSHIP OF FRONT OF YONGE,CANTON DE FRONT OF YONGE,7017,56615,Mainland,Terre ferme,806,TOWNSHIP OF,CANTON DE,FRONT OF YONGE,FRONT OF YONGE,,UNITED COUNTIES OF LEEDS AND GRENVILLE,COMTÉS UNIS DE LEEDS AND GRENVILLE,2024/02/15 10:26:33+00,2024/02/15 19:24:59+00,737,0,0
319585632,Lower Tier Municipality,Municipalités de palier inférieur,TOWNSHIP OF HORTON,CANTON DE HORTON,47046,69613,Islands,Îles,4746,TOWNSHIP OF,CANTON DE,HORTON,HORTON,,COUNTY OF RENFREW,COMTÉ DE RENFREW,2024/02/15 10:26:33+00,2024/02/15 19:24:59+00,753,0,0
319586018,Single Tier Municipality,Municipalités à palier unique,TOWNSHIP OF HILTON,CANTON DE HILTON,57004,80603,Mainland,Terre ferme,5704,TOWNSHIP OF,CANTON DE,HILTON,HILTON,,,,2024/02/15 10:26:33+00,2024/02/15 19:24:59+00,769,0,0
319586273,Single Tier Municipality,Municipalités à palier unique,MUNICIPALITY OF SHUNIAH,MUNICIPALITÉ DE SHUNIAH,58028,89612,Mainland,Terre ferme,5828,MUNICIPALITY OF,MUNICIPALITÉ DE,SHUNIAH,SHUNIAH,,,,2024/02/15 10:26:33+00,2024/02/15 19:24:59+00,785,0,0
319585833,Single Tier Municipality,Municipalités à palier unique,TOWNSHIP OF ST. JOSEPH,CANTON DE ST. JOSEPH,57008,80611,Islands,Îles,5708,TOWNSHIP OF,CANTON DE,ST. JOSEPH,ST. JOSEPH,,,,2024/02/15 10:26:33+00,2024/02/15 19:24:59+00,801,0,0
319585970,Single Tier Municipality,Municipalités à palier unique,CITY OF KINGSTON,CITÉ DE KINGSTON,10005,46102,Water,Eau,1011,CITY OF,CITÉ DE,KINGSTON,KINGSTON,,,,2024/02/15 10:26:33+00,2024/02/15 19:24:59+00,817,0,0
319586138,Lower Tier Municipality,Municipalités de palier inférieur,CITY OF SARNIA,CITÉ DE SARNIA,38030,54102,Mainland,Terre ferme,3829,CITY OF,CITÉ DE,SARNIA,SARNIA,,COUNTY OF LAMBTON,COMTÉ DE LAMBTON,2024/02/15 10:26:33+00,2024/02/15 19:24:59+00,833,0,0
319586159,Single Tier Municipality,Municipalités à palier unique,TOWN OF ST. MARYS,VILLE DE ST. MARYS,31016,65301,Mainland,Terre ferme,3116,TOWN OF,VILLE DE,ST. MARYS,ST. MARYS,,,,2024/02/15 10:26:33+00,2024/02/15 19:24:59+00,849,0,0
319585856,Single Tier Municipality,Municipalités à palier unique,TOWNSHIP OF GILLIES,CANTON DE GILLIES,58012,89603,Mainland,Terre ferme,5812,TOWNSHIP OF,CANTON DE,GILLIES,GILLIES,,,,2024/02/15 10:26:33+00,2024/02/15 19:24:59+00,865,0,0
319586059,Lower Tier Municipality,Municipalités de palier inférieur,TOWN OF GREATER NAPANEE,VILLE DE GREATER NAPANEE,11010,57402,Islands,Îles,1121,TOWN OF,VILLE DE,GREATER NAPANEE,GREATER NAPANEE,,COUNTY OF LENNOX AND ADDINGTON,COMTÉ DE LENNOX AND ADDINGTON,2024/02/15 10:26:33+00,2024/02/15 19:24:59+00,881,0,0
319585902,Single Tier Municipality,Municipalités à palier unique,TOWNSHIP OF PRINCE,CANTON DE PRINCE,57066,80610,Islands,Îles,5766,TOWNSHIP OF,CANTON DE,PRINCE,PRINCE,,,,2024/02/15 10:26:33+00,2024/02/15 19:24:59+00,897,0,0
319585873,Lower Tier Municipality,Municipalités de palier inférieur,TOWNSHIP OF RAMARA,CANTON DE RAMARA,43050,70622,Mainland,Terre ferme,4348,TOWNSHIP OF,CANTON DE,RAMARA,RAMARA,,COUNTY OF SIMCOE,COMTÉ DE SIMCOE,2024/02/15 10:26:33+00,2024/02/15 19:24:59+00,913,0,0
319586143,Lower Tier Municipality,Municipalités de palier inférieur,CITY OF ST. CATHARINES,CITÉ DE ST. CATHARINES,26053,18103,Water,Eau,2629,CITY OF,CITÉ DE,ST. CATHARINES,ST. CATHARINES,,REGIONAL MUNICIPALITY OF NIAGARA,MUNICIPALITÉ RÉGIONALE DE NIAGARA,2024/02/15 10:26:33+00,2024/02/15 19:24:59+00,929,0,0
319585702,Lower Tier Municipality,Municipalités de palier inférieur,MUNICIPALITY OF TRENT HILLS,MUNICIPALITÉ DE TRENT HILLS,14028,61408,Mainland,Terre ferme,1435,MUNICIPALITY OF,MUNICIPALITÉ DE,TRENT HILLS,TRENT HILLS,,COUNTY OF NORTHUMBERLAND,COMTÉ DE NORTHUMBERLAND,2024/02/15 10:26:33+00,2024/02/15 19:24:59+00,945,0,0
319586042,Lower Tier Municipality,Municipalités de palier inférieur,CITY OF OWEN SOUND,CITÉ D'OWEN SOUND,42059,47101,Mainland,Terre ferme,4259,CITY OF,CITÉ DE,OWEN SOUND,OWEN SOUND,,COUNTY OF GREY,COMTÉ DE GREY,2024/02/15 10:26:33+00,2024/02/15 19:24:59+00,961,0,0
319585969,Single Tier Municipality,Municipalités à palier unique,MUNICIPALITY OF NEEBING,MUNICIPALITÉ DE NEEBING,58001,89606,Mainland,Terre ferme,5801,MUNICIPALITY OF,MUNICIPALITÉ DE,NEEBING,NEEBING,,,,2024/02/15 10:26:33+00,2024/02/15 19:24:59+00,977,0,0
319586088,Single Tier Municipality,Municipalités à palier unique,TOWNSHIP OF LA VALLEE,CANTON DE LA VALLEE,59016,87608,Water,Eau,5916,TOWNSHIP OF,CANTON DE,LA VALLEE,LA VALLEE,,,,2024/02/15 10:26:33+00,2024/02/15 19:24:59+00,993,0,0
319585736,Lower Tier Municipality,Municipalités de palier inférieur,TOWNSHIP OF ALFRED AND PLANTAGENET,CANTON D'ALFRED AND PLANTAGENET,2030,67612,Islands,Îles,231,TOWNSHIP OF,CANTON DE,ALFRED AND PLANTAGENET,ALFRED AND PLANTAGENET,,UNITED COUNTIES OF PRESCOTT AND RUSSELL,COMTÉS UNIS DE PRESCOTT AND RUSSELL,2024/02/15 10:26:33+00,2024/02/15 19:24:59+00,1009,0,0
319585719,Lower Tier Municipality,Municipalités de palier inférieur,TOWNSHIP OF ASHFIELD-COLBORNE-WAWANOSH,CANTON D'ASHFIELD-COLBORNE-WAWANOSH,40030,52618,Mainland,Terre ferme,4070,TOWNSHIP OF,CANTON DE,ASHFIELD-COLBORNE-WAWANOSH,ASHFIELD-COLBORNE-WAWANOSH,,COUNTY OF HURON,COMTÉ DE HURON,2024/02/15 10:26:33+00,2024/02/15 19:24:59+00,1025,0,0
319585697,Lower Tier Municipality,Municipalités de palier inférieur,TOWNSHIP OF BROCK,CANTON DE BROCK,18039,10601,Mainland,Terre ferme,1839,TOWNSHIP OF,CANTON DE,BROCK,BROCK,,REGIONAL MUNICIPALITY OF DURHAM,REGIONAL MUNICIPALITÉ DE DURHAM,2024/02/15 10:26:33+00,2024/02/15 19:24:59+00,1041,0,0
319586078,Lower Tier Municipality,Municipalités de palier inférieur,TOWNSHIP OF HAMILTON,CANTON DE HAMILTON,14019,61609,Water,Eau,1419,TOWNSHIP OF,CANTON DE,HAMILTON,HAMILTON,,COUNTY OF NORTHUMBERLAND,COMTÉ DE NORTHUMBERLAND,2024/02/15 10:26:33+00,2024/02/15 19:24:59+00,1057,0,0
319585735,Lower Tier Municipality,Municipalités de palier inférieur,MUNICIPALITY OF HIGHLANDS EAST,MUNICIPALITÉ DE HIGHLANDS EAST,46002,49612,Mainland,Terre ferme,4601,MUNICIPALITY OF,MUNICIPALITÉ DE,HIGHLANDS EAST,HIGHLANDS EAST,,COUNTY OF HALIBURTON,COMTÉ DE HALIBURTON,2024/02/15 10:26:33+00,2024/02/15 19:24:59+00,1073,0,0
319585693,Single Tier Municipality,Municipalités à palier unique,TOWNSHIP OF SIOUX NARROWS-NESTOR FALLS,CANTON DE SIOUX NARROWS-NESTOR FALLS,60008,82609,Water,Eau,6008,TOWNSHIP OF,CANTON DE,SIOUX NARROWS-NESTOR FALLS,SIOUX NARROWS-NESTOR FALLS,,,,2024/02/15 10:26:33+00,2024/02/15 19:24:59+00,1089,0,0
319586046,Lower Tier Municipality,Municipalités de palier inférieur,TOWN OF WHITCHURCH-STOUFFVILLE,VILLE DE WHITCHURCH-STOUFFVILLE,19044,27406,Mainland,Terre ferme,1944,TOWN OF,VILLE DE,WHITCHURCH-STOUFFVILLE,WHITCHURCH-STOUFFVILLE,,REGIONAL MUNICIPALITY OF YORK,MUNICIPALITÉ RÉGIONALE DE YORK,2024/02/15 10:26:33+00,2024/02/15 19:24:59+00,1105,0,0
319585715,Single Tier Municipality,Municipalités à palier unique,TOWNSHIP OF MATACHEWAN,CANTON DE MATACHEWAN,54056,90619,Mainland,Terre ferme,5456,TOWNSHIP OF,CANTON DE,MATACHEWAN,MATACHEWAN,,,,2024/02/15 10:26:33+00,2024/02/15 19:24:59+00,1121,0,0
319586016,Lower Tier Municipality,Municipalités de palier inférieur,"TOWNSHIP OF HEAD, CLARA AND MARIA","CANTON DE HEAD, CLARA AND MARIA",47098,69612,Water,Eau,4798,TOWNSHIP OF,CANTON DE,"HEAD, CLARA AND MARIA","HEAD, CLARA AND MARIA",,COUNTY OF RENFREW,COMTÉ DE RENFREW,2024/02/15 10:26:33+00,2024/02/15 19:24:59+00,1137,0,0
319586243,Lower Tier Municipality,Municipalités de palier inférieur,TOWNSHIP OF ELIZABETHTOWN-KITLEY,CANTON D'ELIZABETHTOWN-KITLEY,7011,56622,Islands,Îles,801,TOWNSHIP OF,CANTON DE,ELIZABETHTOWN-KITLEY,ELIZABETHTOWN-KITLEY,,UNITED COUNTIES OF LEEDS AND GRENVILLE,COMTÉS UNIS DE LEEDS AND GRENVILLE,2024/02/15 10:26:33+00,2024/02/15 19:24:59+00,1153,0,0
319586015,Single Tier Municipality,Municipalités à palier unique,TOWNSHIP OF SCHREIBER,CANTON DE SCHREIBER,58051,89611,Mainland,Terre ferme,5851,TOWNSHIP OF,CANTON DE,SCHREIBER,SCHREIBER,,,,2024/02/15 10:26:33+00,2024/02/15 19:24:59+00,1169,0,0
319586104,Lower Tier Municipality,Municipalités de palier inférieur,TOWN OF GREATER NAPANEE,VILLE DE GREATER NAPANEE,11010,57402,Mainland,Terre ferme,1121,TOWN OF,VILLE DE,GREATER NAPANEE,GREATER NAPANEE,,COUNTY OF LENNOX AND ADDINGTON,COMTÉ DE LENNOX AND ADDINGTON,2024/02/15 10:26:33+00,2024/02/15 19:24:59+00,1185,0,0
319585804,Single Tier Municipality,Municipalités à palier unique,MUNICIPALITY OF KILLARNEY,MUNICIPALITÉ DE KILLARNEY,52003,88411,Mainland,Terre ferme,5136,MUNICIPALITY OF,MUNICIPALITÉ DE,KILLARNEY,KILLARNEY,,,,2024/02/15 10:26:33+00,2024/02/15 19:24:59+00,1201,0,0
319585838,Single Tier Municipality,Municipalités à palier unique,TOWNSHIP OF CHAPPLE,CANTON DE CHAPPLE,59024,87605,Water,Eau,5924,TOWNSHIP OF,CANTON DE,CHAPPLE,CHAPPLE,,,,2024/02/15 10:26:33+00,2024/02/15 19:24:59+00,1217,0,0
319585932,Lower Tier Municipality,Municipalités de palier inférieur,MUNICIPALITY OF MEAFORD,MUNICIPALITÉ DE MEAFORD,42047,47406,Water,Eau,4210,MUNICIPALITY OF,MUNICIPALITÉ DE,MEAFORD,MEAFORD,,COUNTY OF GREY,COMTÉ DE GREY,2024/02/15 10:26:33+00,2024/02/15 19:24:59+00,1233,0,0
319585695,Single Tier Municipality,Municipalités à palier unique,TOWNSHIP OF THE ARCHIPELAGO,CANTON DE THE ARCHIPELAGO,49005,86621,Mainland,Terre ferme,4905,TOWNSHIP OF,CANTON DE,THE ARCHIPELAGO,THE ARCHIPELAGO,,,,2024/02/15 10:26:33+00,2024/02/15 19:24:59+00,1249,0,0
319586007,Lower Tier Municipality,Municipalités de palier inférieur,TOWNSHIP OF WELLINGTON NORTH,CANTON DE WELLINGTON NORTH,23020,75617,Mainland,Terre ferme,2349,TOWNSHIP OF,CANTON DE,WELLINGTON NORTH,WELLINGTON NORTH,,COUNTY OF WELLINGTON,COMTÉ DE WELLINGTON,2024/02/15 10:26:33+00,2024/02/15 19:24:59+00,1265,0,0
319585756,Single Tier Municipality,Municipalités à palier unique,CITY OF CORNWALL,CITÉ DE CORNWALL,1012,71101,Mainland,Terre ferme,402,CITY OF,CITÉ DE,CORNWALL,CORNWALL,,,,2024/02/15 10:26:33+00,2024/02/15 19:24:59+00,1281,0,0
319586206,Single Tier Municipality,Municipalités à palier unique,CITY OF ORILLIA,CITÉ D'ORILLIA,43052,70102,Mainland,Terre ferme,4352,CITY OF,CITÉ DE,ORILLIA,ORILLIA,,,,2024/02/15 10:26:33+00,2024/02/15 19:24:59+00,1297,0,0
319585653,Lower Tier Municipality,Municipalités de palier inférieur,TOWNSHIP OF WEST LINCOLN,CANTON DE WEST LINCOLN,26021,18602,Mainland,Terre ferme,2602,TOWNSHIP OF,CANTON DE,WEST LINCOLN,WEST LINCOLN,,REGIONAL MUNICIPALITY OF NIAGARA,MUNICIPALITÉ RÉGIONALE DE NIAGARA,2024/02/15 10:26:33+00,2024/02/15 19:24:59+00,1313,0,0
319585912,Lower Tier Municipality,Municipalités de palier inférieur,VILLAGE OF POINT EDWARD,VILLAGE DE POINT EDWARD,38031,54506,Mainland,Terre ferme,3831,VILLAGE OF,VILLAGE DE,POINT EDWARD,POINT EDWARD,,COUNTY OF LAMBTON,COMTÉ DE LAMBTON,2024/02/15 10:26:33+00,2024/02/15 19:24:59+00,1329,0,0
319585843,Single Tier Municipality,Municipalités à palier unique,CITY OF KINGSTON,CITÉ DE KINGSTON,10005,46102,Mainland,Terre ferme,1011,CITY OF,CITÉ DE,KINGSTON,KINGSTON,,,,2024/02/15 10:26:33+00,2024/02/15 19:24:59+00,1345,0,0
319585766,Single Tier Municipality,Municipalités à palier unique,TOWNSHIP OF HORNEPAYNE,CANTON DE HORNEPAYNE,57096,80615,Mainland,Terre ferme,5796,TOWNSHIP OF,CANTON DE,HORNEPAYNE,HORNEPAYNE,,,,2024/02/15 10:26:33+00,2024/02/15 19:24:59+00,1361,0,0
319586102,Single Tier Municipality,Municipalités à palier unique,MUNICIPALITY OF RED LAKE,MUNICIPALITÉ DE RED LAKE,60040,82406,Mainland,Terre ferme,6041,MUNICIPALITY OF,MUNICIPALITÉ DE,RED LAKE,RED LAKE,,,,2024/02/15 10:26:33+00,2024/02/15 19:24:59+00,1377,0,0
319585890,Lower Tier Municipality,Municipalités de palier inférieur,TOWNSHIP OF AUGUSTA,CANTON D'AUGUSTA,7006,56601,Islands,Îles,706,TOWNSHIP OF,CANTON DE,AUGUSTA,AUGUSTA,,UNITED COUNTIES OF LEEDS AND GRENVILLE,COMTÉS UNIS DE LEEDS AND GRENVILLE,2024/02/15 10:26:33+00,2024/02/15 19:24:59+00,1393,0,0
319586012,Lower Tier Municipality,Municipalités de palier inférieur,THE NATION MUNICIPALITY,MUNICIPALITÉ DE LA NATION,2011,67614,Mainland,Terre ferme,212,MUNICIPALITY OF,MUNICIPALITÉ DE,THE NATION,THE NATION,,UNITED COUNTIES OF PRESCOTT AND RUSSELL,COMTÉS UNIS DE PRESCOTT AND RUSSELL,2024/02/15 10:26:33+00,2024/02/15 19:24:59+00,1409,0,0
319585870,Lower Tier Municipality,Municipalités de palier inférieur,TOWNSHIP OF STONE MILLS,CANTON DE STONE MILLS,11023,57613,Mainland,Terre ferme,1124,TOWNSHIP OF,CANTON DE,STONE MILLS,STONE MILLS,,COUNTY OF LENNOX AND ADDINGTON,COMTÉ DE LENNOX AND ADDINGTON,2024/02/15 10:26:33+00,2024/02/15 19:24:59+00,1425,0,0
319585846,Lower Tier Municipality,Municipalités de palier inférieur,TOWN OF PENETANGUISHENE,VILLE DE PENETANGUISHENE,43072,70406,Mainland,Terre ferme,4372,TOWN OF,VILLE DE,PENETANGUISHENE,PENETANGUISHENE,,COUNTY OF SIMCOE,COMTÉ DE SIMCOE,2024/02/15 10:26:33+00,2024/02/15 19:24:59+00,1441,0,0
319586129,Single Tier Municipality,Municipalités à palier unique,TOWN OF BLIND RIVER,VILLE DE BLIND RIVER,57038,80401,Mainland,Terre ferme,5738,TOWN OF,VILLE DE,BLIND RIVER,BLIND RIVER,,,,2024/02/15 10:26:33+00,2024/02/15 19:24:59+00,1457,0,0
319586153,Lower Tier Municipality,Municipalités de palier inférieur,TOWNSHIP OF MONTAGUE,CANTON DE MONTAGUE,9001,55610,Mainland,Terre ferme,901,TOWNSHIP OF,CANTON DE,MONTAGUE,MONTAGUE,,COUNTY OF LANARK,COMTÉ DE LANARK,2024/02/15 10:26:33+00,2024/02/15 19:24:59+00,1473,0,0
319586255,Lower Tier Municipality,Municipalités de palier inférieur,TOWNSHIP OF CHAMPLAIN,CANTON DE CHAMPLAIN,2005,67613,Mainland,Terre ferme,209,TOWNSHIP OF,CANTON DE,CHAMPLAIN,CHAMPLAIN,,UNITED COUNTIES OF PRESCOTT AND RUSSELL,COMTÉS UNIS DE PRESCOTT AND RUSSELL,2024/02/15 10:26:33+00,2024/02/15 19:24:59+00,1489,0,0
319585878,Lower Tier Municipality,Municipalités de palier inférieur,MUNICIPALITY OF DYSART ET AL,MUNICIPALITÉ DE DYSART ET AL,46024,49603,Mainland,Terre ferme,4624,MUNICIPALITY OF,MUNICIPALITÉ DE,DYSART ET AL,DYSART ET AL,,COUNTY OF HALIBURTON,COMTÉ DE HALIBURTON,2024/02/15 10:26:33+00,2024/02/15 19:24:59+00,1505,0,0
319586163,Lower Tier Municipality,Municipalités de palier inférieur,VILLAGE OF POINT EDWARD,VILLAGE DE POINT EDWARD,38031,54506,Water,Eau,3831,VILLAGE OF,VILLAGE DE,POINT EDWARD,POINT EDWARD,,COUNTY OF LAMBTON,COMTÉ DE LAMBTON,2024/02/15 10:26:33+00,2024/02/15 19:24:59+00,1521,0,0
319585625,Lower Tier Municipality,Municipalités de palier inférieur,TOWN OF PLYMPTON-WYOMING,VILLE DE PLYMPTON-WYOMING,38033,54405,Mainland,Terre ferme,3835,TOWN OF,VILLE DE,PLYMPTON-WYOMING,PLYMPTON-WYOMING,,COUNTY OF LAMBTON,COMTÉ DE LAMBTON,2024/02/15 10:26:33+00,2024/02/15 19:24:59+00,1537,0,0
319586290,Lower Tier Municipality,Municipalités de palier inférieur,TOWNSHIP OF NORTH HURON,CANTON DE NORTH HURON,40050,52620,Mainland,Terre ferme,4050,TOWNSHIP OF,CANTON DE,NORTH HURON,NORTH HURON,,COUNTY OF HURON,COMTÉ DE HURON,2024/02/15 10:26:33+00,2024/02/15 19:24:59+00,1553,0,0
319585981,Lower Tier Municipality,Municipalités de palier inférieur,TOWN OF PETROLIA,VILLE DE PETROLIA,38019,54402,Mainland,Terre ferme,3819,TOWN OF,VILLE DE,PETROLIA,PETROLIA,,COUNTY OF LAMBTON,COMTÉ DE LAMBTON,2024/02/15 10:26:33+00,2024/02/15 19:24:59+00,1569,0,0
319586049,Lower Tier Municipality,Municipalités de palier inférieur,TOWN OF HALTON HILLS,VILLE DE HALTON HILLS,24015,14401,Mainland,Terre ferme,2415,TOWN OF,VILLE DE,HALTON HILLS,HALTON HILLS,,REGIONAL MUNICIPALITY OF HALTON,REGIONAL MUNICIPALITÉ DE HALTON,2024/02/15 10:26:33+00,2024/02/15 19:24:59+00,1585,0,0
319586227,Lower Tier Municipality,Municipalités de palier inférieur,TOWN OF FORT ERIE,VILLE DE FORT ERIE,26003,18401,Mainland,Terre ferme,2703,TOWN OF,VILLE DE,FORT ERIE,FORT ERIE,,REGIONAL MUNICIPALITY OF NIAGARA,MUNICIPALITÉ RÉGIONALE DE NIAGARA,2024/02/15 10:26:33+00,2024/02/15 19:24:59+00,1601,0,0
319586268,Lower Tier Municipality,Municipalités de palier inférieur,TOWNSHIP OF LAKE OF BAYS,CANTON DE LAKE OF BAYS,44027,33602,Mainland,Terre ferme,4427,TOWNSHIP OF,CANTON DE,LAKE OF BAYS,LAKE OF BAYS,,DISTRICT MUNICIPALITY OF MUSKOKA,DISTRICT MUNICIPALITÉ DE MUSKOKA,2024/02/15 10:26:33+00,2024/02/15 19:24:59+00,1617,0,0
319585987,Lower Tier Municipality,Municipalités de palier inférieur,TOWNSHIP OF HAVELOCK-BELMONT-METHUEN,CANTON DE HAVELOCK-BELMONT-METHUEN,15030,66620,Mainland,Terre ferme,1531,TOWNSHIP OF,CANTON DE,HAVELOCK-BELMONT-METHUEN,HAVELOCK-BELMONT-METHUEN,,COUNTY OF PETERBOROUGH,COMTÉ DE PETERBOROUGH,2024/02/15 10:26:33+00,2024/02/15 19:24:59+00,1633,0,0
319585714,Lower Tier Municipality,Municipalités de palier inférieur,MUNICIPALITY OF BLUEWATER,MUNICIPALITÉ DE BLUEWATER,40010,52406,Water,Eau,4020,MUNICIPALITY OF,MUNICIPALITÉ DE,BLUEWATER,BLUEWATER,,COUNTY OF HURON,COMTÉ DE HURON,2024/02/15 10:26:33+00,2024/02/15 19:24:59+00,1649,0,0
319586274,Lower Tier Municipality,Municipalités de palier inférieur,MUNICIPALITY OF CENTRAL ELGIN,MUNICIPALITÉ DE CENTRAL ELGIN,34015,44610,Water,Eau,3418,MUNICIPALITY OF,MUNICIPALITÉ DE,CENTRAL ELGIN,CENTRAL ELGIN,,COUNTY OF ELGIN,COMTÉ D'ELGIN,2024/02/15 10:26:33+00,2024/02/15 19:24:59+00,1665,0,0
319586071,Lower Tier Municipality,Municipalités de palier inférieur,MUNICIPALITY OF WEST PERTH,MUNICIPALITÉ DE WEST PERTH,31017,65614,Mainland,Terre ferme,3130,MUNICIPALITY OF,MUNICIPALITÉ DE,WEST PERTH,WEST PERTH,,COUNTY OF PERTH,COMTÉ DE PERTH,2024/02/15 10:26:33+00,2024/02/15 19:24:59+00,1681,0,0
319586095,Lower Tier Municipality,Municipalités de palier inférieur,CITY OF WATERLOO,CITÉ DE WATERLOO,30016,25103,Mainland,Terre ferme,3016,CITY OF,CITÉ DE,WATERLOO,WATERLOO,,REGIONAL MUNICIPALITY OF WATERLOO,MUNICIPALITÉ RÉGIONALE DE WATERLOO,2024/02/15 10:26:33+00,2024/02/15 19:24:59+00,1697,0,0
319586225,Lower Tier Municipality,Municipalités de palier inférieur,TOWN OF MIDLAND,VILLE DE MIDLAND,43074,70404,Water,Eau,4374,TOWN OF,VILLE DE,MIDLAND,MIDLAND,,COUNTY OF SIMCOE,COMTÉ DE SIMCOE,2024/02/15 10:26:33+00,2024/02/15 19:24:59+00,1713,0,0
319586155,Lower Tier Municipality,Municipalités de palier inférieur,TOWNSHIP OF ALGONQUIN HIGHLANDS,CANTON D'ALGONQUIN HIGHLANDS,46020,49613,Mainland,Terre ferme,4621,TOWNSHIP OF,CANTON DE,ALGONQUIN HIGHLANDS,ALGONQUIN HIGHLANDS,,COUNTY OF HALIBURTON,COMTÉ DE HALIBURTON,2024/02/15 10:26:33+00,2024/02/15 19:24:59+00,1729,0,0
319586251,Single Tier Municipality,Municipalités à palier unique,MUNICIPALITY OF MARKSTAY-WARREN,MUNICIPALITÉ DE MARKSTAY-WARREN,52007,88412,Mainland,Terre ferme,5208,MUNICIPALITY OF,MUNICIPALITÉ DE,MARKSTAY-WARREN,MARKSTAY-WARREN,,,,2024/02/15 10:26:33+00,2024/02/15 19:24:59+00,1745,0,0
319585917,Single Tier Municipality,Municipalités à palier unique,TOWNSHIP OF TEHKUMMAH,CANTON DE TEHKUMMAH,51001,83611,Mainland,Terre ferme,5101,TOWNSHIP OF,CANTON DE,TEHKUMMAH,TEHKUMMAH,,,,2024/02/15 10:26:33+00,2024/02/15 19:24:59+00,1761,0,0
319585943,Lower Tier Municipality,Municipalités de palier inférieur,TOWNSHIP OF WHITEWATER REGION,CANTON DE WHITEWATER REGION,47050,69636,Islands,Îles,4758,TOWNSHIP OF,CANTON DE,WHITEWATER REGION,WHITEWATER REGION,,COUNTY OF RENFREW,COMTÉ DE RENFREW,2024/02/15 10:26:33+00,2024/02/15 19:24:59+00,1777,0,0
319585769,Single Tier Municipality,Municipalités à palier unique,MUNICIPALITY OF CENTRAL MANITOULIN,MUNICIPALITÉ DE CENTRAL MANITOULIN,51009,83613,Water,Eau,5104,MUNICIPALITY OF,MUNICIPALITÉ DE,CENTRAL MANITOULIN,CENTRAL MANITOULIN,,,,2024/02/15 10:26:33+00,2024/02/15 19:24:59+00,1793,0,0
319585772,Lower Tier Municipality,Municipalités de palier inférieur,TOWNSHIP OF AMARANTH,CANTON D'AMARANTH,22008,43601,Mainland,Terre ferme,2208,TOWNSHIP OF,CANTON DE,AMARANTH,AMARANTH,,COUNTY OF DUFFERIN,COMTÉ DE DUFFERIN,2024/02/15 10:26:33+00,2024/02/15 19:24:59+00,1809,0,0
319585627,Lower Tier Municipality,Municipalités de palier inférieur,TOWNSHIP OF DAWN-EUPHEMIA,CANTON DE DAWN-EUPHEMIA,38005,54611,Mainland,Terre ferme,3806,TOWNSHIP OF,CANTON DE,DAWN-EUPHEMIA,DAWN-EUPHEMIA,,COUNTY OF LAMBTON,COMTÉ DE LAMBTON,2024/02/15 10:26:33+00,2024/02/15 19:24:59+00,1825,0,0
319585661,Single Tier Municipality,Municipalités à palier unique,MUNICIPALITY OF CALLANDER,MUNICIPALITÉ DE CALLANDER,49066,86607,Mainland,Terre ferme,4966,MUNICIPALITY OF,MUNICIPALITÉ DE,CALLANDER,CALLANDER,,,,2024/02/15 10:26:33+00,2024/02/15 19:24:59+00,1841,0,0
319585658,Lower Tier Municipality,Municipalités de palier inférieur,MUNICIPALITY OF LAKESHORE,MUNICIPALITÉ DE LAKESHORE,37049,45412,Mainland,Terre ferme,3751,MUNICIPALITY OF,MUNICIPALITÉ DE,LAKESHORE,LAKESHORE,,COUNTY OF ESSEX,COMTÉ D'ESSEX,2024/02/15 10:26:33+00,2024/02/15 19:24:59+00,1857,0,0
319585994,Lower Tier Municipality,Municipalités de palier inférieur,MUNICIPALITY OF SOUTH DUNDAS,MUNICIPALITÉ DE SOUTH DUNDAS,1016,71614,Mainland,Terre ferme,506,MUNICIPALITY OF,MUNICIPALITÉ DE,SOUTH DUNDAS,SOUTH DUNDAS,,"UNITED COUNTIES OF STORMONT, DUNDAS AND GLENGARRY","COMTÉS UNIS DE STORMONT, DUNDAS AND GLENGARRY",2024/02/15 10:26:33+00,2024/02/15 19:24:59+00,1873,0,0
319585675,Lower Tier Municipality,Municipalités de palier inférieur,TOWN OF PETAWAWA,VILLE DE PETAWAWA,47077,69405,Islands,Îles,4779,TOWN OF,VILLE DE,PETAWAWA,PETAWAWA,,COUNTY OF RENFREW,COMTÉ DE RENFREW,2024/02/15 10:26:33+00,2024/02/15 19:24:59+00,1889,0,0
319585863,Single Tier Municipality,Municipalités à palier unique,TOWN OF COCHRANE,VILLE DE COCHRANE,56037,81407,Mainland,Terre ferme,5639,TOWN OF,VILLE DE,COCHRANE,COCHRANE,,,,2024/02/15 10:26:33+00,2024/02/15 19:24:59+00,1905,0,0
319586057,Single Tier Municipality,Municipalités à palier unique,TOWNSHIP OF LAKE OF THE WOODS,CANTON DE LAKE OF THE WOODS,59045,87614,Water,Eau,5946,TOWNSHIP OF,CANTON DE,LAKE OF THE WOODS,LAKE OF THE WOODS,,,,2024/02/15 10:26:33+00,2024/02/15 19:24:59+00,1921,0,0
319585924,Lower Tier Municipality,Municipalités de palier inférieur,TOWN OF GRIMSBY,VILLE DE GRIMSBY,26065,18402,Water,Eau,2615,TOWN OF,VILLE DE,GRIMSBY,GRIMSBY,,REGIONAL MUNICIPALITY OF NIAGARA,MUNICIPALITÉ RÉGIONALE DE NIAGARA,2024/02/15 10:26:33+00,2024/02/15 19:24:59+00,1937,0,0
319585824,Lower Tier Municipality,Municipalités de palier inférieur,TOWN OF WHITBY,VILLE DE WHITBY,18009,10404,Mainland,Terre ferme,1809,TOWN OF,VILLE DE,WHITBY,WHITBY,,REGIONAL MUNICIPALITY OF DURHAM,REGIONAL MUNICIPALITÉ DE DURHAM,2024/02/15 10:26:33+00,2024/02/15 19:24:59+00,1953,0,0
319585712,Lower Tier Municipality,Municipalités de palier inférieur,VILLAGE OF WESTPORT,VILLAGE DE WESTPORT,7033,56505,Mainland,Terre ferme,842,VILLAGE OF,VILLAGE DE,WESTPORT,WESTPORT,,UNITED COUNTIES OF LEEDS AND GRENVILLE,COMTÉS UNIS DE LEEDS AND GRENVILLE,2024/02/15 10:26:33+00,2024/02/15 19:24:59+00,1969,0,0
319586297,Lower Tier Municipality,Municipalités de palier inférieur,TOWNSHIP OF LAURENTIAN VALLEY,CANTON DE LAURENTIAN VALLEY,47063,69632,Mainland,Terre ferme,4766,TOWNSHIP OF,CANTON DE,LAURENTIAN VALLEY,LAURENTIAN VALLEY,,COUNTY OF RENFREW,COMTÉ DE RENFREW,2024/02/15 10:26:33+00,2024/02/15 19:24:59+00,1985,0,0
319585657,Single Tier Municipality,Municipalités à palier unique,TOWNSHIP OF MORLEY,CANTON DE MORLEY,59031,87610,Mainland,Terre ferme,5931,TOWNSHIP OF,CANTON DE,MORLEY,MORLEY,,,,2024/02/15 10:26:33+00,2024/02/15 19:24:59+00,2001,0,0
319585803,Lower Tier Municipality,Municipalités de palier inférieur,TOWNSHIP OF NORTH STORMONT,CANTON DE NORTH STORMONT,1037,71617,Mainland,Terre ferme,411,TOWNSHIP OF,CANTON DE,NORTH STORMONT,NORTH STORMONT,,"UNITED COUNTIES OF STORMONT, DUNDAS AND GLENGARRY","COMTÉS UNIS DE STORMONT, DUNDAS AND GLENGARRY",2024/02/15 10:26:33+00,2024/02/15 19:24:59+00,2017,0,0
319585754,Single Tier Municipality,Municipalités à palier unique,MUNICIPALITY OF ST.-CHARLES,MUNICIPALITÉ DE ST.-CHARLES,52004,88413,Mainland,Terre ferme,5204,MUNICIPALITY OF,MUNICIPALITÉ DE,ST.-CHARLES,ST.-CHARLES,,,,2024/02/15 10:26:33+00,2024/02/15 19:24:59+00,2033,0,0
319586279,Lower Tier Municipality,Municipalités de palier inférieur,TOWNSHIP OF SELWYN,CANTON DE SELWYN,15017,66623,Mainland,Terre ferme,1516,TOWNSHIP OF,CANTON DE,SELWYN,SELWYN,,COUNTY OF PETERBOROUGH,COMTÉ DE PETERBOROUGH,2024/02/15 10:26:33+00,2024/02/15 19:24:59+00,2049,0,0
319586121,Lower Tier Municipality,Municipalités de palier inférieur,MUNICIPALITY OF SOUTHWEST MIDDLESEX,MUNICIPALITÉ DE SOUTHWEST MIDDLESEX,39003,59620,Mainland,Terre ferme,3906,MUNICIPALITY OF,MUNICIPALITÉ DE,SOUTHWEST MIDDLESEX,SOUTHWEST MIDDLESEX,,COUNTY OF MIDDLESEX,COMTÉ DE MIDDLESEX,2024/02/15 10:26:33+00,2024/02/15 19:24:59+00,2065,0,0
319585616,Lower Tier Municipality,Municipalités de palier inférieur,MUNICIPALITY OF MARMORA AND LAKE,MUNICIPALITÉ DE MARMORA AND LAKE,12039,51626,Mainland,Terre ferme,1241,MUNICIPALITY OF,MUNICIPALITÉ DE,MARMORA AND LAKE,MARMORA AND LAKE,,COUNTY OF HASTINGS,COMTÉ DE HASTINGS,2024/02/15 10:26:33+00,2024/02/15 19:24:59+00,2081,0,0
319585889,Lower Tier Municipality,Municipalités de palier inférieur,TOWNSHIP OF HAMILTON,CANTON DE HAMILTON,14019,61609,Mainland,Terre ferme,1419,TOWNSHIP OF,CANTON DE,HAMILTON,HAMILTON,,COUNTY OF NORTHUMBERLAND,COMTÉ DE NORTHUMBERLAND,2024/02/15 10:26:33+00,2024/02/15 19:24:59+00,2097,0,0
319586141,Single Tier Municipality,Municipalités à palier unique,TOWN OF IROQUOIS FALLS,VILLE D'IROQUOIS FALLS,56031,81403,Mainland,Terre ferme,5631,TOWN OF,VILLE DE,IROQUOIS FALLS,IROQUOIS FALLS,,,,2024/02/15 10:26:33+00,2024/02/15 19:24:59+00,2113,0,0
319585663,Lower Tier Municipality,Municipalités de palier inférieur,MUNICIPALITY OF DUTTON/DUNWICH,MUNICIPALITÉ DE DUTTON / DUNWICH,34028,44611,Mainland,Terre ferme,3429,MUNICIPALITY OF,MUNICIPALITÉ DE,DUTTON/DUNWICH,DUTTON / DUNWICH,,COUNTY OF ELGIN,COMTÉ D'ELGIN,2024/02/15 10:26:33+00,2024/02/15 19:24:59+00,2129,0,0
319585656,Lower Tier Municipality,Municipalités de palier inférieur,TOWNSHIP OF HOWICK,CANTON DE HOWICK,40046,52606,Mainland,Terre ferme,4046,TOWNSHIP OF,CANTON DE,HOWICK,HOWICK,,COUNTY OF HURON,COMTÉ DE HURON,2024/02/15 10:26:33+00,2024/02/15 19:24:59+00,2145,0,0
319586106,Single Tier Municipality,Municipalités à palier unique,TOWNSHIP OF BURPEE AND MILLS,CANTON DE BURPEE AND MILLS,51028,83604,Islands,Îles,5128,TOWNSHIP OF,CANTON DE,BURPEE AND MILLS,BURPEE AND MILLS,,,,2024/02/15 10:26:33+00,2024/02/15 19:24:59+00,2161,0,0
319585664,Lower Tier Municipality,Municipalités de palier inférieur,TOWNSHIP OF SOUTH GLENGARRY,CANTON DE SOUTH GLENGARRY,1002,71616,Mainland,Terre ferme,101,TOWNSHIP OF,CANTON DE,SOUTH GLENGARRY,SOUTH GLENGARRY,,"UNITED COUNTIES OF STORMONT, DUNDAS AND GLENGARRY","COMTÉS UNIS DE STORMONT, DUNDAS AND GLENGARRY",2024/02/15 10:26:33+00,2024/02/15 19:24:59+00,2177,0,0
319585964,Single Tier Municipality,Municipalités à palier unique,TOWNSHIP OF PAPINEAU-CAMERON,CANTON DE PAPINEAU-CAMERON,48017,85612,Mainland,Terre ferme,4816,TOWNSHIP OF,CANTON DE,PAPINEAU-CAMERON,PAPINEAU-CAMERON,,,,2024/02/15 10:26:33+00,2024/02/15 19:24:59+00,2193,0,0
319585682,Lower Tier Municipality,Municipalités de palier inférieur,TOWN OF GEORGINA,VILLE DE GEORGINA,19070,27408,Water,Eau,1970,TOWN OF,VILLE DE,GEORGINA,GEORGINA,,REGIONAL MUNICIPALITY OF YORK,MUNICIPALITÉ RÉGIONALE DE YORK,2024/02/15 10:26:33+00,2024/02/15 19:24:59+00,2209,0,0
319586231,Single Tier Municipality,Municipalités à palier unique,TOWN OF ATIKOKAN,VILLE D'ATIKOKAN,59001,87602,Mainland,Terre ferme,5901,TOWN OF,VILLE DE,ATIKOKAN,ATIKOKAN,,,,2024/02/15 10:26:33+00,2024/02/15 19:24:59+00,2225,0,0
319585721,Lower Tier Municipality,Municipalités de palier inférieur,TOWNSHIP OF ASHFIELD-COLBORNE-WAWANOSH,CANTON D'ASHFIELD-COLBORNE-WAWANOSH,40030,52618,Water,Eau,4070,TOWNSHIP OF,CANTON DE,ASHFIELD-COLBORNE-WAWANOSH,ASHFIELD-COLBORNE-WAWANOSH,,COUNTY OF HURON,COMTÉ DE HURON,2024/02/15 10:26:33+00,2024/02/15 19:24:59+00,2241,0,0
319585822,Single Tier Municipality,Municipalités à palier unique,CITY OF KAWARTHA LAKES,CITÉ DE KAWARTHA LAKES,16002,72101,Mainland,Terre ferme,1651,CITY OF,CITÉ DE,KAWARTHA LAKES,KAWARTHA LAKES,,,,2024/02/15 10:26:33+00,2024/02/15 19:24:59+00,2257,0,0
319586211,Lower Tier Municipality,Municipalités de palier inférieur,TOWN OF GRAVENHURST,VILLE DE GRAVENHURST,44002,33402,Mainland,Terre ferme,4402,TOWN OF,VILLE DE,GRAVENHURST,GRAVENHURST,,DISTRICT MUNICIPALITY OF MUSKOKA,DISTRICT MUNICIPALITÉ DE MUSKOKA,2024/02/15 10:26:33+00,2024/02/15 19:24:59+00,2273,0,0
319585770,Lower Tier Municipality,Municipalités de palier inférieur,TOWN OF BRACEBRIDGE,VILLE DE BRACEBRIDGE,44018,33401,Mainland,Terre ferme,4418,TOWN OF,VILLE DE,BRACEBRIDGE,BRACEBRIDGE,,DISTRICT MUNICIPALITY OF MUSKOKA,DISTRICT MUNICIPALITÉ DE MUSKOKA,2024/02/15 10:26:33+00,2024/02/15 19:24:59+00,2289,0,0
319585669,Lower Tier Municipality,Municipalités de palier inférieur,TOWNSHIP OF SEVERN,CANTON DE SEVERN,43080,70623,Islands,Îles,4351,TOWNSHIP OF,CANTON DE,SEVERN,SEVERN,,COUNTY OF SIMCOE,COMTÉ DE SIMCOE,2024/02/15 10:26:33+00,2024/02/15 19:24:59+00,2305,0,0
319585778,Single Tier Municipality,Municipalités à palier unique,CITY OF PEMBROKE,CITÉ DE PEMBROKE,47064,69101,Mainland,Terre ferme,4764,CITY OF,CITÉ DE,PEMBROKE,PEMBROKE,,,,2024/02/15 10:26:33+00,2024/02/15 19:24:59+00,2321,0,0
319585904,Lower Tier Municipality,Municipalités de palier inférieur,TOWNSHIP OF LAURENTIAN VALLEY,CANTON DE LAURENTIAN VALLEY,47063,69632,Water,Eau,4766,TOWNSHIP OF,CANTON DE,LAURENTIAN VALLEY,LAURENTIAN VALLEY,,COUNTY OF RENFREW,COMTÉ DE RENFREW,2024/02/15 10:26:33+00,2024/02/15 19:24:59+00,2337,0,0
319585963,Lower Tier Municipality,Municipalités de palier inférieur,TOWNSHIP OF LEEDS AND THE THOUSAND ISLANDS,CANTON DE LEEDS AND THE THOUSAND ISLANDS,7019,56621,Water,Eau,812,TOWNSHIP OF,CANTON DE,LEEDS AND THE THOUSAND ISLANDS,LEEDS AND THE THOUSAND ISLANDS,,UNITED COUNTIES OF LEEDS AND GRENVILLE,COMTÉS UNIS DE LEEDS AND GRENVILLE,2024/02/15 10:26:33+00,2024/02/15 19:24:59+00,2353,0,0
319585763,Single Tier Municipality,Municipalités à palier unique,TOWN OF HEARST,VILLE DE HEARST,56076,81402,Mainland,Terre ferme,5676,TOWN OF,VILLE DE,HEARST,HEARST,,,,2024/02/15 10:26:33+00,2024/02/15 19:24:59+00,2369,0,0
319585947,Lower Tier Municipality,Municipalités de palier inférieur,TOWN OF WASAGA BEACH,VILLE DE WASAGA BEACH,43064,70408,Water,Eau,4364,TOWN OF,VILLE DE,WASAGA BEACH,WASAGA BEACH,,COUNTY OF SIMCOE,COMTÉ DE SIMCOE,2024/02/15 10:26:33+00,2024/02/15 19:24:59+00,2385,0,0
319586280,Single Tier Municipality,Municipalités à palier unique,CITY OF PETERBOROUGH,CITÉ DE PETERBOROUGH,15014,66101,Mainland,Terre ferme,1514,CITY OF,CITÉ DE,PETERBOROUGH,PETERBOROUGH,,,,2024/02/15 10:26:33+00,2024/02/15 19:24:59+00,2401,0,0
319585920,Single Tier Municipality,Municipalités à palier unique,CITY OF SAULT STE. MARIE,CITÉ DE SAULT STE. MARIE,57061,80101,Water,Eau,5761,CITY OF,CITÉ DE,SAULT STE. MARIE,SAULT STE. MARIE,,,,2024/02/15 10:26:33+00,2024/02/15 19:24:59+00,2417,0,0
319585956,Lower Tier Municipality,Municipalités de palier inférieur,MUNICIPALITY OF PORT HOPE,MUNICIPALITÉ DE PORT HOPE,14022,61409,Mainland,Terre ferme,1423,MUNICIPALITY OF,MUNICIPALITÉ DE,PORT HOPE,PORT HOPE,,COUNTY OF NORTHUMBERLAND,COMTÉ DE NORTHUMBERLAND,2024/02/15 10:26:33+00,2024/02/15 19:24:59+00,2433,0,0
319585871,Lower Tier Municipality,Municipalités de palier inférieur,MUNICIPALITY OF HASTINGS HIGHLANDS,MUNICIPALITÉ DE HASTINGS HIGHLANDS,12073,51624,Mainland,Terre ferme,1290,MUNICIPALITY OF,MUNICIPALITÉ DE,HASTINGS HIGHLANDS,HASTINGS HIGHLANDS,,COUNTY OF HASTINGS,COMTÉ DE HASTINGS,2024/02/15 10:26:33+00,2024/02/15 19:24:59+00,2449,0,0
319585952,Lower Tier Municipality,Municipalités de palier inférieur,TOWNSHIP OF EDWARDSBURGH/CARDINAL,CANTON D'EDWARDSBURGH / CARDINAL,7003,56620,Islands,Îles,701,TOWNSHIP OF,CANTON DE,EDWARDSBURGH/CARDINAL,EDWARDSBURGH / CARDINAL,,UNITED COUNTIES OF LEEDS AND GRENVILLE,COMTÉS UNIS DE LEEDS AND GRENVILLE,2024/02/15 10:26:33+00,2024/02/15 19:24:59+00,2465,0,0
319586197,Lower Tier Municipality,Municipalités de palier inférieur,TOWNSHIP OF SOUTH GLENGARRY,CANTON DE SOUTH GLENGARRY,1002,71616,Islands,Îles,101,TOWNSHIP OF,CANTON DE,SOUTH GLENGARRY,SOUTH GLENGARRY,,"UNITED COUNTIES OF STORMONT, DUNDAS AND GLENGARRY","COMTÉS UNIS DE STORMONT, DUNDAS AND GLENGARRY",2024/02/15 10:26:33+00,2024/02/15 19:24:59+00,2481,0,0
319586025,Single Tier Municipality,Municipalités à palier unique,TOWNSHIP OF SABLES-SPANISH RIVERS,CANTON DE SABLES-SPANISH RIVERS,52019,88621,Water,Eau,5218,TOWNSHIP OF,CANTON DE,SABLES-SPANISH RIVERS,SABLES-SPANISH RIVERS,,,,2024/02/15 10:26:33+00,2024/02/15 19:24:59+00,2497,0,0
319586292,Lower Tier Municipality,Municipalités de palier inférieur,TOWNSHIP OF ST. CLAIR,CANTON DE ST. CLAIR,38002,54614,Islands,Îles,3805,TOWNSHIP OF,CANTON DE,ST. CLAIR,ST. CLAIR,,COUNTY OF LAMBTON,COMTÉ DE LAMBTON,2024/02/15 10:26:33+00,2024/02/15 19:24:59+00,2513,0,0
319586233,Lower Tier Municipality,Municipalités de palier inférieur,TOWNSHIP OF BROCK,CANTON DE BROCK,18039,10601,Water,Eau,1839,TOWNSHIP OF,CANTON DE,BROCK,BROCK,,REGIONAL MUNICIPALITY OF DURHAM,REGIONAL MUNICIPALITÉ DE DURHAM,2024/02/15 10:26:33+00,2024/02/15 19:24:59+00,2529,0,0
319586027,Single Tier Municipality,Municipalités à palier unique,CITY OF OTTAWA,VILLE D'OTTAWA,6005,20107,Water,Eau,614,CITY OF,CITÉ DE,OTTAWA,OTTAWA,,,,2024/02/15 10:26:33+00,2024/02/15 19:24:59+00,2545,0,0
319585742,Single Tier Municipality,Municipalités à palier unique,TOWNSHIP OF HILTON,CANTON DE HILTON,57004,80603,Water,Eau,5704,TOWNSHIP OF,CANTON DE,HILTON,HILTON,,,,2024/02/15 10:26:33+00,2024/02/15 19:24:59+00,2561,0,0
319586080,Single Tier Municipality,Municipalités à palier unique,TOWNSHIP OF LA VALLEE,CANTON DE LA VALLEE,59016,87608,Mainland,Terre ferme,5916,TOWNSHIP OF,CANTON DE,LA VALLEE,LA VALLEE,,,,2024/02/15 10:26:33+00,2024/02/15 19:24:59+00,2577,0,0
319586100,Single Tier Municipality,Municipalités à palier unique,CITY OF SAULT STE. MARIE,CITÉ DE SAULT STE. MARIE,57061,80101,Mainland,Terre ferme,5761,CITY OF,CITÉ DE,SAULT STE. MARIE,SAULT STE. MARIE,,,,2024/02/15 10:26:33+00,2024/02/15 19:24:59+00,2593,0,0
319585731,Lower Tier Municipality,Municipalités de palier inférieur,TOWN OF ERIN,VILLE D'ERIN,23015,75405,Mainland,Terre ferme,2316,TOWN OF,VILLE DE,ERIN,ERIN,,COUNTY OF WELLINGTON,COMTÉ DE WELLINGTON,2024/02/15 10:26:33+00,2024/02/15 19:24:59+00,2609,0,0
319585848,Lower Tier Municipality,Municipalités de palier inférieur,CITY OF BURLINGTON,CITÉ DE BURLINGTON,24002,14101,Water,Eau,2402,CITY OF,CITÉ DE,BURLINGTON,BURLINGTON,,REGIONAL MUNICIPALITY OF HALTON,REGIONAL MUNICIPALITÉ DE HALTON,2024/02/15 10:26:33+00,2024/02/15 19:24:59+00,2625,0,0
319586107,Lower Tier Municipality,Municipalités de palier inférieur,TOWNSHIP OF ORO-MEDONTE,CANTON D'ORO-MEDONTE,43047,70621,Mainland,Terre ferme,4346,TOWNSHIP OF,CANTON DE,ORO-MEDONTE,ORO-MEDONTE,,COUNTY OF SIMCOE,COMTÉ DE SIMCOE,2024/02/15 10:26:33+00,2024/02/15 19:24:59+00,2641,0,0
319585965,Single Tier Municipality,Municipalités à palier unique,MUNICIPALITY OF NEEBING,MUNICIPALITÉ DE NEEBING,58001,89606,Water,Eau,5801,MUNICIPALITY OF,MUNICIPALITÉ DE,NEEBING,NEEBING,,,,2024/02/15 10:26:33+00,2024/02/15 19:24:59+00,2657,0,0
319586119,Lower Tier Municipality,Municipalités de palier inférieur,TOWN OF HAWKESBURY,VILLE DE HAWKESBURY,2008,67401,Water,Eau,208,TOWN OF,VILLE DE,HAWKESBURY,HAWKESBURY,,UNITED COUNTIES OF PRESCOTT AND RUSSELL,COMTÉS UNIS DE PRESCOTT AND RUSSELL,2024/02/15 10:26:33+00,2024/02/15 19:24:59+00,2673,0,0
319586131,Lower Tier Municipality,Municipalités de palier inférieur,TOWN OF ARNPRIOR,VILLE D'ARNPRIOR,47002,69401,Mainland,Terre ferme,4702,TOWN OF,VILLE DE,ARNPRIOR,ARNPRIOR,,COUNTY OF RENFREW,COMTÉ DE RENFREW,2024/02/15 10:26:33+00,2024/02/15 19:24:59+00,2689,0,0
319586031,Single Tier Municipality,Municipalités à palier unique,NORFOLK COUNTY,NORFOLK COUNTY,28030,12103,Water,Eau,3310,,,NORFOLK COUNTY,NORFOLK COUNTY,,,,2024/02/15 10:45:48+00,2024/02/15 19:24:59+00,2705,0,0
319585816,Lower Tier Municipality,Municipalités de palier inférieur,MUNICIPALITY OF TRENT LAKES,MUNICIPALITÉ DE TRENT LAKES,15041,66619,Mainland,Terre ferme,1542,MUNICIPALITY OF,MUNICIPALITÉ DE,TRENT LAKES,TRENT LAKES,,COUNTY OF PETERBOROUGH,COMTÉ DE PETERBOROUGH,2024/02/15 10:26:33+00,2024/02/15 19:24:59+00,2721,0,0
319585660,Lower Tier Municipality,Municipalités de palier inférieur,MUNICIPALITY OF WEST ELGIN,MUNICIPALITÉ DE WEST ELGIN,34035,44613,Mainland,Terre ferme,3434,MUNICIPALITY OF,MUNICIPALITÉ DE,WEST ELGIN,WEST ELGIN,,COUNTY OF ELGIN,COMTÉ D'ELGIN,2024/02/15 10:26:33+00,2024/02/15 19:24:59+00,2737,0,0
319586005,Single Tier Municipality,Municipalités à palier unique,TOWNSHIP OF MOONBEAM,CANTON DE MOONBEAM,56056,81603,Mainland,Terre ferme,5656,TOWNSHIP OF,CANTON DE,MOONBEAM,MOONBEAM,,,,2024/02/15 10:26:33+00,2024/02/15 19:24:59+00,2753,0,0
319586067,Lower Tier Municipality,Municipalités de palier inférieur,TOWNSHIP OF NORTH KAWARTHA,CANTON DE NORTH KAWARTHA,15035,66616,Mainland,Terre ferme,1536,TOWNSHIP OF,CANTON DE,NORTH KAWARTHA,NORTH KAWARTHA,,COUNTY OF PETERBOROUGH,COMTÉ DE PETERBOROUGH,2024/02/15 10:26:33+00,2024/02/15 19:24:59+00,2769,0,0
319586122,Single Tier Municipality,Municipalités à palier unique,MUNICIPALITY OF OLIVER PAIPOONGE,MUNICIPALITÉ D'OLIVER PAIPOONGE,58007,89618,Mainland,Terre ferme,5808,MUNICIPALITY OF,MUNICIPALITÉ DE,OLIVER PAIPOONGE,OLIVER PAIPOONGE,,,,2024/02/15 10:26:33+00,2024/02/15 19:24:59+00,2785,0,0
319586024,Lower Tier Municipality,Municipalités de palier inférieur,CITY OF NIAGARA FALLS,CITÉ DE NIAGARA FALLS,26043,18101,Water,Eau,2725,CITY OF,CITÉ DE,NIAGARA FALLS,NIAGARA FALLS,,REGIONAL MUNICIPALITY OF NIAGARA,MUNICIPALITÉ RÉGIONALE DE NIAGARA,2024/02/15 10:26:33+00,2024/02/15 19:24:59+00,2801,0,0
319586232,Lower Tier Municipality,Municipalités de palier inférieur,TOWN OF LAURENTIAN HILLS,VILLE DE LAURENTIAN HILLS,47091,69406,Mainland,Terre ferme,4792,TOWN OF,VILLE DE,LAURENTIAN HILLS,LAURENTIAN HILLS,,COUNTY OF RENFREW,COMTÉ DE RENFREW,2024/02/15 10:26:33+00,2024/02/15 19:24:59+00,2817,0,0
319586258,Single Tier Municipality,Municipalités à palier unique,TOWNSHIP OF DORION,CANTON DE DORION,58034,89602,Mainland,Terre ferme,5834,TOWNSHIP OF,CANTON DE,DORION,DORION,,,,2024/02/15 10:26:33+00,2024/02/15 19:24:59+00,2833,0,0
319585758,Lower Tier Municipality,Municipalités de palier inférieur,TOWNSHIP OF EAST HAWKESBURY,CANTON D'EAST HAWKESBURY,2001,67606,Water,Eau,201,TOWNSHIP OF,CANTON DE,EAST HAWKESBURY,EAST HAWKESBURY,,UNITED COUNTIES OF PRESCOTT AND RUSSELL,COMTÉS UNIS DE PRESCOTT AND RUSSELL,2024/02/15 10:26:33+00,2024/02/15 19:24:59+00,2849,0,0
319585914,Lower Tier Municipality,Municipalités de palier inférieur,TOWNSHIP OF ST. CLAIR,CANTON DE ST. CLAIR,38002,54614,Mainland,Terre ferme,3805,TOWNSHIP OF,CANTON DE,ST. CLAIR,ST. CLAIR,,COUNTY OF LAMBTON,COMTÉ DE LAMBTON,2024/02/15 10:26:33+00,2024/02/15 19:24:59+00,2865,0,0
319586074,Single Tier Municipality,Municipalités à palier unique,TOWNSHIP OF RED ROCK,CANTON DE RED ROCK,58041,89617,Mainland,Terre ferme,5841,TOWNSHIP OF,CANTON DE,RED ROCK,RED ROCK,,,,2024/02/15 10:26:33+00,2024/02/15 19:24:59+00,2881,0,0
319585796,Lower Tier Municipality,Municipalités de palier inférieur,CITY OF PICKERING,CITÉ DE PICKERING,18001,10102,Mainland,Terre ferme,1801,CITY OF,CITÉ DE,PICKERING,PICKERING,,REGIONAL MUNICIPALITY OF DURHAM,REGIONAL MUNICIPALITÉ DE DURHAM,2024/02/15 10:26:33+00,2024/02/15 19:24:59+00,2897,0,0
319585907,Single Tier Municipality,Municipalités à palier unique,TOWN OF SPANISH,VILLE DE SPANISH,57039,80618,Water,Eau,5739,TOWN OF,VILLE DE,SPANISH,SPANISH,,,,2024/02/15 10:26:33+00,2024/02/15 19:24:59+00,2913,0,0
319586123,Lower Tier Municipality,Municipalités de palier inférieur,"TOWNSHIP OF HEAD, CLARA AND MARIA","CANTON DE HEAD, CLARA AND MARIA",47098,69612,Mainland,Terre ferme,4798,TOWNSHIP OF,CANTON DE,"HEAD, CLARA AND MARIA","HEAD, CLARA AND MARIA",,COUNTY OF RENFREW,COMTÉ DE RENFREW,2024/02/15 10:26:33+00,2024/02/15 19:24:59+00,2929,0,0
319586150,Single Tier Municipality,Municipalités à palier unique,TOWNSHIP OF BURPEE AND MILLS,CANTON DE BURPEE AND MILLS,51028,83604,Mainland,Terre ferme,5128,TOWNSHIP OF,CANTON DE,BURPEE AND MILLS,BURPEE AND MILLS,,,,2024/02/15 10:26:33+00,2024/02/15 19:24:59+00,2945,0,0
319586175,Lower Tier Municipality,Municipalités de palier inférieur,TOWN OF LASALLE,VILLE DE LASALLE,37034,45408,Mainland,Terre ferme,3734,TOWN OF,VILLE DE,LASALLE,LASALLE,,COUNTY OF ESSEX,COMTÉ D'ESSEX,2024/02/15 10:26:33+00,2024/02/15 19:24:59+00,2961,0,0
319585618,Lower Tier Municipality,Municipalités de palier inférieur,TOWNSHIP OF TAY VALLEY,CANTON DE TAY VALLEY,9010,55617,Mainland,Terre ferme,911,TOWNSHIP OF,CANTON DE,TAY VALLEY,TAY VALLEY,,COUNTY OF LANARK,COMTÉ DE LANARK,2024/02/15 10:26:33+00,2024/02/15 19:24:59+00,2977,0,0
319585741,Lower Tier Municipality,Municipalités de palier inférieur,VILLAGE OF OIL SPRINGS,VILLAGE D'OIL SPRINGS,38018,54505,Mainland,Terre ferme,3818,VILLAGE OF,VILLAGE DE,OIL SPRINGS,OIL SPRINGS,,COUNTY OF LAMBTON,COMTÉ DE LAMBTON,2024/02/15 10:26:33+00,2024/02/15 19:24:59+00,2993,0,0
319586293,Single Tier Municipality,Municipalités à palier unique,TOWN OF MOOSONEE,VILLE DE MOOSONEE,56065,81408,Mainland,Terre ferme,5665,TOWN OF,VILLE DE,MOOSONEE,MOOSONEE,,,,2024/02/15 10:26:33+00,2024/02/15 19:24:59+00,3009,0,0
319585918,Single Tier Municipality,Municipalités à palier unique,CITY OF THUNDER BAY,CITÉ DE THUNDER BAY,58004,89101,Islands,Îles,5804,CITY OF,CITÉ DE,THUNDER BAY,THUNDER BAY,,,,2024/02/15 10:26:33+00,2024/02/15 19:24:59+00,3025,0,0
319586072,Single Tier Municipality,Municipalités à palier unique,TOWNSHIP OF RYERSON,CANTON DE RYERSON,49024,86617,Mainland,Terre ferme,4924,TOWNSHIP OF,CANTON DE,RYERSON,RYERSON,,,,2024/02/15 10:26:33+00,2024/02/15 19:24:59+00,3041,0,0
319586117,Single Tier Municipality,Municipalités à palier unique,TOWN OF PRESCOTT,VILLE DE PRESCOTT,7008,56302,Mainland,Terre ferme,708,TOWN OF,VILLE DE,PRESCOTT,PRESCOTT,,,,2024/02/15 10:26:33+00,2024/02/15 19:24:59+00,3057,0,0
319586271,Lower Tier Municipality,Municipalités de palier inférieur,MUNICIPALITY OF PORT HOPE,MUNICIPALITÉ DE PORT HOPE,14022,61409,Water,Eau,1423,MUNICIPALITY OF,MUNICIPALITÉ DE,PORT HOPE,PORT HOPE,,COUNTY OF NORTHUMBERLAND,COMTÉ DE NORTHUMBERLAND,2024/02/15 10:26:33+00,2024/02/15 19:24:59+00,3073,0,0
319586006,Lower Tier Municipality,Municipalités de palier inférieur,MUNICIPALITY OF WEST ELGIN,MUNICIPALITÉ DE WEST ELGIN,34035,44613,Water,Eau,3434,MUNICIPALITY OF,MUNICIPALITÉ DE,WEST ELGIN,WEST ELGIN,,COUNTY OF ELGIN,COMTÉ D'ELGIN,2024/02/15 10:26:33+00,2024/02/15 19:24:59+00,3089,0,0
319586194,Lower Tier Municipality,Municipalités de palier inférieur,TOWN OF TECUMSEH,VILLE DE TECUMSEH,37043,45414,Water,Eau,3744,TOWN OF,VILLE DE,TECUMSEH,TECUMSEH,,COUNTY OF ESSEX,COMTÉ D'ESSEX,2024/02/15 10:26:33+00,2024/02/15 19:24:59+00,3105,0,0
319586135,Lower Tier Municipality,Municipalités de palier inférieur,CITY OF CLARENCE-ROCKLAND,CITÉ DE CLARENCE-ROCKLAND,2036,67101,Islands,Îles,316,CITY OF,CITÉ DE,CLARENCE-ROCKLAND,CLARENCE-ROCKLAND,,UNITED COUNTIES OF PRESCOTT AND RUSSELL,COMTÉS UNIS DE PRESCOTT AND RUSSELL,2024/02/15 10:26:33+00,2024/02/15 19:24:59+00,3121,0,0
319586162,Single Tier Municipality,Municipalités à palier unique,TOWNSHIP OF BONFIELD,CANTON DE BONFIELD,48026,85602,Mainland,Terre ferme,4826,TOWNSHIP OF,CANTON DE,BONFIELD,BONFIELD,,,,2024/02/15 10:26:33+00,2024/02/15 19:24:59+00,3137,0,0
319585913,Single Tier Municipality,Municipalités à palier unique,TOWNSHIP OF SIOUX NARROWS-NESTOR FALLS,CANTON DE SIOUX NARROWS-NESTOR FALLS,60008,82609,Mainland,Terre ferme,6008,TOWNSHIP OF,CANTON DE,SIOUX NARROWS-NESTOR FALLS,SIOUX NARROWS-NESTOR FALLS,,,,2024/02/15 10:26:33+00,2024/02/15 19:24:59+00,3153,0,0
319585812,Lower Tier Municipality,Municipalités de palier inférieur,TOWNSHIP OF WELLESLEY,CANTON DE WELLESLEY,30024,25602,Mainland,Terre ferme,3024,TOWNSHIP OF,CANTON DE,WELLESLEY,WELLESLEY,,REGIONAL MUNICIPALITY OF WATERLOO,MUNICIPALITÉ RÉGIONALE DE WATERLOO,2024/02/15 10:26:33+00,2024/02/15 19:24:59+00,3169,0,0
319585992,Lower Tier Municipality,Municipalités de palier inférieur,TOWNSHIP OF CAVAN MONAGHAN,CANTON DE CAVAN MONAGHAN,15012,66617,Mainland,Terre ferme,1509,TOWNSHIP OF,CANTON DE,CAVAN MONAGHAN,CAVAN MONAGHAN,,COUNTY OF PETERBOROUGH,COMTÉ DE PETERBOROUGH,2024/02/15 10:26:33+00,2024/02/15 19:24:59+00,3185,0,0
319585732,Single Tier Municipality,Municipalités à palier unique,TOWNSHIP OF NAIRN AND HYMAN,CANTON DE NAIRN AND HYMAN,52031,88613,Mainland,Terre ferme,5231,TOWNSHIP OF,CANTON DE,NAIRN AND HYMAN,NAIRN AND HYMAN,,,,2024/02/15 10:26:33+00,2024/02/15 19:24:59+00,3201,0,0
319586183,Single Tier Municipality,Municipalités à palier unique,TOWN OF MARATHON,VILLE DE MARATHON,58059,89403,Water,Eau,5859,TOWN OF,VILLE DE,MARATHON,MARATHON,,,,2024/02/15 10:26:33+00,2024/02/15 19:24:59+00,3217,0,0
319586168,Single Tier Municipality,Municipalités à palier unique,CITY OF OTTAWA,VILLE D'OTTAWA,6005,20107,Mainland,Terre ferme,614,CITY OF,CITÉ DE,OTTAWA,OTTAWA,,,,2024/02/15 10:26:33+00,2024/02/15 19:24:59+00,3233,0,0
319586054,Lower Tier Municipality,Municipalités de palier inférieur,TOWN OF TILLSONBURG,VILLE DE TILLSONBURG,32004,37402,Mainland,Terre ferme,3204,TOWN OF,VILLE DE,TILLSONBURG,TILLSONBURG,,COUNTY OF OXFORD,COMTÉ D'OXFORD,2024/02/15 10:26:33+00,2024/02/15 19:24:59+00,3249,0,0
319585733,Single Tier Municipality,Municipalités à palier unique,TOWNSHIP OF O'CONNOR,CANTON D'O’CONNOR,58016,89608,Mainland,Terre ferme,5816,TOWNSHIP OF,CANTON DE,O'CONNOR,O'CONNOR,,,,2024/02/15 10:26:33+00,2024/02/15 19:24:59+00,3265,0,0
319586216,Lower Tier Municipality,Municipalités de palier inférieur,TOWN OF GRAND VALLEY,VILLE DE GRAND VALLEY,22005,43607,Mainland,Terre ferme,2204,TOWN OF,VILLE DE,GRAND VALLEY,GRAND VALLEY,,COUNTY OF DUFFERIN,COMTÉ DE DUFFERIN,2024/02/15 10:26:33+00,2024/02/15 19:24:59+00,3281,0,0
319585706,Lower Tier Municipality,Municipalités de palier inférieur,TOWNSHIP OF SOUTHWOLD,CANTON DE SOUTHWOLD,34024,44606,Mainland,Terre ferme,3424,TOWNSHIP OF,CANTON DE,SOUTHWOLD,SOUTHWOLD,,COUNTY OF ELGIN,COMTÉ D'ELGIN,2024/02/15 10:26:33+00,2024/02/15 19:24:59+00,3297,0,0
319586282,Single Tier Municipality,Municipalités à palier unique,CITY OF QUINTE WEST,CITÉ DE QUINTE WEST,12010,51104,Mainland,Terre ferme,1204,CITY OF,CITÉ DE,QUINTE WEST,QUINTE WEST,,,,2024/02/15 10:26:33+00,2024/02/15 19:24:59+00,3313,0,0
319586044,Lower Tier Municipality,Municipalités de palier inférieur,MUNICIPALITY OF CENTRE HASTINGS,MUNICIPALITÉ DE CENTRE HASTINGS,12023,51620,Mainland,Terre ferme,1230,MUNICIPALITY OF,MUNICIPALITÉ DE,CENTRE HASTINGS,CENTRE HASTINGS,,COUNTY OF HASTINGS,COMTÉ DE HASTINGS,2024/02/15 10:26:33+00,2024/02/15 19:24:59+00,3329,0,0
319585751,Single Tier Municipality,Municipalités à palier unique,TOWN OF BLIND RIVER,VILLE DE BLIND RIVER,57038,80401,Islands,Îles,5738,TOWN OF,VILLE DE,BLIND RIVER,BLIND RIVER,,,,2024/02/15 10:26:33+00,2024/02/15 19:24:59+00,3345,0,0
319585757,Lower Tier Municipality,Municipalités de palier inférieur,"TOWNSHIP OF BRUDENELL, LYNDOCH AND RAGLAN","CANTON DE BRUDENELL, LYNDOCH AND RAGLAN",47018,69629,Mainland,Terre ferme,4719,TOWNSHIP OF,CANTON DE,"BRUDENELL, LYNDOCH AND RAGLAN","BRUDENELL, LYNDOCH AND RAGLAN",,COUNTY OF RENFREW,COMTÉ DE RENFREW,2024/02/15 10:26:33+00,2024/02/15 19:24:59+00,3361,0,0
319585925,Lower Tier Municipality,Municipalités de palier inférieur,TOWNSHIP OF FRONT OF YONGE,CANTON DE FRONT OF YONGE,7017,56615,Water,Eau,806,TOWNSHIP OF,CANTON DE,FRONT OF YONGE,FRONT OF YONGE,,UNITED COUNTIES OF LEEDS AND GRENVILLE,COMTÉS UNIS DE LEEDS AND GRENVILLE,2024/02/15 10:26:33+00,2024/02/15 19:24:59+00,3377,0,0
319586283,Single Tier Municipality,Municipalités à palier unique,MUNICIPALITY OF FRENCH RIVER,MUNICIPALITÉ DE FRENCH RIVER,52001,88410,Mainland,Terre ferme,5201,MUNICIPALITY OF,MUNICIPALITÉ DE,FRENCH RIVER,FRENCH RIVER,,,,2024/02/15 10:26:33+00,2024/02/15 19:24:59+00,3393,0,0
319585730,Lower Tier Municipality,Municipalités de palier inférieur,TOWNSHIP OF CHATSWORTH,CANTON DE CHATSWORTH,42031,47619,Mainland,Terre ferme,4204,TOWNSHIP OF,CANTON DE,CHATSWORTH,CHATSWORTH,,COUNTY OF GREY,COMTÉ DE GREY,2024/02/15 10:26:33+00,2024/02/15 19:24:59+00,3409,0,0
319585815,Single Tier Municipality,Municipalités à palier unique,TOWNSHIP OF THE NORTH SHORE,CANTON DE THE NORTH SHORE,57040,80616,Islands,Îles,5740,TOWNSHIP OF,CANTON DE,THE NORTH SHORE,THE NORTH SHORE,,,,2024/02/15 10:26:33+00,2024/02/15 19:24:59+00,3425,0,0
319586270,Lower Tier Municipality,Municipalités de palier inférieur,TOWN OF MONO,VILLE DE MONO,22012,43403,Mainland,Terre ferme,2212,TOWN OF,VILLE DE,MONO,MONO,,COUNTY OF DUFFERIN,COMTÉ DE DUFFERIN,2024/02/15 10:26:33+00,2024/02/15 19:24:59+00,3441,0,0
319585840,Single Tier Municipality,Municipalités à palier unique,VILLAGE OF SUNDRIDGE,VILLAGE DE SUNDRIDGE,49048,86505,Mainland,Terre ferme,4948,VILLAGE OF,VILLAGE DE,SUNDRIDGE,SUNDRIDGE,,,,2024/02/15 10:26:33+00,2024/02/15 19:24:59+00,3457,0,0
319585644,Lower Tier Municipality,Municipalités de palier inférieur,CITY OF VAUGHAN,CITÉ DE VAUGHAN,19028,27101,Mainland,Terre ferme,1928,CITY OF,CITÉ DE,VAUGHAN,VAUGHAN,,REGIONAL MUNICIPALITY OF YORK,MUNICIPALITÉ RÉGIONALE DE YORK,2024/02/15 10:26:33+00,2024/02/15 19:24:59+00,3473,0,0
319586037,Lower Tier Municipality,Municipalités de palier inférieur,TOWNSHIP OF ALFRED AND PLANTAGENET,CANTON D'ALFRED AND PLANTAGENET,2030,67612,Water,Eau,231,TOWNSHIP OF,CANTON DE,ALFRED AND PLANTAGENET,ALFRED AND PLANTAGENET,,UNITED COUNTIES OF PRESCOTT AND RUSSELL,COMTÉS UNIS DE PRESCOTT AND RUSSELL,2024/02/15 10:26:33+00,2024/02/15 19:24:59+00,3489,0,0
319586050,Single Tier Municipality,Municipalités à palier unique,CITY OF TEMISKAMING SHORES,CITÉ DE TEMISKAMING SHORES,54010,90101,Mainland,Terre ferme,5418,CITY OF,CITÉ DE,TEMISKAMING SHORES,TEMISKAMING SHORES,,,,2024/02/15 10:26:33+00,2024/02/15 19:24:59+00,3505,0,0
319586172,Lower Tier Municipality,Municipalités de palier inférieur,TOWNSHIP OF WARWICK,CANTON DE WARWICK,38040,54612,Mainland,Terre ferme,3841,TOWNSHIP OF,CANTON DE,WARWICK,WARWICK,,COUNTY OF LAMBTON,COMTÉ DE LAMBTON,2024/02/15 10:26:33+00,2024/02/15 19:24:59+00,3521,0,0
319585862,Lower Tier Municipality,Municipalités de palier inférieur,MUNICIPALITY OF BAYHAM,MUNICIPALITÉ DE BAYHAM,34003,44609,Mainland,Terre ferme,3401,MUNICIPALITY OF,MUNICIPALITÉ DE,BAYHAM,BAYHAM,,COUNTY OF ELGIN,COMTÉ D'ELGIN,2024/02/15 10:26:33+00,2024/02/15 19:24:59+00,3537,0,0
319586087,Lower Tier Municipality,Municipalités de palier inférieur,MUNICIPALITY OF HURON EAST,MUNICIPALITÉ DE HURON EAST,40015,52408,Mainland,Terre ferme,4040,MUNICIPALITY OF,MUNICIPALITÉ DE,HURON EAST,HURON EAST,,COUNTY OF HURON,COMTÉ DE HURON,2024/02/15 10:26:33+00,2024/02/15 19:24:59+00,3553,0,0
319586213,Lower Tier Municipality,Municipalités de palier inférieur,TOWNSHIP OF WAINFLEET,CANTON DE WAINFLEET,26014,18601,Mainland,Terre ferme,2714,TOWNSHIP OF,CANTON DE,WAINFLEET,WAINFLEET,,REGIONAL MUNICIPALITY OF NIAGARA,MUNICIPALITÉ RÉGIONALE DE NIAGARA,2024/02/15 10:26:33+00,2024/02/15 19:24:59+00,3569,0,0
319586030,Lower Tier Municipality,Municipalités de palier inférieur,TOWNSHIP OF TYENDINAGA,CANTON DE TYENDINAGA,12001,51618,Mainland,Terre ferme,1201,TOWNSHIP OF,CANTON DE,TYENDINAGA,TYENDINAGA,,COUNTY OF HASTINGS,COMTÉ DE HASTINGS,2024/02/15 10:26:33+00,2024/02/15 19:24:59+00,3585,0,0
319586269,Lower Tier Municipality,Municipalités de palier inférieur,TOWN OF BRADFORD WEST GWILLIMBURY,VILLE DE BRADFORD WEST GWILLIMBURY,43013,70410,Mainland,Terre ferme,4312,TOWN OF,VILLE DE,BRADFORD WEST GWILLIMBURY,BRADFORD WEST GWILLIMBURY,,COUNTY OF SIMCOE,COMTÉ DE SIMCOE,2024/02/15 10:26:33+00,2024/02/15 19:24:59+00,3601,0,0
319586113,Lower Tier Municipality,Municipalités de palier inférieur,TOWNSHIP OF SOUTH-WEST OXFORD,CANTON DE SOUTH-WEST OXFORD,32011,37604,Mainland,Terre ferme,3211,TOWNSHIP OF,CANTON DE,SOUTH-WEST OXFORD,SOUTH-WEST OXFORD,,COUNTY OF OXFORD,COMTÉ D'OXFORD,2024/02/15 10:26:33+00,2024/02/15 19:24:59+00,3617,0,0
319586011,Lower Tier Municipality,Municipalités de palier inférieur,TOWNSHIP OF HORTON,CANTON DE HORTON,47046,69613,Water,Eau,4746,TOWNSHIP OF,CANTON DE,HORTON,HORTON,,COUNTY OF RENFREW,COMTÉ DE RENFREW,2024/02/15 10:26:33+00,2024/02/15 19:24:59+00,3633,0,0
319585633,Lower Tier Municipality,Municipalités de palier inférieur,TOWN OF HAWKESBURY,VILLE DE HAWKESBURY,2008,67401,Mainland,Terre ferme,208,TOWN OF,VILLE DE,HAWKESBURY,HAWKESBURY,,UNITED COUNTIES OF PRESCOTT AND RUSSELL,COMTÉS UNIS DE PRESCOTT AND RUSSELL,2024/02/15 10:26:33+00,2024/02/15 19:24:59+00,3649,0,0
319586200,Single Tier Municipality,Municipalités à palier unique,VILLAGE OF THORNLOE,VILLAGE DE THORNLOE,54038,90501,Mainland,Terre ferme,5438,VILLAGE OF,VILLAGE DE,THORNLOE,THORNLOE,,,,2024/02/15 10:26:33+00,2024/02/15 19:24:59+00,3665,0,0
319586029,Single Tier Municipality,Municipalités à palier unique,TOWNSHIP OF LAKE OF THE WOODS,CANTON DE LAKE OF THE WOODS,59045,87614,Mainland,Terre ferme,5946,TOWNSHIP OF,CANTON DE,LAKE OF THE WOODS,LAKE OF THE WOODS,,,,2024/02/15 10:26:33+00,2024/02/15 19:24:59+00,3681,0,0
319585991,Lower Tier Municipality,Municipalités de palier inférieur,TOWN OF SHELBURNE,VILLE DE SHELBURNE,22021,43402,Mainland,Terre ferme,2221,TOWN OF,VILLE DE,SHELBURNE,SHELBURNE,,COUNTY OF DUFFERIN,COMTÉ DE DUFFERIN,2024/02/15 10:26:33+00,2024/02/15 19:24:59+00,3697,0,0
319586179,Single Tier Municipality,Municipalités à palier unique,TOWN OF SMOOTH ROCK FALLS,VILLE DE SMOOTH ROCK FALLS,56048,81406,Mainland,Terre ferme,5648,TOWN OF,VILLE DE,SMOOTH ROCK FALLS,SMOOTH ROCK FALLS,,,,2024/02/15 10:26:33+00,2024/02/15 19:24:59+00,3713,0,0
319585634,Single Tier Municipality,Municipalités à palier unique,TOWNSHIP OF PELEE,CANTON DE PELEE,37001,45609,Mainland,Terre ferme,3701,TOWNSHIP OF,CANTON DE,PELEE,PELEE,,,,2024/02/15 10:26:33+00,2024/02/15 19:24:59+00,3729,0,0
319585771,Lower Tier Municipality,Municipalités de palier inférieur,TOWNSHIP OF ADJALA-TOSORONTIO,CANTON D'ADJALA-TOSORONTIO,43002,70619,Mainland,Terre ferme,4301,TOWNSHIP OF,CANTON DE,ADJALA-TOSORONTIO,ADJALA-TOSORONTIO,,COUNTY OF SIMCOE,COMTÉ DE SIMCOE,2024/02/15 10:26:33+00,2024/02/15 19:24:59+00,3745,0,0
319585783,Lower Tier Municipality,Municipalités de palier inférieur,TOWN OF SOUTH BRUCE PENINSULA,VILLE DE SOUTH BRUCE PENINSULA,41053,41407,Mainland,Terre ferme,4102,TOWN OF,VILLE DE,SOUTH BRUCE PENINSULA,SOUTH BRUCE PENINSULA,,COUNTY OF BRUCE,COMTÉ DE BRUCE,2024/02/15 10:26:33+00,2024/02/15 19:24:59+00,3761,0,0
319585883,Lower Tier Municipality,Municipalités de palier inférieur,TOWNSHIP OF LOYALIST,CANTON DE LOYALIST,11002,57612,Mainland,Terre ferme,1104,TOWNSHIP OF,CANTON DE,LOYALIST,LOYALIST,,COUNTY OF LENNOX AND ADDINGTON,COMTÉ DE LENNOX AND ADDINGTON,2024/02/15 10:26:33+00,2024/02/15 19:24:59+00,3777,0,0
319585949,Single Tier Municipality,Municipalités à palier unique,CITY OF TEMISKAMING SHORES,CITÉ DE TEMISKAMING SHORES,54010,90101,Water,Eau,5418,CITY OF,CITÉ DE,TEMISKAMING SHORES,TEMISKAMING SHORES,,,,2024/02/15 10:26:33+00,2024/02/15 19:24:59+00,3793,0,0
319586262,Single Tier Municipality,Municipalités à palier unique,TOWNSHIP OF THE ARCHIPELAGO,CANTON DE THE ARCHIPELAGO,49005,86621,Islands,Îles,4905,TOWNSHIP OF,CANTON DE,THE ARCHIPELAGO,THE ARCHIPELAGO,,,,2024/02/15 10:26:33+00,2024/02/15 19:24:59+00,3809,0,0
319585728,Single Tier Municipality,Municipalités à palier unique,TOWNSHIP OF BILLINGS,CANTON DE BILLINGS,51021,83603,Water,Eau,5121,TOWNSHIP OF,CANTON DE,BILLINGS,BILLINGS,,,,2024/02/15 10:26:33+00,2024/02/15 19:24:59+00,3825,0,0
319585777,Single Tier Municipality,Municipalités à palier unique,MUNICIPALITY OF SIOUX LOOKOUT,MUNICIPALITÉ DE SIOUX LOOKOUT,60034,82404,Mainland,Terre ferme,6034,MUNICIPALITY OF,MUNICIPALITÉ DE,SIOUX LOOKOUT,SIOUX LOOKOUT,,,,2024/02/15 10:26:33+00,2024/02/15 19:24:59+00,3841,0,0
319585887,Lower Tier Municipality,Municipalités de palier inférieur,CITY OF PORT COLBORNE,CITÉ DE PORT COLBORNE,26011,18102,Islands,Îles,2711,CITY OF,CITÉ DE,PORT COLBORNE,PORT COLBORNE,,REGIONAL MUNICIPALITY OF NIAGARA,MUNICIPALITÉ RÉGIONALE DE NIAGARA,2024/02/15 10:26:33+00,2024/02/15 19:24:59+00,3857,0,0
319585789,Single Tier Municipality,Municipalités à palier unique,CITY OF PEMBROKE,CITÉ DE PEMBROKE,47064,69101,Islands,Îles,4764,CITY OF,CITÉ DE,PEMBROKE,PEMBROKE,,,,2024/02/15 10:26:33+00,2024/02/15 19:24:59+00,3873,0,0
319585885,Lower Tier Municipality,Municipalités de palier inférieur,TOWNSHIP OF SEVERN,CANTON DE SEVERN,43080,70623,Mainland,Terre ferme,4351,TOWNSHIP OF,CANTON DE,SEVERN,SEVERN,,COUNTY OF SIMCOE,COMTÉ DE SIMCOE,2024/02/15 10:26:33+00,2024/02/15 19:24:59+00,3889,0,0
319586221,Lower Tier Municipality,Municipalités de palier inférieur,CITY OF CLARENCE-ROCKLAND,CITÉ DE CLARENCE-ROCKLAND,2036,67101,Mainland,Terre ferme,316,CITY OF,CITÉ DE,CLARENCE-ROCKLAND,CLARENCE-ROCKLAND,,UNITED COUNTIES OF PRESCOTT AND RUSSELL,COMTÉS UNIS DE PRESCOTT AND RUSSELL,2024/02/15 10:26:33+00,2024/02/15 19:24:59+00,3905,0,0
319585867,Lower Tier Municipality,Municipalités de palier inférieur,TOWNSHIP OF HURON-KINLOSS,CANTON DE HURON-KINLOSS,41010,41624,Mainland,Terre ferme,4107,TOWNSHIP OF,CANTON DE,HURON-KINLOSS,HURON-KINLOSS,,COUNTY OF BRUCE,COMTÉ DE BRUCE,2024/02/15 10:26:33+00,2024/02/15 19:24:59+00,3921,0,0
319585926,Single Tier Municipality,Municipalités à palier unique,TOWNSHIP OF CARLING,CANTON DE CARLING,49036,86602,Mainland,Terre ferme,4936,TOWNSHIP OF,CANTON DE,CARLING,CARLING,,,,2024/02/15 10:26:33+00,2024/02/15 19:24:59+00,3937,0,0
319586234,Single Tier Municipality,Municipalités à palier unique,TOWNSHIP OF ASSIGINACK,CANTON D'ASSIGINACK,51011,83601,Water,Eau,5111,TOWNSHIP OF,CANTON DE,ASSIGINACK,ASSIGINACK,,,,2024/02/15 10:26:33+00,2024/02/15 19:24:59+00,3953,0,0
319586229,Single Tier Municipality,Municipalités à palier unique,COUNTY OF PRINCE EDWARD,CITÉ DE PRINCE EDWARD COUNTY,13002,68101,Islands,Îles,1350,COUNTY OF,COMPTÉ DE,PRINCE EDWARD,PRINCE EDWARD COUNTY,,,,2024/02/15 10:26:33+00,2024/02/15 19:24:59+00,3969,0,0
319585635,Lower Tier Municipality,Municipalités de palier inférieur,VILLAGE OF NEWBURY,VILLAGE DE NEWBURY,39002,59504,Mainland,Terre ferme,3902,VILLAGE OF,VILLAGE DE,NEWBURY,NEWBURY,,COUNTY OF MIDDLESEX,COMTÉ DE MIDDLESEX,2024/02/15 10:26:33+00,2024/02/15 19:24:59+00,3985,0,0
319585910,Lower Tier Municipality,Municipalités de palier inférieur,TOWNSHIP OF NORTH GLENGARRY,CANTON DE NORTH GLENGARRY,1047,71615,Mainland,Terre ferme,111,TOWNSHIP OF,CANTON DE,NORTH GLENGARRY,NORTH GLENGARRY,,"UNITED COUNTIES OF STORMONT, DUNDAS AND GLENGARRY","COMTÉS UNIS DE STORMONT, DUNDAS AND GLENGARRY",2024/02/15 10:26:33+00,2024/02/15 19:24:59+00,4001,0,0
319586152,Lower Tier Municipality,Municipalités de palier inférieur,MUNICIPALITY OF NORTHERN BRUCE PENINSULA,MUNICIPALITÉ DE NORTHERN BRUCE PENINSULA,41061,41623,Mainland,Terre ferme,4109,MUNICIPALITY OF,MUNICIPALITÉ DE,NORTHERN BRUCE PENINSULA,NORTHERN BRUCE PENINSULA,,COUNTY OF BRUCE,COMTÉ DE BRUCE,2024/02/15 10:26:33+00,2024/02/15 19:24:59+00,4017,0,0
319586060,Lower Tier Municipality,Municipalités de palier inférieur,CITY OF OSHAWA,CITÉ D'OSHAWA,18013,10101,Mainland,Terre ferme,1813,CITY OF,CITÉ DE,OSHAWA,OSHAWA,,REGIONAL MUNICIPALITY OF DURHAM,REGIONAL MUNICIPALITÉ DE DURHAM,2024/02/15 10:26:33+00,2024/02/15 19:24:59+00,4033,0,0
319585649,Lower Tier Municipality,Municipalités de palier inférieur,TOWNSHIP OF MUSKOKA LAKES,CANTON DE MUSKOKA LAKES,44053,33603,Mainland,Terre ferme,4453,TOWNSHIP OF,CANTON DE,MUSKOKA LAKES,MUSKOKA LAKES,,DISTRICT MUNICIPALITY OF MUSKOKA,DISTRICT MUNICIPALITÉ DE MUSKOKA,2024/02/15 10:26:33+00,2024/02/15 19:24:59+00,4049,0,0
319585897,Lower Tier Municipality,Municipalités de palier inférieur,TOWN OF WASAGA BEACH,VILLE DE WASAGA BEACH,43064,70408,Islands,Îles,4364,TOWN OF,VILLE DE,WASAGA BEACH,WASAGA BEACH,,COUNTY OF SIMCOE,COMTÉ DE SIMCOE,2024/02/15 10:26:33+00,2024/02/15 19:24:59+00,4065,0,0
319585674,Lower Tier Municipality,Municipalités de palier inférieur,TOWNSHIP OF EDWARDSBURGH/CARDINAL,CANTON D'EDWARDSBURGH / CARDINAL,7003,56620,Water,Eau,701,TOWNSHIP OF,CANTON DE,EDWARDSBURGH/CARDINAL,EDWARDSBURGH / CARDINAL,,UNITED COUNTIES OF LEEDS AND GRENVILLE,COMTÉS UNIS DE LEEDS AND GRENVILLE,2024/02/15 10:26:33+00,2024/02/15 19:24:59+00,4081,0,0
319586256,Single Tier Municipality,Municipalités à palier unique,CITY OF PEMBROKE,CITÉ DE PEMBROKE,47064,69101,Water,Eau,4764,CITY OF,CITÉ DE,PEMBROKE,PEMBROKE,,,,2024/02/15 10:26:33+00,2024/02/15 19:24:59+00,4097,0,0
319586148,Lower Tier Municipality,Municipalités de palier inférieur,TOWN OF GREATER NAPANEE,VILLE DE GREATER NAPANEE,11010,57402,Water,Eau,1121,TOWN OF,VILLE DE,GREATER NAPANEE,GREATER NAPANEE,,COUNTY OF LENNOX AND ADDINGTON,COMTÉ DE LENNOX AND ADDINGTON,2024/02/15 10:26:33+00,2024/02/15 19:24:59+00,4113,0,0
319586193,Single Tier Municipality,Municipalités à palier unique,TOWNSHIP OF MANITOUWADGE,CANTON DE MANITOUWADGE,58066,89614,Mainland,Terre ferme,5866,TOWNSHIP OF,CANTON DE,MANITOUWADGE,MANITOUWADGE,,,,2024/02/15 10:26:33+00,2024/02/15 19:24:59+00,4129,0,0
319586036,Single Tier Municipality,Municipalités à palier unique,CITY OF BROCKVILLE,CITÉ DE BROCKVILLE,7015,56101,Water,Eau,802,CITY OF,CITÉ DE,BROCKVILLE,BROCKVILLE,,,,2024/02/15 10:26:33+00,2024/02/15 19:24:59+00,4145,0,0
319585782,Lower Tier Municipality,Municipalités de palier inférieur,TOWNSHIP OF SPRINGWATER,CANTON DE SPRINGWATER,43040,70624,Mainland,Terre ferme,4341,TOWNSHIP OF,CANTON DE,SPRINGWATER,SPRINGWATER,,COUNTY OF SIMCOE,COMTÉ DE SIMCOE,2024/02/15 10:26:33+00,2024/02/15 19:24:59+00,4161,0,0
319586204,Single Tier Municipality,Municipalités à palier unique,TOWNSHIP OF CARLING,CANTON DE CARLING,49036,86602,Water,Eau,4936,TOWNSHIP OF,CANTON DE,CARLING,CARLING,,,,2024/02/15 10:26:33+00,2024/02/15 19:24:59+00,4177,0,0
319586278,Lower Tier Municipality,Municipalités de palier inférieur,TOWNSHIP OF PUSLINCH,CANTON DE PUSLINCH,23001,75612,Mainland,Terre ferme,2301,TOWNSHIP OF,CANTON DE,PUSLINCH,PUSLINCH,,COUNTY OF WELLINGTON,COMTÉ DE WELLINGTON,2024/02/15 10:26:33+00,2024/02/15 19:24:59+00,4193,0,0
319585896,Lower Tier Municipality,Municipalités de palier inférieur,TOWN OF PENETANGUISHENE,VILLE DE PENETANGUISHENE,43072,70406,Water,Eau,4372,TOWN OF,VILLE DE,PENETANGUISHENE,PENETANGUISHENE,,COUNTY OF SIMCOE,COMTÉ DE SIMCOE,2024/02/15 10:26:33+00,2024/02/15 19:24:59+00,4209,0,0
319586161,Lower Tier Municipality,Municipalités de palier inférieur,TOWNSHIP OF EAST HAWKESBURY,CANTON D'EAST HAWKESBURY,2001,67606,Islands,Îles,201,TOWNSHIP OF,CANTON DE,EAST HAWKESBURY,EAST HAWKESBURY,,UNITED COUNTIES OF PRESCOTT AND RUSSELL,COMTÉS UNIS DE PRESCOTT AND RUSSELL,2024/02/15 10:26:33+00,2024/02/15 19:24:59+00,4225,0,0
319585937,Single Tier Municipality,Municipalités à palier unique,MUNICIPALITY OF CENTRAL MANITOULIN,MUNICIPALITÉ DE CENTRAL MANITOULIN,51009,83613,Islands,Îles,5104,MUNICIPALITY OF,MUNICIPALITÉ DE,CENTRAL MANITOULIN,CENTRAL MANITOULIN,,,,2024/02/15 10:26:33+00,2024/02/15 19:24:59+00,4241,0,0
319586207,Lower Tier Municipality,Municipalités de palier inférieur,TOWNSHIP OF FRONTENAC ISLANDS,CANTON DE FRONTENAC ISLANDS,10002,46617,Water,Eau,1001,TOWNSHIP OF,CANTON DE,FRONTENAC ISLANDS,FRONTENAC ISLANDS,,COUNTY OF FRONTENAC,COMTÉ DE FRONTENAC,2024/02/15 10:26:33+00,2024/02/15 19:24:59+00,4257,0,0
319585842,Single Tier Municipality,Municipalités à palier unique,TOWNSHIP OF CHAPPLE,CANTON DE CHAPPLE,59024,87605,Mainland,Terre ferme,5924,TOWNSHIP OF,CANTON DE,CHAPPLE,CHAPPLE,,,,2024/02/15 10:26:33+00,2024/02/15 19:24:59+00,4273,0,0
319586149,Lower Tier Municipality,Municipalités de palier inférieur,TOWNSHIP OF CARLOW/MAYO,CANTON DE CARLOW / MAYO,12067,51625,Mainland,Terre ferme,1270,TOWNSHIP OF,CANTON DE,CARLOW/MAYO,CARLOW / MAYO,,COUNTY OF HASTINGS,COMTÉ DE HASTINGS,2024/02/15 10:26:33+00,2024/02/15 19:24:59+00,4289,0,0
319586235,Lower Tier Municipality,Municipalités de palier inférieur,TOWNSHIP OF MUSKOKA LAKES,CANTON DE MUSKOKA LAKES,44053,33603,Islands,Îles,4453,TOWNSHIP OF,CANTON DE,MUSKOKA LAKES,MUSKOKA LAKES,,DISTRICT MUNICIPALITY OF MUSKOKA,DISTRICT MUNICIPALITÉ DE MUSKOKA,2024/02/15 10:26:33+00,2024/02/15 19:24:59+00,4305,0,0
319585857,Lower Tier Municipality,Municipalités de palier inférieur,MUNICIPALITY OF NORTH PERTH,MUNICIPALITÉ DE NORTH PERTH,31035,65403,Mainland,Terre ferme,3140,MUNICIPALITY OF,MUNICIPALITÉ DE,NORTH PERTH,NORTH PERTH,,COUNTY OF PERTH,COMTÉ DE PERTH,2024/02/15 10:26:33+00,2024/02/15 19:24:59+00,4321,0,0
319585955,Single Tier Municipality,Municipalités à palier unique,TOWN OF PARRY SOUND,VILLE DE PARRY SOUND,49032,86402,Water,Eau,4932,TOWN OF,VILLE DE,PARRY SOUND,PARRY SOUND,,,,2024/02/15 10:26:33+00,2024/02/15 19:24:59+00,4337,0,0
319586220,Single Tier Municipality,Municipalités à palier unique,TOWN OF SMITHS FALLS,VILLE DE SMITHS FALLS,9004,55301,Mainland,Terre ferme,904,TOWN OF,VILLE DE,SMITHS FALLS,SMITHS FALLS,,,,2024/02/15 10:26:33+00,2024/02/15 19:24:59+00,4353,0,0
319585830,Lower Tier Municipality,Municipalités de palier inférieur,TOWN OF AJAX,VILLE D'AJAX,18005,10401,Mainland,Terre ferme,1805,TOWN OF,VILLE DE,AJAX,AJAX,,REGIONAL MUNICIPALITY OF DURHAM,REGIONAL MUNICIPALITÉ DE DURHAM,2024/02/15 10:26:33+00,2024/02/15 19:24:59+00,4369,0,0
319585673,Lower Tier Municipality,Municipalités de palier inférieur,TOWNSHIP OF ALNWICK/HALDIMAND,CANTON D'ALNWICK / HALDIMAND,14015,61616,Water,Eau,1450,TOWNSHIP OF,CANTON DE,ALNWICK/HALDIMAND,ALNWICK / HALDIMAND,,COUNTY OF NORTHUMBERLAND,COMTÉ DE NORTHUMBERLAND,2024/02/15 10:26:33+00,2024/02/15 19:24:59+00,4385,0,0
319586176,Single Tier Municipality,Municipalités à palier unique,TOWNSHIP OF JOCELYN,CANTON DE JOCELYN,57001,80604,Mainland,Terre ferme,5701,TOWNSHIP OF,CANTON DE,JOCELYN,JOCELYN,,,,2024/02/15 10:26:33+00,2024/02/15 19:24:59+00,4401,0,0
319586073,Lower Tier Municipality,Municipalités de palier inférieur,MUNICIPALITY OF BROCKTON,MUNICIPALITÉ DE BROCKTON,41030,41622,Mainland,Terre ferme,4104,MUNICIPALITY OF,MUNICIPALITÉ DE,BROCKTON,BROCKTON,,COUNTY OF BRUCE,COMTÉ DE BRUCE,2024/02/15 10:26:33+00,2024/02/15 19:24:59+00,4417,0,0
319586114,Single Tier Municipality,Municipalités à palier unique,TOWNSHIP OF MCDOUGALL,CANTON DE MCDOUGALL,49031,86612,Water,Eau,4931,TOWNSHIP OF,CANTON DE,MCDOUGALL,MCDOUGALL,,,,2024/02/15 10:26:33+00,2024/02/15 19:24:59+00,4433,0,0
319585973,Lower Tier Municipality,Municipalités de palier inférieur,TOWN OF MINTO,VILLE DE MINTO,23040,75406,Mainland,Terre ferme,2341,TOWN OF,VILLE DE,MINTO,MINTO,,COUNTY OF WELLINGTON,COMTÉ DE WELLINGTON,2024/02/15 10:26:33+00,2024/02/15 19:24:59+00,4449,0,0
319586224,Lower Tier Municipality,Municipalités de palier inférieur,TOWN OF NEWMARKET,VILLE DE NEWMARKET,19048,27403,Mainland,Terre ferme,1948,TOWN OF,VILLE DE,NEWMARKET,NEWMARKET,,REGIONAL MUNICIPALITY OF YORK,MUNICIPALITÉ RÉGIONALE DE YORK,2024/02/15 10:26:33+00,2024/02/15 19:24:59+00,4465,0,0
319586192,Lower Tier Municipality,Municipalités de palier inférieur,MUNICIPALITY OF CLARINGTON,MUNICIPALITÉ DE CLARINGTON,18017,10402,Water,Eau,1817,MUNICIPALITY OF,MUNICIPALITÉ DE,CLARINGTON,CLARINGTON,,REGIONAL MUNICIPALITY OF DURHAM,REGIONAL MUNICIPALITÉ DE DURHAM,2024/02/15 10:26:33+00,2024/02/15 19:24:59+00,4481,0,0
319585662,Lower Tier Municipality,Municipalités de palier inférieur,MUNICIPALITY OF SOUTH DUNDAS,MUNICIPALITÉ DE SOUTH DUNDAS,1016,71614,Islands,Îles,506,MUNICIPALITY OF,MUNICIPALITÉ DE,SOUTH DUNDAS,SOUTH DUNDAS,,"UNITED COUNTIES OF STORMONT, DUNDAS AND GLENGARRY","COMTÉS UNIS DE STORMONT, DUNDAS AND GLENGARRY",2024/02/15 10:26:33+00,2024/02/15 19:24:59+00,4497,0,0
319586132,Lower Tier Municipality,Municipalités de palier inférieur,TOWN OF OAKVILLE,VILLE D'OAKVILLE,24001,14403,Water,Eau,2401,TOWN OF,VILLE DE,OAKVILLE,OAKVILLE,,REGIONAL MUNICIPALITY OF HALTON,REGIONAL MUNICIPALITÉ DE HALTON,2024/02/15 10:26:33+00,2024/02/15 19:24:59+00,4513,0,0
319585898,Lower Tier Municipality,Municipalités de palier inférieur,TOWN OF MILTON,VILLE DE MILTON,24009,14402,Mainland,Terre ferme,2409,TOWN OF,VILLE DE,MILTON,MILTON,,REGIONAL MUNICIPALITY OF HALTON,REGIONAL MUNICIPALITÉ DE HALTON,2024/02/15 10:26:33+00,2024/02/15 19:24:59+00,4529,0,0
319585642,Single Tier Municipality,Municipalités à palier unique,TOWNSHIP OF MORLEY,CANTON DE MORLEY,59031,87610,Water,Eau,5931,TOWNSHIP OF,CANTON DE,MORLEY,MORLEY,,,,2024/02/15 10:26:33+00,2024/02/15 19:24:59+00,4545,0,0
319585672,Single Tier Municipality,Municipalités à palier unique,TOWNSHIP OF HARRIS,CANTON DE HARRIS,54014,90611,Water,Eau,5414,TOWNSHIP OF,CANTON DE,HARRIS,HARRIS,,,,2024/02/15 10:26:33+00,2024/02/15 19:24:59+00,4561,0,0
319585865,Lower Tier Municipality,Municipalités de palier inférieur,TOWN OF LINCOLN,VILLE DE LINCOLN,26057,18403,Mainland,Terre ferme,2622,TOWN OF,VILLE DE,LINCOLN,LINCOLN,,REGIONAL MUNICIPALITY OF NIAGARA,MUNICIPALITÉ RÉGIONALE DE NIAGARA,2024/02/15 10:26:33+00,2024/02/15 19:24:59+00,4577,0,0
319586045,Single Tier Municipality,Municipalités à palier unique,TOWN OF GORE BAY,VILLE DE GORE BAY,51026,83401,Water,Eau,5126,TOWN OF,VILLE DE,GORE BAY,GORE BAY,,,,2024/02/15 10:26:33+00,2024/02/15 19:24:59+00,4593,0,0
319586160,Lower Tier Municipality,Municipalités de palier inférieur,TOWNSHIP OF GREATER MADAWASKA,CANTON DE GREATER MADAWASKA,47007,69637,Mainland,Terre ferme,4706,TOWNSHIP OF,CANTON DE,GREATER MADAWASKA,GREATER MADAWASKA,,COUNTY OF RENFREW,COMTÉ DE RENFREW,2024/02/15 10:26:33+00,2024/02/15 19:24:59+00,4609,0,0
319586130,Lower Tier Municipality,Municipalités de palier inférieur,TOWN OF AMHERSTBURG,VILLE D'AMHERSTBURG,37025,45409,Mainland,Terre ferme,3729,TOWN OF,VILLE DE,AMHERSTBURG,AMHERSTBURG,,COUNTY OF ESSEX,COMTÉ D'ESSEX,2024/02/15 10:26:33+00,2024/02/15 19:24:59+00,4625,0,0
319585891,Single Tier Municipality,Municipalités à palier unique,TOWNSHIP OF PRINCE,CANTON DE PRINCE,57066,80610,Mainland,Terre ferme,5766,TOWNSHIP OF,CANTON DE,PRINCE,PRINCE,,,,2024/02/15 10:26:33+00,2024/02/15 19:24:59+00,4641,0,0
319585877,Single Tier Municipality,Municipalités à palier unique,NORFOLK COUNTY,NORFOLK COUNTY,28030,12103,Islands,Îles,3310,,,NORFOLK COUNTY,NORFOLK COUNTY,,,,2024/02/15 10:45:36+00,2024/02/15 19:24:59+00,4657,0,0
319585711,Lower Tier Municipality,Municipalités de palier inférieur,TOWN OF ESSEX,VILLE D'ESSEX,37020,45410,Mainland,Terre ferme,3754,TOWN OF,VILLE DE,ESSEX,ESSEX,,COUNTY OF ESSEX,COMTÉ D'ESSEX,2024/02/15 10:26:33+00,2024/02/15 19:24:59+00,4673,0,0
319585709,Lower Tier Municipality,Municipalités de palier inférieur,TOWN OF NIAGARA-ON-THE-LAKE,VILLE DE NIAGARA-ON-THE-LAKE,26047,18404,Water,Eau,2627,TOWN OF,VILLE DE,NIAGARA-ON-THE-LAKE,NIAGARA-ON-THE-LAKE,,REGIONAL MUNICIPALITY OF NIAGARA,MUNICIPALITÉ RÉGIONALE DE NIAGARA,2024/02/15 10:26:33+00,2024/02/15 19:24:59+00,4689,0,0
319585760,Lower Tier Municipality,Municipalités de palier inférieur,TOWN OF PLYMPTON-WYOMING,VILLE DE PLYMPTON-WYOMING,38033,54405,Water,Eau,3835,TOWN OF,VILLE DE,PLYMPTON-WYOMING,PLYMPTON-WYOMING,,COUNTY OF LAMBTON,COMTÉ DE LAMBTON,2024/02/15 10:26:33+00,2024/02/15 19:24:59+00,4705,0,0
319585905,Lower Tier Municipality,Municipalités de palier inférieur,MUNICIPALITY OF CLARINGTON,MUNICIPALITÉ DE CLARINGTON,18017,10402,Mainland,Terre ferme,1817,MUNICIPALITY OF,MUNICIPALITÉ DE,CLARINGTON,CLARINGTON,,REGIONAL MUNICIPALITY OF DURHAM,REGIONAL MUNICIPALITÉ DE DURHAM,2024/02/15 10:26:33+00,2024/02/15 19:24:59+00,4721,0,0
319585998,Single Tier Municipality,Municipalités à palier unique,COUNTY OF BRANT,COMTÉ DE BRANT,29002,40102,Mainland,Terre ferme,2920,COUNTY OF,COMPTÉ DE,BRANT,BRANT,,,,2024/02/15 10:26:33+00,2024/02/15 19:24:59+00,4737,0,0
319586098,Lower Tier Municipality,Municipalités de palier inférieur,MUNICIPALITY OF BLUEWATER,MUNICIPALITÉ DE BLUEWATER,40010,52406,Mainland,Terre ferme,4020,MUNICIPALITY OF,MUNICIPALITÉ DE,BLUEWATER,BLUEWATER,,COUNTY OF HURON,COMTÉ DE HURON,2024/02/15 10:26:33+00,2024/02/15 19:24:59+00,4753,0,0
319585847,Lower Tier Municipality,Municipalités de palier inférieur,MUNICIPALITY OF CENTRAL ELGIN,MUNICIPALITÉ DE CENTRAL ELGIN,34015,44610,Islands,Îles,3418,MUNICIPALITY OF,MUNICIPALITÉ DE,CENTRAL ELGIN,CENTRAL ELGIN,,COUNTY OF ELGIN,COMTÉ D'ELGIN,2024/02/15 10:26:33+00,2024/02/15 19:24:59+00,4769,0,0
319585624,Single Tier Municipality,Municipalités à palier unique,TOWNSHIP OF CHISHOLM,CANTON DE CHISHOLM,48031,85605,Mainland,Terre ferme,4831,TOWNSHIP OF,CANTON DE,CHISHOLM,CHISHOLM,,,,2024/02/15 10:26:33+00,2024/02/15 19:24:59+00,4785,0,0
319586001,Single Tier Municipality,Municipalités à palier unique,TOWN OF MATTAWA,VILLE DE MATTAWA,48021,85403,Mainland,Terre ferme,4821,TOWN OF,VILLE DE,MATTAWA,MATTAWA,,,,2024/02/15 10:26:33+00,2024/02/15 19:24:59+00,4801,0,0
319586201,Single Tier Municipality,Municipalités à palier unique,TOWNSHIP OF PLUMMER ADDITIONAL,CANTON DE PLUMMER ADDITIONAL,57019,80609,Mainland,Terre ferme,5719,TOWNSHIP OF,CANTON DE,PLUMMER ADDITIONAL,PLUMMER ADDITIONAL,,,,2024/02/15 10:26:33+00,2024/02/15 19:24:59+00,4817,0,0
319586035,Single Tier Municipality,Municipalités à palier unique,CITY OF GREATER SUDBURY,CITÉ DE GRAND SUDBURY,53005,23103,Mainland,Terre ferme,5307,CITY OF,CITÉ DE,GREATER SUDBURY,GRAND SUDBURY,,,,2024/02/15 10:26:33+00,2024/02/15 19:24:59+00,4833,0,0
319585886,Lower Tier Municipality,Municipalités de palier inférieur,TOWNSHIP OF TINY,CANTON DE TINY,43068,70614,Water,Eau,4368,TOWNSHIP OF,CANTON DE,TINY,TINY,,COUNTY OF SIMCOE,COMTÉ DE SIMCOE,2024/02/15 10:26:33+00,2024/02/15 19:24:59+00,4849,0,0
319585794,Single Tier Municipality,Municipalités à palier unique,TOWNSHIP OF ALBERTON,CANTON D'ALBERTON,59011,87601,Water,Eau,5911,TOWNSHIP OF,CANTON DE,ALBERTON,ALBERTON,,,,2024/02/15 10:26:33+00,2024/02/15 19:24:59+00,4865,0,0
319586010,Single Tier Municipality,Municipalités à palier unique,TOWN OF PRESCOTT,VILLE DE PRESCOTT,7008,56302,Water,Eau,708,TOWN OF,VILLE DE,PRESCOTT,PRESCOTT,,,,2024/02/15 10:26:33+00,2024/02/15 19:24:59+00,4881,0,0
319586245,Lower Tier Municipality,Municipalités de palier inférieur,TOWN OF COLLINGWOOD,VILLE DE COLLINGWOOD,43031,70403,Mainland,Terre ferme,4331,TOWN OF,VILLE DE,COLLINGWOOD,COLLINGWOOD,,COUNTY OF SIMCOE,COMTÉ DE SIMCOE,2024/02/15 10:26:33+00,2024/02/15 19:24:59+00,4897,0,0
319586157,Lower Tier Municipality,Municipalités de palier inférieur,TOWNSHIP OF EDWARDSBURGH/CARDINAL,CANTON D'EDWARDSBURGH / CARDINAL,7003,56620,Mainland,Terre ferme,701,TOWNSHIP OF,CANTON DE,EDWARDSBURGH/CARDINAL,EDWARDSBURGH / CARDINAL,,UNITED COUNTIES OF LEEDS AND GRENVILLE,COMTÉS UNIS DE LEEDS AND GRENVILLE,2024/02/15 10:26:33+00,2024/02/15 19:24:59+00,4913,0,0
319585997,Lower Tier Municipality,Municipalités de palier inférieur,TOWN OF PELHAM,VILLE DE PELHAM,26028,18405,Mainland,Terre ferme,2732,TOWN OF,VILLE DE,PELHAM,PELHAM,,REGIONAL MUNICIPALITY OF NIAGARA,MUNICIPALITÉ RÉGIONALE DE NIAGARA,2024/02/15 10:26:33+00,2024/02/15 19:24:59+00,4929,0,0
319585820,Lower Tier Municipality,Municipalités de palier inférieur,TOWNSHIP OF GUELPH/ERAMOSA,CANTON DE GUELPH / ERAMOSA,23005,75615,Mainland,Terre ferme,2311,TOWNSHIP OF,CANTON DE,GUELPH/ERAMOSA,GUELPH / ERAMOSA,,COUNTY OF WELLINGTON,COMTÉ DE WELLINGTON,2024/02/15 10:26:33+00,2024/02/15 19:24:59+00,4945,0,0
319586188,Lower Tier Municipality,Municipalités de palier inférieur,MUNICIPALITY OF LEAMINGTON,MUNICIPALITÉ DE LEAMINGTON,37003,45413,Water,Eau,3706,MUNICIPALITY OF,MUNICIPALITÉ DE,LEAMINGTON,LEAMINGTON,,COUNTY OF ESSEX,COMTÉ D'ESSEX,2024/02/15 10:26:33+00,2024/02/15 19:24:59+00,4961,0,0
319585667,Lower Tier Municipality,Municipalités de palier inférieur,TOWNSHIP OF LOYALIST,CANTON DE LOYALIST,11002,57612,Islands,Îles,1104,TOWNSHIP OF,CANTON DE,LOYALIST,LOYALIST,,COUNTY OF LENNOX AND ADDINGTON,COMTÉ DE LENNOX AND ADDINGTON,2024/02/15 10:26:33+00,2024/02/15 19:24:59+00,4977,0,0
319586184,Lower Tier Municipality,Municipalités de palier inférieur,TOWNSHIP OF WHITEWATER REGION,CANTON DE WHITEWATER REGION,47050,69636,Mainland,Terre ferme,4758,TOWNSHIP OF,CANTON DE,WHITEWATER REGION,WHITEWATER REGION,,COUNTY OF RENFREW,COMTÉ DE RENFREW,2024/02/15 10:26:33+00,2024/02/15 19:24:59+00,4993,0,0
319585962,Lower Tier Municipality,Municipalités de palier inférieur,CITY OF KITCHENER,CITÉ DE KITCHENER,30012,25102,Mainland,Terre ferme,3012,CITY OF,CITÉ DE,KITCHENER,KITCHENER,,REGIONAL MUNICIPALITY OF WATERLOO,MUNICIPALITÉ RÉGIONALE DE WATERLOO,2024/02/15 10:26:33+00,2024/02/15 19:24:59+00,5009,0,0
319585928,Single Tier Municipality,Municipalités à palier unique,CITY OF QUINTE WEST,CITÉ DE QUINTE WEST,12010,51104,Islands,Îles,1204,CITY OF,CITÉ DE,QUINTE WEST,QUINTE WEST,,,,2024/02/15 10:26:33+00,2024/02/15 19:24:59+00,5025,0,0
319586140,Lower Tier Municipality,Municipalités de palier inférieur,TOWNSHIP OF BLANDFORD-BLENHEIM,CANTON DE BLANDFORD-BLENHEIM,32045,37601,Mainland,Terre ferme,3245,TOWNSHIP OF,CANTON DE,BLANDFORD-BLENHEIM,BLANDFORD-BLENHEIM,,COUNTY OF OXFORD,COMTÉ D'OXFORD,2024/02/15 10:26:33+00,2024/02/15 19:24:59+00,5041,0,0
319586096,Lower Tier Municipality,Municipalités de palier inférieur,TOWNSHIP OF RIDEAU LAKES,CANTON DE RIDEAU LAKES,7030,56618,Mainland,Terre ferme,831,TOWNSHIP OF,CANTON DE,RIDEAU LAKES,RIDEAU LAKES,,UNITED COUNTIES OF LEEDS AND GRENVILLE,COMTÉS UNIS DE LEEDS AND GRENVILLE,2024/02/15 10:26:33+00,2024/02/15 19:24:59+00,5057,0,0
319585630,Single Tier Municipality,Municipalités à palier unique,MUNICIPALITY OF TEMAGAMI,MUNICIPALITÉ DE TEMAGAMI,48069,85405,Mainland,Terre ferme,4869,MUNICIPALITY OF,MUNICIPALITÉ DE,TEMAGAMI,TEMAGAMI,,,,2024/02/15 10:26:33+00,2024/02/15 19:24:59+00,5073,0,0
319585945,Lower Tier Municipality,Municipalités de palier inférieur,TOWN OF AURORA,VILLE D'AURORA,19046,27401,Mainland,Terre ferme,1946,TOWN OF,VILLE DE,AURORA,AURORA,,REGIONAL MUNICIPALITY OF YORK,MUNICIPALITÉ RÉGIONALE DE YORK,2024/02/15 10:26:33+00,2024/02/15 19:24:59+00,5089,0,0
319586033,Lower Tier Municipality,Municipalités de palier inférieur,TOWN OF ARNPRIOR,VILLE D'ARNPRIOR,47002,69401,Islands,Îles,4702,TOWN OF,VILLE DE,ARNPRIOR,ARNPRIOR,,COUNTY OF RENFREW,COMTÉ DE RENFREW,2024/02/15 10:26:33+00,2024/02/15 19:24:59+00,5105,0,0
319585738,Lower Tier Municipality,Municipalités de palier inférieur,MUNICIPALITY OF STRATHROY-CARADOC,MUNICIPALITÉ DE STRATHROY-CARADOC,39013,59621,Mainland,Terre ferme,3916,MUNICIPALITY OF,MUNICIPALITÉ DE,STRATHROY-CARADOC,STRATHROY-CARADOC,,COUNTY OF MIDDLESEX,COMTÉ DE MIDDLESEX,2024/02/15 10:26:33+00,2024/02/15 19:24:59+00,5121,0,0
319586208,Lower Tier Municipality,Municipalités de palier inférieur,TOWNSHIP OF CRAMAHE,CANTON DE CRAMAHE,14010,61617,Mainland,Terre ferme,1411,TOWNSHIP OF,CANTON DE,CRAMAHE,CRAMAHE,,COUNTY OF NORTHUMBERLAND,COMTÉ DE NORTHUMBERLAND,2024/02/15 10:26:33+00,2024/02/15 19:24:59+00,5137,0,0
319586076,Lower Tier Municipality,Municipalités de palier inférieur,TOWN OF AJAX,VILLE D'AJAX,18005,10401,Water,Eau,1805,TOWN OF,VILLE DE,AJAX,AJAX,,REGIONAL MUNICIPALITY OF DURHAM,REGIONAL MUNICIPALITÉ DE DURHAM,2024/02/15 10:26:33+00,2024/02/15 19:24:59+00,5153,0,0
319586118,Lower Tier Municipality,Municipalités de palier inférieur,TOWNSHIP OF HORTON,CANTON DE HORTON,47046,69613,Mainland,Terre ferme,4746,TOWNSHIP OF,CANTON DE,HORTON,HORTON,,COUNTY OF RENFREW,COMTÉ DE RENFREW,2024/02/15 10:26:33+00,2024/02/15 19:24:59+00,5169,0,0
319585619,Single Tier Municipality,Municipalités à palier unique,MUNICIPALITY OF KILLARNEY,MUNICIPALITÉ DE KILLARNEY,52003,88411,Water,Eau,5136,MUNICIPALITY OF,MUNICIPALITÉ DE,KILLARNEY,KILLARNEY,,,,2024/02/15 10:26:33+00,2024/02/15 19:24:59+00,5185,0,0
319585620,Single Tier Municipality,Municipalités à palier unique,TOWNSHIP OF ST. JOSEPH,CANTON DE ST. JOSEPH,57008,80611,Water,Eau,5708,TOWNSHIP OF,CANTON DE,ST. JOSEPH,ST. JOSEPH,,,,2024/02/15 10:26:33+00,2024/02/15 19:24:59+00,5201,0,0
319585845,Lower Tier Municipality,Municipalités de palier inférieur,CITY OF MARKHAM,CITÉ DE MARKHAM,19036,27402,Mainland,Terre ferme,1936,CITY OF,CITÉ DE,MARKHAM,MARKHAM,,REGIONAL MUNICIPALITY OF YORK,MUNICIPALITÉ RÉGIONALE DE YORK,2024/02/15 10:26:33+00,2024/02/15 19:24:59+00,5217,0,0
319585899,Single Tier Municipality,Municipalités à palier unique,CITY OF TEMISKAMING SHORES,CITÉ DE TEMISKAMING SHORES,54010,90101,Islands,Îles,5418,CITY OF,CITÉ DE,TEMISKAMING SHORES,TEMISKAMING SHORES,,,,2024/02/15 10:26:33+00,2024/02/15 19:24:59+00,5233,0,0
319585983,Single Tier Municipality,Municipalités à palier unique,TOWN OF BRUCE MINES,VILLE DE BRUCE MINES,57021,80402,Water,Eau,5721,TOWN OF,VILLE DE,BRUCE MINES,BRUCE MINES,,,,2024/02/15 10:26:33+00,2024/02/15 19:24:59+00,5249,0,0
319586022,Lower Tier Municipality,Municipalités de palier inférieur,MUNICIPALITY OF TWEED,MUNICIPALITÉ DE TWEED,12027,51623,Mainland,Terre ferme,1231,MUNICIPALITY OF,MUNICIPALITÉ DE,TWEED,TWEED,,COUNTY OF HASTINGS,COMTÉ DE HASTINGS,2024/02/15 10:26:33+00,2024/02/15 19:24:59+00,5265,0,0
319585654,Lower Tier Municipality,Municipalités de palier inférieur,TOWNSHIP OF ELIZABETHTOWN-KITLEY,CANTON D'ELIZABETHTOWN-KITLEY,7011,56622,Mainland,Terre ferme,801,TOWNSHIP OF,CANTON DE,ELIZABETHTOWN-KITLEY,ELIZABETHTOWN-KITLEY,,UNITED COUNTIES OF LEEDS AND GRENVILLE,COMTÉS UNIS DE LEEDS AND GRENVILLE,2024/02/15 10:26:33+00,2024/02/15 19:24:59+00,5281,0,0
319585764,Lower Tier Municipality,Municipalités de palier inférieur,TOWN OF KINGSVILLE,VILLE DE KINGSVILLE,37008,45411,Mainland,Terre ferme,3711,TOWN OF,VILLE DE,KINGSVILLE,KINGSVILLE,,COUNTY OF ESSEX,COMTÉ D'ESSEX,2024/02/15 10:26:33+00,2024/02/15 19:24:59+00,5297,0,0
319585775,Single Tier Municipality,Municipalités à palier unique,TOWNSHIP OF MCDOUGALL,CANTON DE MCDOUGALL,49031,86612,Islands,Îles,4931,TOWNSHIP OF,CANTON DE,MCDOUGALL,MCDOUGALL,,,,2024/02/15 10:26:33+00,2024/02/15 19:24:59+00,5313,0,0
319586287,Lower Tier Municipality,Municipalités de palier inférieur,TOWNSHIP OF MCNAB/BRAESIDE,CANTON DE MCNAB / BRAESIDE,47003,69628,Mainland,Terre ferme,4701,TOWNSHIP OF,CANTON DE,MCNAB/BRAESIDE,MCNAB / BRAESIDE,,COUNTY OF RENFREW,COMTÉ DE RENFREW,2024/02/15 10:26:33+00,2024/02/15 19:24:59+00,5329,0,0
319586248,Lower Tier Municipality,Municipalités de palier inférieur,TOWNSHIP OF LIMERICK,CANTON DE LIMERICK,12051,51609,Mainland,Terre ferme,1251,TOWNSHIP OF,CANTON DE,LIMERICK,LIMERICK,,COUNTY OF HASTINGS,COMTÉ DE HASTINGS,2024/02/15 10:26:33+00,2024/02/15 19:24:59+00,5345,0,0
319586294,Lower Tier Municipality,Municipalités de palier inférieur,MUNICIPALITY OF LEAMINGTON,MUNICIPALITÉ DE LEAMINGTON,37003,45413,Islands,Îles,3706,MUNICIPALITY OF,MUNICIPALITÉ DE,LEAMINGTON,LEAMINGTON,,COUNTY OF ESSEX,COMTÉ D'ESSEX,2024/02/15 10:26:33+00,2024/02/15 19:24:59+00,5361,0,0
319586257,Lower Tier Municipality,Municipalités de palier inférieur,MUNICIPALITY OF LAMBTON SHORES,MUNICIPALITÉ DE LAMBTON SHORES,38037,54103,Mainland,Terre ferme,3845,MUNICIPALITY OF,MUNICIPALITÉ DE,LAMBTON SHORES,LAMBTON SHORES,,COUNTY OF LAMBTON,COMTÉ DE LAMBTON,2024/02/15 10:26:33+00,2024/02/15 19:24:59+00,5377,0,0
319585768,Lower Tier Municipality,Municipalités de palier inférieur,TOWNSHIP OF UXBRIDGE,CANTON D'UXBRIDGE,18029,10603,Mainland,Terre ferme,1829,TOWNSHIP OF,CANTON DE,UXBRIDGE,UXBRIDGE,,REGIONAL MUNICIPALITY OF DURHAM,REGIONAL MUNICIPALITÉ DE DURHAM,2024/02/15 10:26:33+00,2024/02/15 19:24:59+00,5393,0,0
319586091,Lower Tier Municipality,Municipalités de palier inférieur,MUNICIPALITY OF BRIGHTON,MUNICIPALITÉ DE BRIGHTON,14005,61407,Mainland,Terre ferme,1408,MUNICIPALITY OF,MUNICIPALITÉ DE,BRIGHTON,BRIGHTON,,COUNTY OF NORTHUMBERLAND,COMTÉ DE NORTHUMBERLAND,2024/02/15 10:26:33+00,2024/02/15 19:24:59+00,5409,0,0
319585703,Single Tier Municipality,Municipalités à palier unique,CITY OF QUINTE WEST,CITÉ DE QUINTE WEST,12010,51104,Water,Eau,1204,CITY OF,CITÉ DE,QUINTE WEST,QUINTE WEST,,,,2024/02/15 10:26:33+00,2024/02/15 19:24:59+00,5425,0,0
319586099,Lower Tier Municipality,Municipalités de palier inférieur,TOWN OF CARLETON PLACE,VILLE DE CARLETON PLACE,9028,55402,Mainland,Terre ferme,928,TOWN OF,VILLE DE,CARLETON PLACE,CARLETON PLACE,,COUNTY OF LANARK,COMTÉ DE LANARK,2024/02/15 10:26:33+00,2024/02/15 19:24:59+00,5441,0,0
319585861,Single Tier Municipality,Municipalités à palier unique,TOWNSHIP OF THE NORTH SHORE,CANTON DE THE NORTH SHORE,57040,80616,Water,Eau,5740,TOWNSHIP OF,CANTON DE,THE NORTH SHORE,THE NORTH SHORE,,,,2024/02/15 10:26:33+00,2024/02/15 19:24:59+00,5457,0,0
319586259,Lower Tier Municipality,Municipalités de palier inférieur,TOWN OF AMHERSTBURG,VILLE D'AMHERSTBURG,37025,45409,Water,Eau,3729,TOWN OF,VILLE DE,AMHERSTBURG,AMHERSTBURG,,COUNTY OF ESSEX,COMTÉ D'ESSEX,2024/02/15 10:26:33+00,2024/02/15 19:24:59+00,5473,0,0
319586048,Lower Tier Municipality,Municipalités de palier inférieur,TOWN OF WASAGA BEACH,VILLE DE WASAGA BEACH,43064,70408,Mainland,Terre ferme,4364,TOWN OF,VILLE DE,WASAGA BEACH,WASAGA BEACH,,COUNTY OF SIMCOE,COMTÉ DE SIMCOE,2024/02/15 10:26:33+00,2024/02/15 19:24:59+00,5489,0,0
319586014,Lower Tier Municipality,Municipalités de palier inférieur,TOWNSHIP OF ADELAIDE-METCALFE,CANTON D'ADELAIDE-METCALFE,39010,59618,Mainland,Terre ferme,3946,TOWNSHIP OF,CANTON DE,ADELAIDE-METCALFE,ADELAIDE-METCALFE,,COUNTY OF MIDDLESEX,COMTÉ DE MIDDLESEX,2024/02/15 10:26:33+00,2024/02/15 19:24:59+00,5505,0,0
319586241,Single Tier Municipality,Municipalités à palier unique,TOWNSHIP OF PLUMMER ADDITIONAL,CANTON DE PLUMMER ADDITIONAL,57019,80609,Water,Eau,5719,TOWNSHIP OF,CANTON DE,PLUMMER ADDITIONAL,PLUMMER ADDITIONAL,,,,2024/02/15 10:26:33+00,2024/02/15 19:24:59+00,5521,0,0
319585996,Single Tier Municipality,Municipalités à palier unique,"TOWNSHIP OF MACDONALD, MEREDITH AND ABERDEEN ADDITIONAL","CANTON DE MACDONALD, MEREDITH AND ABERDEEN ADDITIONAL",57051,80607,Islands,Îles,5751,TOWNSHIP OF,CANTON DE,"MACDONALD, MEREDITH AND ABERDEEN ADDITIONAL","MACDONALD, MEREDITH AND ABERDEEN ADDITIONAL",,,,2024/02/15 10:26:33+00,2024/02/15 19:24:59+00,5537,0,0
319586154,Single Tier Municipality,Municipalités à palier unique,HALDIMAND COUNTY,HALDIMAND COUNTY,28005,12102,Water,Eau,2810,,,HALDIMAND COUNTY,HALDIMAND COUNTY,,,,2024/02/15 10:45:59+00,2024/02/15 19:24:59+00,5553,0,0
319585854,Lower Tier Municipality,Municipalités de palier inférieur,TOWN OF INGERSOLL,VILLE D'INGERSOLL,32018,37401,Mainland,Terre ferme,3218,TOWN OF,VILLE DE,INGERSOLL,INGERSOLL,,COUNTY OF OXFORD,COMTÉ D'OXFORD,2024/02/15 10:26:33+00,2024/02/15 19:24:59+00,5569,0,0
319585727,Lower Tier Municipality,Municipalités de palier inférieur,CITY OF PICKERING,CITÉ DE PICKERING,18001,10102,Water,Eau,1801,CITY OF,CITÉ DE,PICKERING,PICKERING,,REGIONAL MUNICIPALITY OF DURHAM,REGIONAL MUNICIPALITÉ DE DURHAM,2024/02/15 10:26:33+00,2024/02/15 19:24:59+00,5585,0,0
319586242,Lower Tier Municipality,Municipalités de palier inférieur,CITY OF ST. CATHARINES,CITÉ DE ST. CATHARINES,26053,18103,Mainland,Terre ferme,2629,CITY OF,CITÉ DE,ST. CATHARINES,ST. CATHARINES,,REGIONAL MUNICIPALITY OF NIAGARA,MUNICIPALITÉ RÉGIONALE DE NIAGARA,2024/02/15 10:26:33+00,2024/02/15 19:24:59+00,5601,0,0
319586126,Lower Tier Municipality,Municipalités de palier inférieur,TOWN OF NIAGARA-ON-THE-LAKE,VILLE DE NIAGARA-ON-THE-LAKE,26047,18404,Mainland,Terre ferme,2627,TOWN OF,VILLE DE,NIAGARA-ON-THE-LAKE,NIAGARA-ON-THE-LAKE,,REGIONAL MUNICIPALITY OF NIAGARA,MUNICIPALITÉ RÉGIONALE DE NIAGARA,2024/02/15 10:26:33+00,2024/02/15 19:24:59+00,5617,0,0
319585953,Lower Tier Municipality,Municipalités de palier inférieur,TOWN OF LINCOLN,VILLE DE LINCOLN,26057,18403,Water,Eau,2622,TOWN OF,VILLE DE,LINCOLN,LINCOLN,,REGIONAL MUNICIPALITY OF NIAGARA,MUNICIPALITÉ RÉGIONALE DE NIAGARA,2024/02/15 10:26:33+00,2024/02/15 19:24:59+00,5633,0,0
319586263,Single Tier Municipality,Municipalités à palier unique,MUNICIPALITY OF SHUNIAH,MUNICIPALITÉ DE SHUNIAH,58028,89612,Water,Eau,5828,MUNICIPALITY OF,MUNICIPALITÉ DE,SHUNIAH,SHUNIAH,,,,2024/02/15 10:26:33+00,2024/02/15 19:24:59+00,5649,0,0
319586004,Lower Tier Municipality,Municipalités de palier inférieur,MUNICIPALITY OF LAKESHORE,MUNICIPALITÉ DE LAKESHORE,37049,45412,Water,Eau,3751,MUNICIPALITY OF,MUNICIPALITÉ DE,LAKESHORE,LAKESHORE,,COUNTY OF ESSEX,COMTÉ D'ESSEX,2024/02/15 10:26:33+00,2024/02/15 19:24:59+00,5665,0,0
319585852,Lower Tier Municipality,Municipalités de palier inférieur,MUNICIPALITY OF SOUTH HURON,MUNICIPALITÉ DE SOUTH HURON,40003,52407,Mainland,Terre ferme,4010,MUNICIPALITY OF,MUNICIPALITÉ DE,SOUTH HURON,SOUTH HURON,,COUNTY OF HURON,COMTÉ DE HURON,2024/02/15 10:26:33+00,2024/02/15 19:24:59+00,5681,0,0
319585951,Lower Tier Municipality,Municipalités de palier inférieur,TOWNSHIP OF EAST GARAFRAXA,CANTON D'EAST GARAFRAXA,22001,43602,Mainland,Terre ferme,2201,TOWNSHIP OF,CANTON DE,EAST GARAFRAXA,EAST GARAFRAXA,,COUNTY OF DUFFERIN,COMTÉ DE DUFFERIN,2024/02/15 10:26:33+00,2024/02/15 19:24:59+00,5697,0,0
319586214,Single Tier Municipality,Municipalités à palier unique,TOWNSHIP OF TERRACE BAY,CANTON DE TERRACE BAY,58054,89613,Water,Eau,5854,TOWNSHIP OF,CANTON DE,TERRACE BAY,TERRACE BAY,,,,2024/02/15 10:26:33+00,2024/02/15 19:24:59+00,5713,0,0
319585798,Lower Tier Municipality,Municipalités de palier inférieur,TOWNSHIP OF GEORGIAN BAY,CANTON DE GEORGIAN BAY,44065,33601,Water,Eau,4465,TOWNSHIP OF,CANTON DE,GEORGIAN BAY,GEORGIAN BAY,,DISTRICT MUNICIPALITY OF MUSKOKA,DISTRICT MUNICIPALITÉ DE MUSKOKA,2024/02/15 10:26:33+00,2024/02/15 19:24:59+00,5729,0,0
319585786,Single Tier Municipality,Municipalités à palier unique,CITY OF HAMILTON,CITÉ DE HAMILTON,25005,16103,Water,Eau,2518,CITY OF,CITÉ DE,HAMILTON,HAMILTON,,,,2024/02/15 10:26:33+00,2024/02/15 19:24:59+00,5745,0,0
319586182,Lower Tier Municipality,Municipalités de palier inférieur,MUNICIPALITY OF KINCARDINE,MUNICIPALITÉ DE KINCARDINE,41020,41625,Mainland,Terre ferme,4108,MUNICIPALITY OF,MUNICIPALITÉ DE,KINCARDINE,KINCARDINE,,COUNTY OF BRUCE,COMTÉ DE BRUCE,2024/02/15 10:26:33+00,2024/02/15 19:24:59+00,5761,0,0
319585977,Lower Tier Municipality,Municipalités de palier inférieur,TOWNSHIP OF ALFRED AND PLANTAGENET,CANTON D'ALFRED AND PLANTAGENET,2030,67612,Mainland,Terre ferme,231,TOWNSHIP OF,CANTON DE,ALFRED AND PLANTAGENET,ALFRED AND PLANTAGENET,,UNITED COUNTIES OF PRESCOTT AND RUSSELL,COMTÉS UNIS DE PRESCOTT AND RUSSELL,2024/02/15 10:26:33+00,2024/02/15 19:24:59+00,5777,0,0
319586205,Single Tier Municipality,Municipalités à palier unique,MUNICIPALITY OF GREENSTONE,MUNICIPALITÉ DE GREENSTONE,58058,89404,Mainland,Terre ferme,5876,MUNICIPALITY OF,MUNICIPALITÉ DE,GREENSTONE,GREENSTONE,,,,2024/02/15 10:26:33+00,2024/02/15 19:24:59+00,5793,0,0
319585617,Single Tier Municipality,Municipalités à palier unique,CITY OF TORONTO,CITÉ DE TORONTO,20002,1106,Mainland,Terre ferme,1999,CITY OF,CITÉ DE,TORONTO,TORONTO,,,,2024/02/15 10:26:33+00,2024/02/15 19:24:59+00,5809,0,0
319585749,Lower Tier Municipality,Municipalités de palier inférieur,TOWN OF PERTH,VILLE DE PERTH,9021,55403,Mainland,Terre ferme,921,TOWN OF,VILLE DE,PERTH,PERTH,,COUNTY OF LANARK,COMTÉ DE LANARK,2024/02/15 10:26:33+00,2024/02/15 19:24:59+00,5825,0,0
319586300,Lower Tier Municipality,Municipalités de palier inférieur,TOWNSHIP OF TAY,CANTON DE TAY,43070,70625,Islands,Îles,4353,TOWNSHIP OF,CANTON DE,TAY,TAY,,COUNTY OF SIMCOE,COMTÉ DE SIMCOE,2024/02/15 10:26:33+00,2024/02/15 19:24:59+00,5841,0,0
319585700,Lower Tier Municipality,Municipalités de palier inférieur,TOWN OF INNISFIL,VILLE D'INNISFIL,43017,70409,Mainland,Terre ferme,4316,TOWN OF,VILLE DE,INNISFIL,INNISFIL,,COUNTY OF SIMCOE,COMTÉ DE SIMCOE,2024/02/15 10:26:33+00,2024/02/15 19:24:59+00,5857,0,0
319586185,Lower Tier Municipality,Municipalités de palier inférieur,TOWNSHIP OF NORTH FRONTENAC,CANTON DE NORTH FRONTENAC,10041,46618,Mainland,Terre ferme,1042,TOWNSHIP OF,CANTON DE,NORTH FRONTENAC,NORTH FRONTENAC,,COUNTY OF FRONTENAC,COMTÉ DE FRONTENAC,2024/02/15 10:26:33+00,2024/02/15 19:24:59+00,5873,0,0
319586181,Single Tier Municipality,Municipalités à palier unique,MUNICIPALITY OF POWASSAN,MUNICIPALITÉ DE POWASSAN,49058,86405,Mainland,Terre ferme,4959,MUNICIPALITY OF,MUNICIPALITÉ DE,POWASSAN,POWASSAN,,,,2024/02/15 10:26:33+00,2024/02/15 19:24:59+00,5889,0,0
319586000,Lower Tier Municipality,Municipalités de palier inférieur,TOWNSHIP OF ATHENS,CANTON D'ATHENS,7040,56619,Mainland,Terre ferme,819,TOWNSHIP OF,CANTON DE,ATHENS,ATHENS,,UNITED COUNTIES OF LEEDS AND GRENVILLE,COMTÉS UNIS DE LEEDS AND GRENVILLE,2024/02/15 10:26:33+00,2024/02/15 19:24:59+00,5905,0,0
319585717,Lower Tier Municipality,Municipalités de palier inférieur,TOWNSHIP OF PERTH EAST,CANTON DE PERTH EAST,31002,65612,Mainland,Terre ferme,3110,TOWNSHIP OF,CANTON DE,PERTH EAST,PERTH EAST,,COUNTY OF PERTH,COMTÉ DE PERTH,2024/02/15 10:26:33+00,2024/02/15 19:24:59+00,5921,0,0
319585792,Single Tier Municipality,Municipalités à palier unique,TOWNSHIP OF COCKBURN ISLAND,CANTON DE COCKBURN ISLAND,51034,83606,Islands,Îles,5134,TOWNSHIP OF,CANTON DE,COCKBURN ISLAND,COCKBURN ISLAND,,,,2024/02/15 10:26:33+00,2024/02/15 19:24:59+00,5937,0,0
319585787,Lower Tier Municipality,Municipalités de palier inférieur,TOWNSHIP OF HURON-KINLOSS,CANTON DE HURON-KINLOSS,41010,41624,Water,Eau,4107,TOWNSHIP OF,CANTON DE,HURON-KINLOSS,HURON-KINLOSS,,COUNTY OF BRUCE,COMTÉ DE BRUCE,2024/02/15 10:26:33+00,2024/02/15 19:24:59+00,5953,0,0
319585974,Single Tier Municipality,Municipalités à palier unique,TOWNSHIP OF CHAPLEAU,CANTON DE CHAPLEAU,52092,88606,Mainland,Terre ferme,5292,TOWNSHIP OF,CANTON DE,CHAPLEAU,CHAPLEAU,,,,2024/02/15 10:26:33+00,2024/02/15 19:24:59+00,5969,0,0
319586295,Single Tier Municipality,Municipalités à palier unique,TOWNSHIP OF TEHKUMMAH,CANTON DE TEHKUMMAH,51001,83611,Islands,Îles,5101,TOWNSHIP OF,CANTON DE,TEHKUMMAH,TEHKUMMAH,,,,2024/02/15 10:26:33+00,2024/02/15 19:24:59+00,5985,0,0
319585832,Single Tier Municipality,Municipalités à palier unique,TOWNSHIP OF JAMES,CANTON DE JAMES,54042,90614,Mainland,Terre ferme,5442,TOWNSHIP OF,CANTON DE,JAMES,JAMES,,,,2024/02/15 10:26:33+00,2024/02/15 19:24:59+00,6001,0,0
319586139,Single Tier Municipality,Municipalités à palier unique,TOWNSHIP OF TERRACE BAY,CANTON DE TERRACE BAY,58054,89613,Islands,Îles,5854,TOWNSHIP OF,CANTON DE,TERRACE BAY,TERRACE BAY,,,,2024/02/15 10:26:33+00,2024/02/15 19:24:59+00,6017,0,0
319586247,Lower Tier Municipality,Municipalités de palier inférieur,TOWN OF GEORGINA,VILLE DE GEORGINA,19070,27408,Mainland,Terre ferme,1970,TOWN OF,VILLE DE,GEORGINA,GEORGINA,,REGIONAL MUNICIPALITY OF YORK,MUNICIPALITÉ RÉGIONALE DE YORK,2024/02/15 10:26:33+00,2024/02/15 19:24:59+00,6033,0,0
319585930,Lower Tier Municipality,Municipalités de palier inférieur,MUNICIPALITY OF BRIGHTON,MUNICIPALITÉ DE BRIGHTON,14005,61407,Water,Eau,1408,MUNICIPALITY OF,MUNICIPALITÉ DE,BRIGHTON,BRIGHTON,,COUNTY OF NORTHUMBERLAND,COMTÉ DE NORTHUMBERLAND,2024/02/15 10:26:33+00,2024/02/15 19:24:59+00,6049,0,0
319585799,Lower Tier Municipality,Municipalités de palier inférieur,TOWN OF HANOVER,VILLE DE HANOVER,42029,47402,Mainland,Terre ferme,4229,TOWN OF,VILLE DE,HANOVER,HANOVER,,COUNTY OF GREY,COMTÉ DE GREY,2024/02/15 10:26:33+00,2024/02/15 19:24:59+00,6065,0,0
319586199,Lower Tier Municipality,Municipalités de palier inférieur,TOWN OF AYLMER,VILLE D'AYLMER,34011,44401,Mainland,Terre ferme,3411,TOWN OF,VILLE DE,AYLMER,AYLMER,,COUNTY OF ELGIN,COMTÉ D'ELGIN,2024/02/15 10:26:33+00,2024/02/15 19:24:59+00,6081,0,0
319586230,Lower Tier Municipality,Municipalités de palier inférieur,TOWNSHIP OF SOUTH STORMONT,CANTON DE SOUTH STORMONT,1009,71618,Water,Eau,406,TOWNSHIP OF,CANTON DE,SOUTH STORMONT,SOUTH STORMONT,,"UNITED COUNTIES OF STORMONT, DUNDAS AND GLENGARRY","COMTÉS UNIS DE STORMONT, DUNDAS AND GLENGARRY",2024/02/15 10:26:33+00,2024/02/15 19:24:59+00,6097,0,0
319586026,Single Tier Municipality,Municipalités à palier unique,TOWNSHIP OF LAIRD,CANTON DE LAIRD,57011,80606,Mainland,Terre ferme,5711,TOWNSHIP OF,CANTON DE,LAIRD,LAIRD,,,,2024/02/15 10:26:33+00,2024/02/15 19:24:59+00,6113,0,0
319585999,Lower Tier Municipality,Municipalités de palier inférieur,TOWNSHIP OF MCNAB/BRAESIDE,CANTON DE MCNAB / BRAESIDE,47003,69628,Islands,Îles,4701,TOWNSHIP OF,CANTON DE,MCNAB/BRAESIDE,MCNAB / BRAESIDE,,COUNTY OF RENFREW,COMTÉ DE RENFREW,2024/02/15 10:26:33+00,2024/02/15 19:24:59+00,6129,0,0
319586055,Single Tier Municipality,Municipalités à palier unique,TOWNSHIP OF MCDOUGALL,CANTON DE MCDOUGALL,49031,86612,Mainland,Terre ferme,4931,TOWNSHIP OF,CANTON DE,MCDOUGALL,MCDOUGALL,,,,2024/02/15 10:26:33+00,2024/02/15 19:24:59+00,6145,0,0
319586125,Lower Tier Municipality,Municipalités de palier inférieur,TOWNSHIP OF MINDEN HILLS,CANTON DE MINDEN HILLS,46011,49611,Mainland,Terre ferme,4616,TOWNSHIP OF,CANTON DE,MINDEN HILLS,MINDEN HILLS,,COUNTY OF HALIBURTON,COMTÉ DE HALIBURTON,2024/02/15 10:26:33+00,2024/02/15 19:24:59+00,6161,0,0
319585779,Lower Tier Municipality,Municipalités de palier inférieur,TOWNSHIP OF LOYALIST,CANTON DE LOYALIST,11002,57612,Water,Eau,1104,TOWNSHIP OF,CANTON DE,LOYALIST,LOYALIST,,COUNTY OF LENNOX AND ADDINGTON,COMTÉ DE LENNOX AND ADDINGTON,2024/02/15 10:26:33+00,2024/02/15 19:24:59+00,6177,0,0
319585866,Single Tier Municipality,Municipalités à palier unique,TOWN OF PARRY SOUND,VILLE DE PARRY SOUND,49032,86402,Mainland,Terre ferme,4932,TOWN OF,VILLE DE,PARRY SOUND,PARRY SOUND,,,,2024/02/15 10:26:33+00,2024/02/15 19:24:59+00,6193,0,0
319585679,Lower Tier Municipality,Municipalités de palier inférieur,TOWNSHIP OF WAINFLEET,CANTON DE WAINFLEET,26014,18601,Water,Eau,2714,TOWNSHIP OF,CANTON DE,WAINFLEET,WAINFLEET,,REGIONAL MUNICIPALITY OF NIAGARA,MUNICIPALITÉ RÉGIONALE DE NIAGARA,2024/02/15 10:26:33+00,2024/02/15 19:24:59+00,6209,0,0
319585795,Single Tier Municipality,Municipalités à palier unique,CITY OF ORILLIA,CITÉ D'ORILLIA,43052,70102,Water,Eau,4352,CITY OF,CITÉ DE,ORILLIA,ORILLIA,,,,2024/02/15 10:26:33+00,2024/02/15 19:24:59+00,6225,0,0
319586253,Single Tier Municipality,Municipalités à palier unique,CITY OF CORNWALL,CITÉ DE CORNWALL,1012,71101,Water,Eau,402,CITY OF,CITÉ DE,CORNWALL,CORNWALL,,,,2024/02/15 10:26:33+00,2024/02/15 19:24:59+00,6241,0,0
319586254,Lower Tier Municipality,Municipalités de palier inférieur,TOWNSHIP OF MADAWASKA VALLEY,CANTON DE MADAWASKA VALLEY,47023,69634,Mainland,Terre ferme,4726,TOWNSHIP OF,CANTON DE,MADAWASKA VALLEY,MADAWASKA VALLEY,,COUNTY OF RENFREW,COMTÉ DE RENFREW,2024/02/15 10:26:33+00,2024/02/15 19:24:59+00,6257,0,0
319586166,Single Tier Municipality,Municipalités à palier unique,TOWNSHIP OF SABLES-SPANISH RIVERS,CANTON DE SABLES-SPANISH RIVERS,52019,88621,Mainland,Terre ferme,5218,TOWNSHIP OF,CANTON DE,SABLES-SPANISH RIVERS,SABLES-SPANISH RIVERS,,,,2024/02/15 10:26:33+00,2024/02/15 19:24:59+00,6273,0,0
319585810,Single Tier Municipality,Municipalités à palier unique,NORFOLK COUNTY,NORFOLK COUNTY,28030,12103,Mainland,Terre ferme,3310,,,NORFOLK COUNTY,NORFOLK COUNTY,,,,2024/02/15 10:45:27+00,2024/02/15 19:24:59+00,6289,0,0
319585637,Lower Tier Municipality,Municipalités de palier inférieur,"TOWNSHIP OF HEAD, CLARA AND MARIA","CANTON DE HEAD, CLARA AND MARIA",47098,69612,Islands,Îles,4798,TOWNSHIP OF,CANTON DE,"HEAD, CLARA AND MARIA","HEAD, CLARA AND MARIA",,COUNTY OF RENFREW,COMTÉ DE RENFREW,2024/02/15 10:26:33+00,2024/02/15 19:24:59+00,6305,0,0
319586164,Single Tier Municipality,Municipalités à palier unique,TOWNSHIP OF ALBERTON,CANTON D'ALBERTON,59011,87601,Mainland,Terre ferme,5911,TOWNSHIP OF,CANTON DE,ALBERTON,ALBERTON,,,,2024/02/15 10:26:33+00,2024/02/15 19:24:59+00,6321,0,0
319585705,Single Tier Municipality,Municipalités à palier unique,TOWNSHIP OF IGNACE,CANTON D'IGNACE,60001,82601,Mainland,Terre ferme,6001,TOWNSHIP OF,CANTON DE,IGNACE,IGNACE,,,,2024/02/15 10:26:33+00,2024/02/15 19:24:59+00,6337,0,0
319585901,Lower Tier Municipality,Municipalités de palier inférieur,MUNICIPALITY OF SOUTH HURON,MUNICIPALITÉ DE SOUTH HURON,40003,52407,Water,Eau,4010,MUNICIPALITY OF,MUNICIPALITÉ DE,SOUTH HURON,SOUTH HURON,,COUNTY OF HURON,COMTÉ DE HURON,2024/02/15 10:26:33+00,2024/02/15 19:24:59+00,6353,0,0
319586266,Lower Tier Municipality,Municipalités de palier inférieur,TOWNSHIP OF BROCK,CANTON DE BROCK,18039,10601,Islands,Îles,1839,TOWNSHIP OF,CANTON DE,BROCK,BROCK,,REGIONAL MUNICIPALITY OF DURHAM,REGIONAL MUNICIPALITÉ DE DURHAM,2024/02/15 10:26:33+00,2024/02/15 19:24:59+00,6369,0,0
319585774,Lower Tier Municipality,Municipalités de palier inférieur,TOWNSHIP OF NORWICH,CANTON DE NORWICH,32002,37603,Mainland,Terre ferme,3202,TOWNSHIP OF,CANTON DE,NORWICH,NORWICH,,COUNTY OF OXFORD,COMTÉ D'OXFORD,2024/02/15 10:26:33+00,2024/02/15 19:24:59+00,6385,0,0
319585957,Lower Tier Municipality,Municipalités de palier inférieur,TOWNSHIP OF SOUTH GLENGARRY,CANTON DE SOUTH GLENGARRY,1002,71616,Water,Eau,101,TOWNSHIP OF,CANTON DE,SOUTH GLENGARRY,SOUTH GLENGARRY,,"UNITED COUNTIES OF STORMONT, DUNDAS AND GLENGARRY","COMTÉS UNIS DE STORMONT, DUNDAS AND GLENGARRY",2024/02/15 10:26:33+00,2024/02/15 19:24:59+00,6401,0,0
319585868,Single Tier Municipality,Municipalités à palier unique,TOWNSHIP OF MACHIN,CANTON DE MACHIN,60021,82603,Mainland,Terre ferme,6021,TOWNSHIP OF,CANTON DE,MACHIN,MACHIN,,,,2024/02/15 10:26:33+00,2024/02/15 19:24:59+00,6417,0,0
319586246,Lower Tier Municipality,Municipalités de palier inférieur,TOWN OF THE BLUE MOUNTAINS,VILLE DE THE BLUE MOUNTAINS,42041,47405,Water,Eau,4242,TOWN OF,VILLE DE,THE BLUE MOUNTAINS,THE BLUE MOUNTAINS,,COUNTY OF GREY,COMTÉ DE GREY,2024/02/15 10:26:33+00,2024/02/15 19:24:59+00,6433,0,0
319585909,Lower Tier Municipality,Municipalités de palier inférieur,TOWNSHIP OF MCNAB/BRAESIDE,CANTON DE MCNAB / BRAESIDE,47003,69628,Water,Eau,4701,TOWNSHIP OF,CANTON DE,MCNAB/BRAESIDE,MCNAB / BRAESIDE,,COUNTY OF RENFREW,COMTÉ DE RENFREW,2024/02/15 10:26:33+00,2024/02/15 19:24:59+00,6449,0,0
319585923,Single Tier Municipality,Municipalités à palier unique,TOWN OF SPANISH,VILLE DE SPANISH,57039,80618,Mainland,Terre ferme,5739,TOWN OF,VILLE DE,SPANISH,SPANISH,,,,2024/02/15 10:26:33+00,2024/02/15 19:24:59+00,6465,0,0
319585975,Single Tier Municipality,Municipalités à palier unique,MUNICIPALITY OF HURON SHORES,MUNICIPALITÉ DE HURON SHORES,57023,80620,Islands,Îles,5724,MUNICIPALITY OF,MUNICIPALITÉ DE,HURON SHORES,HURON SHORES,,,,2024/02/15 10:26:33+00,2024/02/15 19:24:59+00,6481,0,0
319585972,Single Tier Municipality,Municipalités à palier unique,TOWNSHIP OF WHITE RIVER,CANTON DE WHITE RIVER,57091,80617,Mainland,Terre ferme,5791,TOWNSHIP OF,CANTON DE,WHITE RIVER,WHITE RIVER,,,,2024/02/15 10:26:33+00,2024/02/15 19:24:59+00,6497,0,0
319585855,Single Tier Municipality,Municipalités à palier unique,TOWNSHIP OF GAUTHIER,CANTON DE GAUTHIER,54066,90618,Mainland,Terre ferme,5466,TOWNSHIP OF,CANTON DE,GAUTHIER,GAUTHIER,,,,2024/02/15 10:26:33+00,2024/02/15 19:24:59+00,6513,0,0
319585946,Lower Tier Municipality,Municipalités de palier inférieur,TOWN OF MIDLAND,VILLE DE MIDLAND,43074,70404,Mainland,Terre ferme,4374,TOWN OF,VILLE DE,MIDLAND,MIDLAND,,COUNTY OF SIMCOE,COMTÉ DE SIMCOE,2024/02/15 10:26:33+00,2024/02/15 19:24:59+00,6529,0,0
319585755,Single Tier Municipality,Municipalités à palier unique,TOWN OF THESSALON,VILLE DE THESSALON,57028,80403,Mainland,Terre ferme,5728,TOWN OF,VILLE DE,THESSALON,THESSALON,,,,2024/02/15 10:26:33+00,2024/02/15 19:24:59+00,6545,0,0
319585720,Lower Tier Municipality,Municipalités de palier inférieur,TOWN OF GODERICH,VILLE DE GODERICH,40028,52403,Mainland,Terre ferme,4028,TOWN OF,VILLE DE,GODERICH,GODERICH,,COUNTY OF HURON,COMTÉ DE HURON,2024/02/15 10:26:33+00,2024/02/15 19:24:59+00,6561,0,0
319585880,Single Tier Municipality,Municipalités à palier unique,TOWNSHIP OF NIPISSING,CANTON DE NIPISSING,49071,86615,Mainland,Terre ferme,4971,TOWNSHIP OF,CANTON DE,NIPISSING,NIPISSING,,,,2024/02/15 10:26:33+00,2024/02/15 19:24:59+00,6577,0,0
319585967,Single Tier Municipality,Municipalités à palier unique,TOWNSHIP OF JOLY,CANTON DE JOLY,49051,86610,Mainland,Terre ferme,4951,TOWNSHIP OF,CANTON DE,JOLY,JOLY,,,,2024/02/15 10:26:33+00,2024/02/15 19:24:59+00,6593,0,0
319585628,Single Tier Municipality,Municipalités à palier unique,TOWNSHIP OF OPASATIKA,CANTON D'OPASATIKA,56073,81613,Mainland,Terre ferme,5673,TOWNSHIP OF,CANTON DE,OPASATIKA,OPASATIKA,,,,2024/02/15 10:26:33+00,2024/02/15 19:24:59+00,6609,0,0
319585698,Single Tier Municipality,Municipalités à palier unique,TOWNSHIP OF ASSIGINACK,CANTON D'ASSIGINACK,51011,83601,Mainland,Terre ferme,5111,TOWNSHIP OF,CANTON DE,ASSIGINACK,ASSIGINACK,,,,2024/02/15 10:26:33+00,2024/02/15 19:24:59+00,6625,0,0
319585818,Lower Tier Municipality,Municipalités de palier inférieur,TOWNSHIP OF GEORGIAN BAY,CANTON DE GEORGIAN BAY,44065,33601,Mainland,Terre ferme,4465,TOWNSHIP OF,CANTON DE,GEORGIAN BAY,GEORGIAN BAY,,DISTRICT MUNICIPALITY OF MUSKOKA,DISTRICT MUNICIPALITÉ DE MUSKOKA,2024/02/15 10:26:33+00,2024/02/15 19:24:59+00,6641,0,0
319586093,Single Tier Municipality,Municipalités à palier unique,TOWNSHIP OF EVANTUREL,CANTON D'EVANTUREL,54049,90609,Mainland,Terre ferme,5449,TOWNSHIP OF,CANTON DE,EVANTUREL,EVANTUREL,,,,2024/02/15 10:26:33+00,2024/02/15 19:24:59+00,6657,0,0
319586051,Lower Tier Municipality,Municipalités de palier inférieur,TOWNSHIP OF RUSSELL,CANTON DE RUSSELL,2048,67611,Mainland,Terre ferme,306,TOWNSHIP OF,CANTON DE,RUSSELL,RUSSELL,,UNITED COUNTIES OF PRESCOTT AND RUSSELL,COMTÉS UNIS DE PRESCOTT AND RUSSELL,2024/02/15 10:26:33+00,2024/02/15 19:24:59+00,6673,0,0
319585646,Lower Tier Municipality,Municipalités de palier inférieur,TOWNSHIP OF MELANCTHON,CANTON DE MELANCTHON,22019,43604,Mainland,Terre ferme,2219,TOWNSHIP OF,CANTON DE,MELANCTHON,MELANCTHON,,COUNTY OF DUFFERIN,COMTÉ DE DUFFERIN,2024/02/15 10:26:33+00,2024/02/15 19:24:59+00,6689,0,0
319586120,Single Tier Municipality,Municipalités à palier unique,CITY OF WINDSOR,CITÉ DE WINDSOR,37039,45101,Islands,Îles,3739,CITY OF,CITÉ DE,WINDSOR,WINDSOR,,,,2024/02/15 10:26:33+00,2024/02/15 19:24:59+00,6705,0,0
319586053,Single Tier Municipality,Municipalités à palier unique,TOWNSHIP OF BLACK RIVER-MATHESON,CANTON DE BLACK RIVER-MATHESON,56014,81601,Mainland,Terre ferme,5614,TOWNSHIP OF,CANTON DE,BLACK RIVER-MATHESON,BLACK RIVER-MATHESON,,,,2024/02/15 10:26:33+00,2024/02/15 19:24:59+00,6721,0,0
319585989,Lower Tier Municipality,Municipalités de palier inférieur,TOWNSHIP OF MUSKOKA LAKES,CANTON DE MUSKOKA LAKES,44053,33603,Water,Eau,4453,TOWNSHIP OF,CANTON DE,MUSKOKA LAKES,MUSKOKA LAKES,,DISTRICT MUNICIPALITY OF MUSKOKA,DISTRICT MUNICIPALITÉ DE MUSKOKA,2024/02/15 10:26:33+00,2024/02/15 19:24:59+00,6737,0,0
319586021,Lower Tier Municipality,Municipalités de palier inférieur,CITY OF MISSISSAUGA,CITÉ DE MISSISSAUGA,21005,21102,Water,Eau,2105,CITY OF,CITÉ DE,MISSISSAUGA,MISSISSAUGA,,REGIONAL MUNICIPALITY OF PEEL,MUNICIPALITÉ RÉGIONALE DE PEEL,2024/02/15 10:26:33+00,2024/02/15 19:24:59+00,6753,0,0
319585808,Single Tier Municipality,Municipalités à palier unique,TOWN OF FORT FRANCES,VILLE DE FORT FRANCES,59012,87401,Water,Eau,5912,TOWN OF,VILLE DE,FORT FRANCES,FORT FRANCES,,,,2024/02/15 10:26:33+00,2024/02/15 19:24:59+00,6769,0,0
319586020,Lower Tier Municipality,Municipalités de palier inférieur,TOWN OF SOUTH BRUCE PENINSULA,VILLE DE SOUTH BRUCE PENINSULA,41053,41407,Water,Eau,4102,TOWN OF,VILLE DE,SOUTH BRUCE PENINSULA,SOUTH BRUCE PENINSULA,,COUNTY OF BRUCE,COMTÉ DE BRUCE,2024/02/15 10:26:33+00,2024/02/15 19:24:59+00,6785,0,0
319585829,Single Tier Municipality,Municipalités à palier unique,CITY OF BELLEVILLE,CITÉ DE BELLEVILLE,12005,51103,Mainland,Terre ferme,1208,CITY OF,CITÉ DE,BELLEVILLE,BELLEVILLE,,,,2024/02/15 10:26:33+00,2024/02/15 19:24:59+00,6801,0,0
319585626,Single Tier Municipality,Municipalités à palier unique,TOWN OF RAINY RIVER,VILLE DE RAINY RIVER,59042,87402,Mainland,Terre ferme,5942,TOWN OF,VILLE DE,RAINY RIVER,RAINY RIVER,,,,2024/02/15 10:26:33+00,2024/02/15 19:24:59+00,6817,0,0
319585622,Lower Tier Municipality,Municipalités de palier inférieur,TOWNSHIP OF BONNECHERE VALLEY,CANTON DE BONNECHERE VALLEY,47015,69635,Mainland,Terre ferme,4738,TOWNSHIP OF,CANTON DE,BONNECHERE VALLEY,BONNECHERE VALLEY,,COUNTY OF RENFREW,COMTÉ DE RENFREW,2024/02/15 10:26:33+00,2024/02/15 19:24:59+00,6833,0,0
319586083,Single Tier Municipality,Municipalités à palier unique,TOWNSHIP OF TARBUTT,CANTON DE TARBUTT,57014,80612,Islands,Îles,5714,TOWNSHIP OF,CANTON DE,TARBUTT,TARBUTT,,,,2024/02/15 10:26:33+00,2024/02/15 19:24:59+00,6849,0,0
319585761,Single Tier Municipality,Municipalités à palier unique,MUNICIPALITY OF NEEBING,MUNICIPALITÉ DE NEEBING,58001,89606,Islands,Îles,5801,MUNICIPALITY OF,MUNICIPALITÉ DE,NEEBING,NEEBING,,,,2024/02/15 10:26:33+00,2024/02/15 19:24:59+00,6865,0,0
319585844,Lower Tier Municipality,Municipalités de palier inférieur,TOWN OF DESERONTO,VILLE DE DESERONTO,12002,51401,Water,Eau,1202,TOWN OF,VILLE DE,DESERONTO,DESERONTO,,COUNTY OF HASTINGS,COMTÉ DE HASTINGS,2024/02/15 10:26:33+00,2024/02/15 19:24:59+00,6881,0,0
319585895,Lower Tier Municipality,Municipalités de palier inférieur,CITY OF RICHMOND HILL,CITÉ DE RICHMOND HILL,19038,27404,Mainland,Terre ferme,1938,CITY OF,CITÉ DE,RICHMOND HILL,RICHMOND HILL,,REGIONAL MUNICIPALITY OF YORK,MUNICIPALITÉ RÉGIONALE DE YORK,2024/02/15 10:26:33+00,2024/02/15 19:24:59+00,6897,0,0
319585629,Lower Tier Municipality,Municipalités de palier inférieur,TOWN OF KINGSVILLE,VILLE DE KINGSVILLE,37008,45411,Islands,Îles,3711,TOWN OF,VILLE DE,KINGSVILLE,KINGSVILLE,,COUNTY OF ESSEX,COMTÉ D'ESSEX,2024/02/15 10:26:33+00,2024/02/15 19:24:59+00,6913,0,0
319586239,Lower Tier Municipality,Municipalités de palier inférieur,TOWNSHIP OF SOUTHWOLD,CANTON DE SOUTHWOLD,34024,44606,Water,Eau,3424,TOWNSHIP OF,CANTON DE,SOUTHWOLD,SOUTHWOLD,,COUNTY OF ELGIN,COMTÉ D'ELGIN,2024/02/15 10:26:33+00,2024/02/15 19:24:59+00,6929,0,0
319586066,Single Tier Municipality,Municipalités à palier unique,CITY OF LONDON,CITÉ DE LONDON,39036,59101,Mainland,Terre ferme,3936,CITY OF,CITÉ DE,LONDON,LONDON,,,,2024/02/15 10:26:33+00,2024/02/15 19:24:59+00,6945,0,0
319585687,Single Tier Municipality,Municipalités à palier unique,"TOWNSHIP OF MACDONALD, MEREDITH AND ABERDEEN ADDITIONAL","CANTON DE MACDONALD, MEREDITH AND ABERDEEN ADDITIONAL",57051,80607,Water,Eau,5751,TOWNSHIP OF,CANTON DE,"MACDONALD, MEREDITH AND ABERDEEN ADDITIONAL","MACDONALD, MEREDITH AND ABERDEEN ADDITIONAL",,,,2024/02/15 10:26:33+00,2024/02/15 19:24:59+00,6961,0,0
319585648,Single Tier Municipality,Municipalités à palier unique,COUNTY OF PRINCE EDWARD,CITÉ DE PRINCE EDWARD COUNTY,13002,68101,Mainland,Terre ferme,1350,COUNTY OF,COMPTÉ DE,PRINCE EDWARD,PRINCE EDWARD COUNTY,,,,2024/02/15 10:26:33+00,2024/02/15 19:24:59+00,6977,0,0
319586070,Single Tier Municipality,Municipalités à palier unique,TOWNSHIP OF JOHNSON,CANTON DE JOHNSON,57016,80605,Islands,Îles,5716,TOWNSHIP OF,CANTON DE,JOHNSON,JOHNSON,,,,2024/02/15 10:26:33+00,2024/02/15 19:24:59+00,6993,0,0
319586240,Single Tier Municipality,Municipalités à palier unique,TOWNSHIP OF CHAMBERLAIN,CANTON DE CHAMBERLAIN,54054,90605,Mainland,Terre ferme,5454,TOWNSHIP OF,CANTON DE,CHAMBERLAIN,CHAMBERLAIN,,,,2024/02/15 10:26:33+00,2024/02/15 19:24:59+00,7009,0,0
319585729,Lower Tier Municipality,Municipalités de palier inférieur,TOWNSHIP OF CLEARVIEW,CANTON DE CLEARVIEW,43030,70620,Mainland,Terre ferme,4329,TOWNSHIP OF,CANTON DE,CLEARVIEW,CLEARVIEW,,COUNTY OF SIMCOE,COMTÉ DE SIMCOE,2024/02/15 10:26:33+00,2024/02/15 19:24:59+00,7025,0,0
319585982,Single Tier Municipality,Municipalités à palier unique,VILLAGE OF HILTON BEACH,VILLAGE DE HILTON BEACH,57006,80501,Mainland,Terre ferme,5706,VILLAGE OF,VILLAGE DE,HILTON BEACH,HILTON BEACH,,,,2024/02/15 10:26:33+00,2024/02/15 19:24:59+00,7041,0,0
319585638,Lower Tier Municipality,Municipalités de palier inférieur,TOWN OF LASALLE,VILLE DE LASALLE,37034,45408,Water,Eau,3734,TOWN OF,VILLE DE,LASALLE,LASALLE,,COUNTY OF ESSEX,COMTÉ D'ESSEX,2024/02/15 10:26:33+00,2024/02/15 19:24:59+00,7057,0,0
319585872,Single Tier Municipality,Municipalités à palier unique,TOWNSHIP OF BURPEE AND MILLS,CANTON DE BURPEE AND MILLS,51028,83604,Water,Eau,5128,TOWNSHIP OF,CANTON DE,BURPEE AND MILLS,BURPEE AND MILLS,,,,2024/02/15 10:26:33+00,2024/02/15 19:24:59+00,7073,0,0
319585652,Single Tier Municipality,Municipalités à palier unique,TOWNSHIP OF ST. JOSEPH,CANTON DE ST. JOSEPH,57008,80611,Mainland,Terre ferme,5708,TOWNSHIP OF,CANTON DE,ST. JOSEPH,ST. JOSEPH,,,,2024/02/15 10:26:33+00,2024/02/15 19:24:59+00,7089,0,0
319586276,Lower Tier Municipality,Municipalités de palier inférieur,TOWNSHIP OF GEORGIAN BAY,CANTON DE GEORGIAN BAY,44065,33601,Islands,Îles,4465,TOWNSHIP OF,CANTON DE,GEORGIAN BAY,GEORGIAN BAY,,DISTRICT MUNICIPALITY OF MUSKOKA,DISTRICT MUNICIPALITÉ DE MUSKOKA,2024/02/15 10:26:33+00,2024/02/15 19:24:59+00,7105,0,0
319585767,Lower Tier Municipality,Municipalités de palier inférieur,TOWN OF PETAWAWA,VILLE DE PETAWAWA,47077,69405,Mainland,Terre ferme,4779,TOWN OF,VILLE DE,PETAWAWA,PETAWAWA,,COUNTY OF RENFREW,COMTÉ DE RENFREW,2024/02/15 10:26:33+00,2024/02/15 19:24:59+00,7121,0,0
319586144,Single Tier Municipality,Municipalités à palier unique,TOWN OF PARRY SOUND,VILLE DE PARRY SOUND,49032,86402,Islands,Îles,4932,TOWN OF,VILLE DE,PARRY SOUND,PARRY SOUND,,,,2024/02/15 10:26:33+00,2024/02/15 19:24:59+00,7137,0,0
319586115,Single Tier Municipality,Municipalités à palier unique,TOWN OF ESPANOLA,VILLE D'ESPANOLA,52026,88405,Mainland,Terre ferme,5226,TOWN OF,VILLE DE,ESPANOLA,ESPANOLA,,,,2024/02/15 10:26:33+00,2024/02/15 19:24:59+00,7153,0,0
319586110,Lower Tier Municipality,Municipalités de palier inférieur,CITY OF WOODSTOCK,CITÉ DE WOODSTOCK,32042,37101,Mainland,Terre ferme,3242,CITY OF,CITÉ DE,WOODSTOCK,WOODSTOCK,,COUNTY OF OXFORD,COMTÉ D'OXFORD,2024/02/15 10:26:33+00,2024/02/15 19:24:59+00,7169,0,0
319585978,Lower Tier Municipality,Municipalités de palier inférieur,TOWNSHIP OF ELIZABETHTOWN-KITLEY,CANTON D'ELIZABETHTOWN-KITLEY,7011,56622,Water,Eau,801,TOWNSHIP OF,CANTON DE,ELIZABETHTOWN-KITLEY,ELIZABETHTOWN-KITLEY,,UNITED COUNTIES OF LEEDS AND GRENVILLE,COMTÉS UNIS DE LEEDS AND GRENVILLE,2024/02/15 10:26:33+00,2024/02/15 19:24:59+00,7185,0,0
319585621,Single Tier Municipality,Municipalités à palier unique,CITY OF CORNWALL,CITÉ DE CORNWALL,1012,71101,Islands,Îles,402,CITY OF,CITÉ DE,CORNWALL,CORNWALL,,,,2024/02/15 10:26:33+00,2024/02/15 19:24:59+00,7201,0,0
319586124,Single Tier Municipality,Municipalités à palier unique,HALDIMAND COUNTY,HALDIMAND COUNTY,28005,12102,Mainland,Terre ferme,2810,,,HALDIMAND COUNTY,HALDIMAND COUNTY,,,,2024/02/15 10:45:54+00,2024/02/15 19:24:59+00,7217,0,0
319586202,Lower Tier Municipality,Municipalités de palier inférieur,TOWNSHIP OF NORTH DUMFRIES,CANTON DE NORTH DUMFRIES,30001,25601,Mainland,Terre ferme,3001,TOWNSHIP OF,CANTON DE,NORTH DUMFRIES,NORTH DUMFRIES,,REGIONAL MUNICIPALITY OF WATERLOO,MUNICIPALITÉ RÉGIONALE DE WATERLOO,2024/02/15 10:26:33+00,2024/02/15 19:24:59+00,7233,0,0
319586286,Single Tier Municipality,Municipalités à palier unique,CITY OF BRANTFORD,CITÉ DE BRANTFORD,29006,40101,Mainland,Terre ferme,2906,CITY OF,CITÉ DE,BRANTFORD,BRANTFORD,,,,2024/02/15 10:26:33+00,2024/02/15 19:24:59+00,7249,0,0
319585666,Lower Tier Municipality,Municipalités de palier inférieur,TOWNSHIP OF WHITEWATER REGION,CANTON DE WHITEWATER REGION,47050,69636,Water,Eau,4758,TOWNSHIP OF,CANTON DE,WHITEWATER REGION,WHITEWATER REGION,,COUNTY OF RENFREW,COMTÉ DE RENFREW,2024/02/15 10:26:33+00,2024/02/15 19:24:59+00,7265,0,0
319585979,Lower Tier Municipality,Municipalités de palier inférieur,MUNICIPALITY OF MIDDLESEX CENTRE,MUNICIPALITÉ DE MIDDLESEX CENTRE,39020,59616,Mainland,Terre ferme,3939,MUNICIPALITY OF,MUNICIPALITÉ DE,MIDDLESEX CENTRE,MIDDLESEX CENTRE,,COUNTY OF MIDDLESEX,COMTÉ DE MIDDLESEX,2024/02/15 10:26:33+00,2024/02/15 19:24:59+00,7281,0,0
319585791,Lower Tier Municipality,Municipalités de palier inférieur,MUNICIPALITY OF BRIGHTON,MUNICIPALITÉ DE BRIGHTON,14005,61407,Islands,Îles,1408,MUNICIPALITY OF,MUNICIPALITÉ DE,BRIGHTON,BRIGHTON,,COUNTY OF NORTHUMBERLAND,COMTÉ DE NORTHUMBERLAND,2024/02/15 10:26:33+00,2024/02/15 19:24:59+00,7297,0,0
319586250,Lower Tier Municipality,Municipalités de palier inférieur,CITY OF THOROLD,CITÉ DE THOROLD,26037,18105,Mainland,Terre ferme,2731,CITY OF,CITÉ DE,THOROLD,THOROLD,,REGIONAL MUNICIPALITY OF NIAGARA,MUNICIPALITÉ RÉGIONALE DE NIAGARA,2024/02/15 10:26:33+00,2024/02/15 19:24:59+00,7313,0,0
319585922,Single Tier Municipality,Municipalités à palier unique,TOWNSHIP OF ARMSTRONG,CANTON D'ARMSTRONG,54036,90601,Mainland,Terre ferme,5436,TOWNSHIP OF,CANTON DE,ARMSTRONG,ARMSTRONG,,,,2024/02/15 10:26:33+00,2024/02/15 19:24:59+00,7329,0,0
319586288,Lower Tier Municipality,Municipalités de palier inférieur,VILLAGE OF MERRICKVILLE-WOLFORD,VILLAGE DE MERRICKVILLE-WOLFORD,7050,56506,Mainland,Terre ferme,714,VILLAGE OF,VILLAGE DE,MERRICKVILLE-WOLFORD,MERRICKVILLE-WOLFORD,,UNITED COUNTIES OF LEEDS AND GRENVILLE,COMTÉS UNIS DE LEEDS AND GRENVILLE,2024/02/15 10:26:33+00,2024/02/15 19:24:59+00,7345,0,0
319585793,Single Tier Municipality,Municipalités à palier unique,TOWN OF KEARNEY,VILLE DE KEARNEY,49018,86401,Mainland,Terre ferme,4918,TOWN OF,VILLE DE,KEARNEY,KEARNEY,,,,2024/02/15 10:26:33+00,2024/02/15 19:24:59+00,7361,0,0
319586105,Lower Tier Municipality,Municipalités de palier inférieur,TOWN OF BANCROFT,VILLE DE BANCROFT,12061,51403,Mainland,Terre ferme,1262,TOWN OF,VILLE DE,BANCROFT,BANCROFT,,COUNTY OF HASTINGS,COMTÉ DE HASTINGS,2024/02/15 10:26:33+00,2024/02/15 19:24:59+00,7377,0,0
319586196,Lower Tier Municipality,Municipalités de palier inférieur,TOWN OF COBOURG,VILLE DE COBOURG,14021,61403,Water,Eau,1421,TOWN OF,VILLE DE,COBOURG,COBOURG,,COUNTY OF NORTHUMBERLAND,COMTÉ DE NORTHUMBERLAND,2024/02/15 10:26:33+00,2024/02/15 19:24:59+00,7393,0,0
319585623,Lower Tier Municipality,Municipalités de palier inférieur,TOWNSHIP OF EAST HAWKESBURY,CANTON D'EAST HAWKESBURY,2001,67606,Mainland,Terre ferme,201,TOWNSHIP OF,CANTON DE,EAST HAWKESBURY,EAST HAWKESBURY,,UNITED COUNTIES OF PRESCOTT AND RUSSELL,COMTÉS UNIS DE PRESCOTT AND RUSSELL,2024/02/15 10:26:33+00,2024/02/15 19:24:59+00,7409,0,0
319585718,Lower Tier Municipality,Municipalités de palier inférieur,MUNICIPALITY OF CENTRAL HURON,MUNICIPALITÉ DE CENTRAL HURON,40025,52617,Water,Eau,4030,MUNICIPALITY OF,MUNICIPALITÉ DE,CENTRAL HURON,CENTRAL HURON,,COUNTY OF HURON,COMTÉ DE HURON,2024/02/15 10:26:33+00,2024/02/15 19:24:59+00,7425,0,0
319586079,Lower Tier Municipality,Municipalités de palier inférieur,TOWNSHIP OF AUGUSTA,CANTON D'AUGUSTA,7006,56601,Mainland,Terre ferme,706,TOWNSHIP OF,CANTON DE,AUGUSTA,AUGUSTA,,UNITED COUNTIES OF LEEDS AND GRENVILLE,COMTÉS UNIS DE LEEDS AND GRENVILLE,2024/02/15 10:26:33+00,2024/02/15 19:24:59+00,7441,0,0
319585941,Lower Tier Municipality,Municipalités de palier inférieur,MUNICIPALITY OF KINCARDINE,MUNICIPALITÉ DE KINCARDINE,41020,41625,Islands,Îles,4108,MUNICIPALITY OF,MUNICIPALITÉ DE,KINCARDINE,KINCARDINE,,COUNTY OF BRUCE,COMTÉ DE BRUCE,2024/02/15 10:26:33+00,2024/02/15 19:24:59+00,7457,0,0
319586028,Lower Tier Municipality,Municipalités de palier inférieur,MUNICIPALITY OF MEAFORD,MUNICIPALITÉ DE MEAFORD,42047,47406,Mainland,Terre ferme,4210,MUNICIPALITY OF,MUNICIPALITÉ DE,MEAFORD,MEAFORD,,COUNTY OF GREY,COMTÉ DE GREY,2024/02/15 10:26:33+00,2024/02/15 19:24:59+00,7473,0,0
319586068,Lower Tier Municipality,Municipalités de palier inférieur,CITY OF SARNIA,CITÉ DE SARNIA,38030,54102,Water,Eau,3829,CITY OF,CITÉ DE,SARNIA,SARNIA,,COUNTY OF LAMBTON,COMTÉ DE LAMBTON,2024/02/15 10:26:33+00,2024/02/15 19:24:59+00,7489,0,0
319586203,Lower Tier Municipality,Municipalités de palier inférieur,TOWNSHIP OF LEEDS AND THE THOUSAND ISLANDS,CANTON DE LEEDS AND THE THOUSAND ISLANDS,7019,56621,Islands,Îles,812,TOWNSHIP OF,CANTON DE,LEEDS AND THE THOUSAND ISLANDS,LEEDS AND THE THOUSAND ISLANDS,,UNITED COUNTIES OF LEEDS AND GRENVILLE,COMTÉS UNIS DE LEEDS AND GRENVILLE,2024/02/15 10:26:33+00,2024/02/15 19:24:59+00,7505,0,0
319586187,Single Tier Municipality,Municipalités à palier unique,TOWNSHIP OF VAL RITA-HARTY,CANTON DE VAL RITA-HARTY,56070,81611,Mainland,Terre ferme,5670,TOWNSHIP OF,CANTON DE,VAL RITA-HARTY,VAL RITA-HARTY,,,,2024/02/15 10:26:33+00,2024/02/15 19:24:59+00,7521,0,0
319586296,Single Tier Municipality,Municipalités à palier unique,TOWNSHIP OF CONMEE,CANTON DE CONMEE,58019,89601,Mainland,Terre ferme,5819,TOWNSHIP OF,CANTON DE,CONMEE,CONMEE,,,,2024/02/15 10:26:33+00,2024/02/15 19:24:59+00,7537,0,0
319586265,Lower Tier Municipality,Municipalités de palier inférieur,TOWN OF PETAWAWA,VILLE DE PETAWAWA,47077,69405,Water,Eau,4779,TOWN OF,VILLE DE,PETAWAWA,PETAWAWA,,COUNTY OF RENFREW,COMTÉ DE RENFREW,2024/02/15 10:26:33+00,2024/02/15 19:24:59+00,7553,0,0
319585831,Single Tier Municipality,Municipalités à palier unique,MUNICIPALITY OF GORDON / BARRIE ISLAND,MUNICIPALITÉ DE GORDON / BARRIE ISLAND,51024,83607,Islands,Îles,5124,MUNICIPALITY OF,MUNICIPALITÉ DE,GORDON / BARRIE ISLAND,GORDON / BARRIE ISLAND,,,,2024/02/15 10:26:33+00,2024/02/15 19:24:59+00,7569,0,0
319586019,Single Tier Municipality,Municipalités à palier unique,TOWNSHIP OF JOHNSON,CANTON DE JOHNSON,57016,80605,Mainland,Terre ferme,5716,TOWNSHIP OF,CANTON DE,JOHNSON,JOHNSON,,,,2024/02/15 10:26:33+00,2024/02/15 19:24:59+00,7585,0,0
319585980,Single Tier Municipality,Municipalités à palier unique,TOWN OF FORT FRANCES,VILLE DE FORT FRANCES,59012,87401,Mainland,Terre ferme,5912,TOWN OF,VILLE DE,FORT FRANCES,FORT FRANCES,,,,2024/02/15 10:26:33+00,2024/02/15 19:24:59+00,7601,0,0
319585776,Lower Tier Municipality,Municipalités de palier inférieur,TOWN OF SAUGEEN SHORES,VILLE DE SAUGEEN SHORES,41043,41408,Islands,Îles,4110,TOWN OF,VILLE DE,SAUGEEN SHORES,SAUGEEN SHORES,,COUNTY OF BRUCE,COMTÉ DE BRUCE,2024/02/15 10:26:33+00,2024/02/15 19:24:59+00,7617,0,0
319585814,Single Tier Municipality,Municipalités à palier unique,TOWNSHIP OF EMO,CANTON D'EMO,59019,87607,Mainland,Terre ferme,5919,TOWNSHIP OF,CANTON DE,EMO,EMO,,,,2024/02/15 10:26:33+00,2024/02/15 19:24:59+00,7633,0,0
319585689,Lower Tier Municipality,Municipalités de palier inférieur,"TOWNSHIP OF KILLALOE, HAGARTY AND RICHARDS","CANTON DE KILLALOE, HAGARTY AND RICHARDS",47030,69633,Mainland,Terre ferme,4731,TOWNSHIP OF,CANTON DE,"KILLALOE, HAGARTY AND RICHARDS","KILLALOE, HAGARTY AND RICHARDS",,COUNTY OF RENFREW,COMTÉ DE RENFREW,2024/02/15 10:26:33+00,2024/02/15 19:24:59+00,7649,0,0
319585950,Lower Tier Municipality,Municipalités de palier inférieur,TOWNSHIP OF CRAMAHE,CANTON DE CRAMAHE,14010,61617,Water,Eau,1411,TOWNSHIP OF,CANTON DE,CRAMAHE,CRAMAHE,,COUNTY OF NORTHUMBERLAND,COMTÉ DE NORTHUMBERLAND,2024/02/15 10:26:33+00,2024/02/15 19:24:59+00,7665,0,0
319585797,Single Tier Municipality,Municipalités à palier unique,TOWNSHIP OF BILLINGS,CANTON DE BILLINGS,51021,83603,Mainland,Terre ferme,5121,TOWNSHIP OF,CANTON DE,BILLINGS,BILLINGS,,,,2024/02/15 10:26:33+00,2024/02/15 19:24:59+00,7681,0,0
319585892,Lower Tier Municipality,Municipalités de palier inférieur,MUNICIPALITY OF BAYHAM,MUNICIPALITÉ DE BAYHAM,34003,44609,Water,Eau,3401,MUNICIPALITY OF,MUNICIPALITÉ DE,BAYHAM,BAYHAM,,COUNTY OF ELGIN,COMTÉ D'ELGIN,2024/02/15 10:26:33+00,2024/02/15 19:24:59+00,7697,0,0
319585800,Lower Tier Municipality,Municipalités de palier inférieur,TOWNSHIP OF CENTRE WELLINGTON,CANTON DE CENTRE WELLINGTON,23010,75614,Mainland,Terre ferme,2326,TOWNSHIP OF,CANTON DE,CENTRE WELLINGTON,CENTRE WELLINGTON,,COUNTY OF WELLINGTON,COMTÉ DE WELLINGTON,2024/02/15 10:26:33+00,2024/02/15 19:24:59+00,7713,0,0
319585948,Lower Tier Municipality,Municipalités de palier inférieur,TOWN OF FORT ERIE,VILLE DE FORT ERIE,26003,18401,Islands,Îles,2703,TOWN OF,VILLE DE,FORT ERIE,FORT ERIE,,REGIONAL MUNICIPALITY OF NIAGARA,MUNICIPALITÉ RÉGIONALE DE NIAGARA,2024/02/15 10:26:33+00,2024/02/15 19:24:59+00,7729,0,0
319585713,Single Tier Municipality,Municipalités à palier unique,MUNICIPALITY OF MATTAWAN,MUNICIPALITÉ DE MATTAWAN,48019,85608,Islands,Îles,4819,MUNICIPALITY OF,MUNICIPALITÉ DE,MATTAWAN,MATTAWAN,,,,2024/02/15 10:26:33+00,2024/02/15 19:24:59+00,7745,0,0
319586252,Single Tier Municipality,Municipalités à palier unique,TOWNSHIP OF TARBUTT,CANTON DE TARBUTT,57014,80612,Water,Eau,5714,TOWNSHIP OF,CANTON DE,TARBUTT,TARBUTT,,,,2024/02/15 10:26:33+00,2024/02/15 19:24:59+00,7761,0,0
319585708,Single Tier Municipality,Municipalités à palier unique,"TOWNSHIP OF MACDONALD, MEREDITH AND ABERDEEN ADDITIONAL","CANTON DE MACDONALD, MEREDITH AND ABERDEEN ADDITIONAL",57051,80607,Mainland,Terre ferme,5751,TOWNSHIP OF,CANTON DE,"MACDONALD, MEREDITH AND ABERDEEN ADDITIONAL","MACDONALD, MEREDITH AND ABERDEEN ADDITIONAL",,,,2024/02/15 10:26:33+00,2024/02/15 19:24:59+00,7777,0,0
319586089,Single Tier Municipality,Municipalités à palier unique,CITY OF ST. THOMAS,CITÉ DE ST. THOMAS,34021,44101,Mainland,Terre ferme,3421,CITY OF,CITÉ DE,ST. THOMAS,ST. THOMAS,,,,2024/02/15 10:26:33+00,2024/02/15 19:24:59+00,7793,0,0
319586136,Lower Tier Municipality,Municipalités de palier inférieur,MUNICIPALITY OF NORTH MIDDLESEX,MUNICIPALITÉ DE NORTH MIDDLESEX,39041,59619,Mainland,Terre ferme,3954,MUNICIPALITY OF,MUNICIPALITÉ DE,NORTH MIDDLESEX,NORTH MIDDLESEX,,COUNTY OF MIDDLESEX,COMTÉ DE MIDDLESEX,2024/02/15 10:26:33+00,2024/02/15 19:24:59+00,7809,0,0
319585826,Lower Tier Municipality,Municipalités de palier inférieur,TOWN OF COLLINGWOOD,VILLE DE COLLINGWOOD,43031,70403,Water,Eau,4331,TOWN OF,VILLE DE,COLLINGWOOD,COLLINGWOOD,,COUNTY OF SIMCOE,COMTÉ DE SIMCOE,2024/02/15 10:26:33+00,2024/02/15 19:24:59+00,7825,0,0
319585683,Lower Tier Municipality,Municipalités de palier inférieur,TOWNSHIP OF WOLLASTON,CANTON DE WOLLASTON,12054,51619,Mainland,Terre ferme,1254,TOWNSHIP OF,CANTON DE,WOLLASTON,WOLLASTON,,COUNTY OF HASTINGS,COMTÉ DE HASTINGS,2024/02/15 10:26:33+00,2024/02/15 19:24:59+00,7841,0,0
319586112,Single Tier Municipality,Municipalités à palier unique,TOWN OF SPANISH,VILLE DE SPANISH,57039,80618,Islands,Îles,5739,TOWN OF,VILLE DE,SPANISH,SPANISH,,,,2024/02/15 10:26:33+00,2024/02/15 19:24:59+00,7857,0,0
319586189,Single Tier Municipality,Municipalités à palier unique,TOWNSHIP OF TEHKUMMAH,CANTON DE TEHKUMMAH,51001,83611,Water,Eau,5101,TOWNSHIP OF,CANTON DE,TEHKUMMAH,TEHKUMMAH,,,,2024/02/15 10:26:33+00,2024/02/15 19:24:59+00,7873,0,0
319585645,Single Tier Municipality,Municipalités à palier unique,TOWN OF NORTHEASTERN MANITOULIN AND THE ISLANDS,VILLE DE NORTHEASTERN MANITOULIN AND THE ISLANDS,51015,83403,Islands,Îles,5119,TOWN OF,VILLE DE,NORTHEASTERN MANITOULIN AND THE ISLANDS,NORTHEASTERN MANITOULIN AND THE ISLANDS,,,,2024/02/15 10:26:33+00,2024/02/15 19:24:59+00,7889,0,0
319585971,Lower Tier Municipality,Municipalités de palier inférieur,TOWNSHIP OF STIRLING-RAWDON,CANTON DE STIRLING-RAWDON,12017,51622,Mainland,Terre ferme,1220,TOWNSHIP OF,CANTON DE,STIRLING-RAWDON,STIRLING-RAWDON,,COUNTY OF HASTINGS,COMTÉ DE HASTINGS,2024/02/15 10:26:33+00,2024/02/15 19:24:59+00,7905,0,0
319585809,Lower Tier Municipality,Municipalités de palier inférieur,TOWNSHIP OF ADDINGTON HIGHLANDS,CANTON D'ADDINGTON HIGHLANDS,11033,57611,Mainland,Terre ferme,1134,TOWNSHIP OF,CANTON DE,ADDINGTON HIGHLANDS,ADDINGTON HIGHLANDS,,COUNTY OF LENNOX AND ADDINGTON,COMTÉ DE LENNOX AND ADDINGTON,2024/02/15 10:26:33+00,2024/02/15 19:24:59+00,7921,0,0
319586127,Lower Tier Municipality,Municipalités de palier inférieur,TOWN OF TECUMSEH,VILLE DE TECUMSEH,37043,45414,Mainland,Terre ferme,3744,TOWN OF,VILLE DE,TECUMSEH,TECUMSEH,,COUNTY OF ESSEX,COMTÉ D'ESSEX,2024/02/15 10:26:33+00,2024/02/15 19:24:59+00,7937,0,0
319586298,Lower Tier Municipality,Municipalités de palier inférieur,CITY OF OSHAWA,CITÉ D'OSHAWA,18013,10101,Water,Eau,1813,CITY OF,CITÉ DE,OSHAWA,OSHAWA,,REGIONAL MUNICIPALITY OF DURHAM,REGIONAL MUNICIPALITÉ DE DURHAM,2024/02/15 10:26:33+00,2024/02/15 19:24:59+00,7953,0,0
319585823,Lower Tier Municipality,Municipalités de palier inférieur,TOWNSHIP OF NORTH DUNDAS,CANTON DE NORTH DUNDAS,1026,71613,Mainland,Terre ferme,511,TOWNSHIP OF,CANTON DE,NORTH DUNDAS,NORTH DUNDAS,,"UNITED COUNTIES OF STORMONT, DUNDAS AND GLENGARRY","COMTÉS UNIS DE STORMONT, DUNDAS AND GLENGARRY",2024/02/15 10:26:33+00,2024/02/15 19:24:59+00,7969,0,0
319586171,Single Tier Municipality,Municipalités à palier unique,MUNICIPALITY OF CHATHAM-KENT,MUNICIPALITÉ DE CHATHAM-KENT,36003,53102,Water,Eau,3650,MUNICIPALITY OF,MUNICIPALITÉ DE,CHATHAM-KENT,CHATHAM-KENT,,,,2024/02/15 10:26:33+00,2024/02/15 19:24:59+00,7985,0,0
319586092,Single Tier Municipality,Municipalités à palier unique,MUNICIPALITY OF WHITESTONE,MUNICIPALITÉ DE WHITESTONE,49039,86606,Mainland,Terre ferme,4939,MUNICIPALITY OF,MUNICIPALITÉ DE,WHITESTONE,WHITESTONE,,,,2024/02/15 10:26:33+00,2024/02/15 19:24:59+00,8001,0,0
319586212,Lower Tier Municipality,Municipalités de palier inférieur,TOWNSHIP OF TAY,CANTON DE TAY,43070,70625,Water,Eau,4353,TOWNSHIP OF,CANTON DE,TAY,TAY,,COUNTY OF SIMCOE,COMTÉ DE SIMCOE,2024/02/15 10:26:33+00,2024/02/15 19:24:59+00,8017,0,0
319585906,Single Tier Municipality,Municipalités à palier unique,MUNICIPALITY OF KILLARNEY,MUNICIPALITÉ DE KILLARNEY,52003,88411,Islands,Îles,5136,MUNICIPALITY OF,MUNICIPALITÉ DE,KILLARNEY,KILLARNEY,,,,2024/02/15 10:26:33+00,2024/02/15 19:24:59+00,8033,0,0
319585692,Lower Tier Municipality,Municipalités de palier inférieur,MUNICIPALITY OF LAMBTON SHORES,MUNICIPALITÉ DE LAMBTON SHORES,38037,54103,Water,Eau,3845,MUNICIPALITY OF,MUNICIPALITÉ DE,LAMBTON SHORES,LAMBTON SHORES,,COUNTY OF LAMBTON,COMTÉ DE LAMBTON,2024/02/15 10:26:33+00,2024/02/15 19:24:59+00,8049,0,0
319585961,Single Tier Municipality,Municipalités à palier unique,MUNICIPALITY OF HURON SHORES,MUNICIPALITÉ DE HURON SHORES,57023,80620,Mainland,Terre ferme,5724,MUNICIPALITY OF,MUNICIPALITÉ DE,HURON SHORES,HURON SHORES,,,,2024/02/15 10:26:33+00,2024/02/15 19:24:59+00,8065,0,0
319585677,Lower Tier Municipality,Municipalités de palier inférieur,TOWN OF GRAVENHURST,VILLE DE GRAVENHURST,44002,33402,Water,Eau,4402,TOWN OF,VILLE DE,GRAVENHURST,GRAVENHURST,,DISTRICT MUNICIPALITY OF MUSKOKA,DISTRICT MUNICIPALITÉ DE MUSKOKA,2024/02/15 10:26:33+00,2024/02/15 19:24:59+00,8081,0,0
319585655,Single Tier Municipality,Municipalités à palier unique,MUNICIPALITY OF MATTAWAN,MUNICIPALITÉ DE MATTAWAN,48019,85608,Water,Eau,4819,MUNICIPALITY OF,MUNICIPALITÉ DE,MATTAWAN,MATTAWAN,,,,2024/02/15 10:26:33+00,2024/02/15 19:24:59+00,8097,0,0
319586272,Lower Tier Municipality,Municipalités de palier inférieur,TOWNSHIP OF SOUTH STORMONT,CANTON DE SOUTH STORMONT,1009,71618,Islands,Îles,406,TOWNSHIP OF,CANTON DE,SOUTH STORMONT,SOUTH STORMONT,,"UNITED COUNTIES OF STORMONT, DUNDAS AND GLENGARRY","COMTÉS UNIS DE STORMONT, DUNDAS AND GLENGARRY",2024/02/15 10:26:33+00,2024/02/15 19:24:59+00,8113,0,0
319585696,Lower Tier Municipality,Municipalités de palier inférieur,TOWN OF LAURENTIAN HILLS,VILLE DE LAURENTIAN HILLS,47091,69406,Islands,Îles,4792,TOWN OF,VILLE DE,LAURENTIAN HILLS,LAURENTIAN HILLS,,COUNTY OF RENFREW,COMTÉ DE RENFREW,2024/02/15 10:26:33+00,2024/02/15 19:24:59+00,8129,0,0
319586174,Lower Tier Municipality,Municipalités de palier inférieur,TOWN OF DEEP RIVER,VILLE DE DEEP RIVER,47096,69402,Water,Eau,4796,TOWN OF,VILLE DE,DEEP RIVER,DEEP RIVER,,COUNTY OF RENFREW,COMTÉ DE RENFREW,2024/02/15 10:26:33+00,2024/02/15 19:24:59+00,8145,0,0
319586178,Single Tier Municipality,Municipalités à palier unique,TOWNSHIP OF THE ARCHIPELAGO,CANTON DE THE ARCHIPELAGO,49005,86621,Water,Eau,4905,TOWNSHIP OF,CANTON DE,THE ARCHIPELAGO,THE ARCHIPELAGO,,,,2024/02/15 10:26:33+00,2024/02/15 19:24:59+00,8161,0,0
319585680,Lower Tier Municipality,Municipalités de palier inférieur,MUNICIPALITY OF PORT HOPE,MUNICIPALITÉ DE PORT HOPE,14022,61409,Islands,Îles,1423,MUNICIPALITY OF,MUNICIPALITÉ DE,PORT HOPE,PORT HOPE,,COUNTY OF NORTHUMBERLAND,COMTÉ DE NORTHUMBERLAND,2024/02/15 10:26:33+00,2024/02/15 19:24:59+00,8177,0,0
319586218,Lower Tier Municipality,Municipalités de palier inférieur,CITY OF BURLINGTON,CITÉ DE BURLINGTON,24002,14101,Mainland,Terre ferme,2402,CITY OF,CITÉ DE,BURLINGTON,BURLINGTON,,REGIONAL MUNICIPALITY OF HALTON,REGIONAL MUNICIPALITÉ DE HALTON,2024/02/15 10:26:33+00,2024/02/15 19:24:59+00,8193,0,0
319586056,Lower Tier Municipality,Municipalités de palier inférieur,TOWN OF SAUGEEN SHORES,VILLE DE SAUGEEN SHORES,41043,41408,Mainland,Terre ferme,4110,TOWN OF,VILLE DE,SAUGEEN SHORES,SAUGEEN SHORES,,COUNTY OF BRUCE,COMTÉ DE BRUCE,2024/02/15 10:26:33+00,2024/02/15 19:24:59+00,8209,0,0
319585781,Single Tier Municipality,Municipalités à palier unique,TOWN OF GORE BAY,VILLE DE GORE BAY,51026,83401,Mainland,Terre ferme,5126,TOWN OF,VILLE DE,GORE BAY,GORE BAY,,,,2024/02/15 10:26:33+00,2024/02/15 19:24:59+00,8225,0,0
319586228,Single Tier Municipality,Municipalités à palier unique,TOWNSHIP OF HARRIS,CANTON DE HARRIS,54014,90611,Mainland,Terre ferme,5414,TOWNSHIP OF,CANTON DE,HARRIS,HARRIS,,,,2024/02/15 10:26:33+00,2024/02/15 19:24:59+00,8241,0,0
319586275,Single Tier Municipality,Municipalités à palier unique,TOWN OF NORTHEASTERN MANITOULIN AND THE ISLANDS,VILLE DE NORTHEASTERN MANITOULIN AND THE ISLANDS,51015,83403,Water,Eau,5119,TOWN OF,VILLE DE,NORTHEASTERN MANITOULIN AND THE ISLANDS,NORTHEASTERN MANITOULIN AND THE ISLANDS,,,,2024/02/15 10:26:33+00,2024/02/15 19:24:59+00,8257,0,0
319586238,Lower Tier Municipality,Municipalités de palier inférieur,TOWNSHIP OF ASPHODEL-NORWOOD,CANTON D'ASPHODEL-NORWOOD,15002,66615,Mainland,Terre ferme,1501,TOWNSHIP OF,CANTON DE,ASPHODEL-NORWOOD,ASPHODEL-NORWOOD,,COUNTY OF PETERBOROUGH,COMTÉ DE PETERBOROUGH,2024/02/15 10:26:33+00,2024/02/15 19:24:59+00,8273,0,0
319586064,Single Tier Municipality,Municipalités à palier unique,TOWNSHIP OF NIPIGON,CANTON DE NIPIGON,58044,89607,Mainland,Terre ferme,5844,TOWNSHIP OF,CANTON DE,NIPIGON,NIPIGON,,,,2024/02/15 10:26:33+00,2024/02/15 19:24:59+00,8289,0,0
319585739,Single Tier Municipality,Municipalités à palier unique,TOWNSHIP OF EMO,CANTON D'EMO,59019,87607,Islands,Îles,5919,TOWNSHIP OF,CANTON DE,EMO,EMO,,,,2024/02/15 10:26:33+00,2024/02/15 19:24:59+00,8305,0,0
319586086,Single Tier Municipality,Municipalités à palier unique,TOWNSHIP OF CARLING,CANTON DE CARLING,49036,86602,Islands,Îles,4936,TOWNSHIP OF,CANTON DE,CARLING,CARLING,,,,2024/02/15 10:26:33+00,2024/02/15 19:24:59+00,8321,0,0
319585841,Lower Tier Municipality,Municipalités de palier inférieur,TOWNSHIP OF GEORGIAN BLUFFS,CANTON DE GEORGIAN BLUFFS,42055,47622,Mainland,Terre ferme,4203,TOWNSHIP OF,CANTON DE,GEORGIAN BLUFFS,GEORGIAN BLUFFS,,COUNTY OF GREY,COMTÉ DE GREY,2024/02/15 10:26:33+00,2024/02/15 19:24:59+00,8337,0,0
319585931,Single Tier Municipality,Municipalités à palier unique,MUNICIPALITY OF MAGNETAWAN,MUNICIPALITÉ DE MAGNETAWAN,49041,86622,Mainland,Terre ferme,4944,MUNICIPALITY OF,MUNICIPALITÉ DE,MAGNETAWAN,MAGNETAWAN,,,,2024/02/15 10:26:33+00,2024/02/15 19:24:59+00,8353,0,0
319586291,Single Tier Municipality,Municipalités à palier unique,MUNICIPALITY OF SHUNIAH,MUNICIPALITÉ DE SHUNIAH,58028,89612,Islands,Îles,5828,MUNICIPALITY OF,MUNICIPALITÉ DE,SHUNIAH,SHUNIAH,,,,2024/02/15 10:26:33+00,2024/02/15 19:24:59+00,8369,0,0
319586003,Single Tier Municipality,Municipalités à palier unique,TOWNSHIP OF DUBREUILVILLE,CANTON DE DUBREUILVILLE,57079,80619,Mainland,Terre ferme,5779,TOWNSHIP OF,CANTON DE,DUBREUILVILLE,DUBREUILVILLE,,,,2024/02/15 10:26:33+00,2024/02/15 19:24:59+00,8385,0,0
319585723,Lower Tier Municipality,Municipalités de palier inférieur,TOWN OF GODERICH,VILLE DE GODERICH,40028,52403,Water,Eau,4028,TOWN OF,VILLE DE,GODERICH,GODERICH,,COUNTY OF HURON,COMTÉ DE HURON,2024/02/15 10:26:33+00,2024/02/15 19:24:59+00,8401,0,0
319586009,Single Tier Municipality,Municipalités à palier unique,TOWNSHIP OF JOHNSON,CANTON DE JOHNSON,57016,80605,Water,Eau,5716,TOWNSHIP OF,CANTON DE,JOHNSON,JOHNSON,,,,2024/02/15 10:26:33+00,2024/02/15 19:24:59+00,8417,0,0
319586063,Single Tier Municipality,Municipalités à palier unique,CITY OF NORTH BAY,CITÉ DE NORTH BAY,48044,85101,Mainland,Terre ferme,4844,CITY OF,CITÉ DE,NORTH BAY,NORTH BAY,,,,2024/02/15 10:26:33+00,2024/02/15 19:24:59+00,8433,0,0
319586217,Lower Tier Municipality,Municipalités de palier inférieur,TOWN OF PENETANGUISHENE,VILLE DE PENETANGUISHENE,43072,70406,Islands,Îles,4372,TOWN OF,VILLE DE,PENETANGUISHENE,PENETANGUISHENE,,COUNTY OF SIMCOE,COMTÉ DE SIMCOE,2024/02/15 10:26:33+00,2024/02/15 19:24:59+00,8449,0,0
319585968,Lower Tier Municipality,Municipalités de palier inférieur,TOWNSHIP OF GEORGIAN BLUFFS,CANTON DE GEORGIAN BLUFFS,42055,47622,Water,Eau,4203,TOWNSHIP OF,CANTON DE,GEORGIAN BLUFFS,GEORGIAN BLUFFS,,COUNTY OF GREY,COMTÉ DE GREY,2024/02/15 10:26:33+00,2024/02/15 19:24:59+00,8465,0,0
319585942,Single Tier Municipality,Municipalités à palier unique,CITY OF THUNDER BAY,CITÉ DE THUNDER BAY,58004,89101,Mainland,Terre ferme,5804,CITY OF,CITÉ DE,THUNDER BAY,THUNDER BAY,,,,2024/02/15 10:26:33+00,2024/02/15 19:24:59+00,8481,0,0
319585759,Single Tier Municipality,Municipalités à palier unique,TOWNSHIP OF EAST FERRIS,CANTON D'EAST FERRIS,48034,85606,Mainland,Terre ferme,4834,TOWNSHIP OF,CANTON DE,EAST FERRIS,EAST FERRIS,,,,2024/02/15 10:26:33+00,2024/02/15 19:24:59+00,8497,0,0
319585651,Single Tier Municipality,Municipalités à palier unique,TOWNSHIP OF HARLEY,CANTON DE HARLEY,54026,90610,Mainland,Terre ferme,5426,TOWNSHIP OF,CANTON DE,HARLEY,HARLEY,,,,2024/02/15 10:26:33+00,2024/02/15 19:24:59+00,8513,0,0
319585834,Lower Tier Municipality,Municipalités de palier inférieur,CITY OF CAMBRIDGE,CITÉ DE CAMBRIDGE,30006,25101,Mainland,Terre ferme,3006,CITY OF,CITÉ DE,CAMBRIDGE,CAMBRIDGE,,REGIONAL MUNICIPALITY OF WATERLOO,MUNICIPALITÉ RÉGIONALE DE WATERLOO,2024/02/15 10:26:33+00,2024/02/15 19:24:59+00,8529,0,0
319585811,Lower Tier Municipality,Municipalités de palier inférieur,CITY OF BRAMPTON,CITÉ DE BRAMPTON,21010,21101,Mainland,Terre ferme,2110,CITY OF,CITÉ DE,BRAMPTON,BRAMPTON,,REGIONAL MUNICIPALITY OF PEEL,MUNICIPALITÉ RÉGIONALE DE PEEL,2024/02/15 10:26:33+00,2024/02/15 19:24:59+00,8545,0,0
319585701,Lower Tier Municipality,Municipalités de palier inférieur,TOWN OF ORANGEVILLE,VILLE D'ORANGEVILLE,22014,43401,Mainland,Terre ferme,2214,TOWN OF,VILLE DE,ORANGEVILLE,ORANGEVILLE,,COUNTY OF DUFFERIN,COMTÉ DE DUFFERIN,2024/02/15 10:26:33+00,2024/02/15 19:24:59+00,8561,0,0
319585685,Lower Tier Municipality,Municipalités de palier inférieur,CITY OF NIAGARA FALLS,CITÉ DE NIAGARA FALLS,26043,18101,Islands,Îles,2725,CITY OF,CITÉ DE,NIAGARA FALLS,NIAGARA FALLS,,REGIONAL MUNICIPALITY OF NIAGARA,MUNICIPALITÉ RÉGIONALE DE NIAGARA,2024/02/15 10:26:33+00,2024/02/15 19:24:59+00,8577,0,0
319586195,Single Tier Municipality,Municipalités à palier unique,MUNICIPALITY OF CENTRAL MANITOULIN,MUNICIPALITÉ DE CENTRAL MANITOULIN,51009,83613,Mainland,Terre ferme,5104,MUNICIPALITY OF,MUNICIPALITÉ DE,CENTRAL MANITOULIN,CENTRAL MANITOULIN,,,,2024/02/15 10:26:33+00,2024/02/15 19:24:59+00,8593,0,0
319586215,Lower Tier Municipality,Municipalités de palier inférieur,TOWN OF DESERONTO,VILLE DE DESERONTO,12002,51401,Mainland,Terre ferme,1202,TOWN OF,VILLE DE,DESERONTO,DESERONTO,,COUNTY OF HASTINGS,COMTÉ DE HASTINGS,2024/02/15 10:26:33+00,2024/02/15 19:24:59+00,8609,0,0
319586040,Lower Tier Municipality,Municipalités de palier inférieur,CITY OF SARNIA,CITÉ DE SARNIA,38030,54102,Islands,Îles,3829,CITY OF,CITÉ DE,SARNIA,SARNIA,,COUNTY OF LAMBTON,COMTÉ DE LAMBTON,2024/02/15 10:26:33+00,2024/02/15 19:24:59+00,8625,0,0
319585976,Single Tier Municipality,Municipalités à palier unique,CITY OF BROCKVILLE,CITÉ DE BROCKVILLE,7015,56101,Mainland,Terre ferme,802,CITY OF,CITÉ DE,BROCKVILLE,BROCKVILLE,,,,2024/02/15 10:26:33+00,2024/02/15 19:24:59+00,8641,0,0
319585801,Lower Tier Municipality,Municipalités de palier inférieur,TOWNSHIP OF MADOC,CANTON DE MADOC,12036,51610,Mainland,Terre ferme,1236,TOWNSHIP OF,CANTON DE,MADOC,MADOC,,COUNTY OF HASTINGS,COMTÉ DE HASTINGS,2024/02/15 10:26:33+00,2024/02/15 19:24:59+00,8657,0,0
319585908,Single Tier Municipality,Municipalités à palier unique,CITY OF STRATFORD,CITÉ DE STRATFORD,31011,65101,Mainland,Terre ferme,3111,CITY OF,CITÉ DE,STRATFORD,STRATFORD,,,,2024/02/15 10:26:33+00,2024/02/15 19:24:59+00,8673,0,0
319586043,Lower Tier Municipality,Municipalités de palier inférieur,TOWN OF RENFREW,VILLE DE RENFREW,47048,69404,Mainland,Terre ferme,4748,TOWN OF,VILLE DE,RENFREW,RENFREW,,COUNTY OF RENFREW,COMTÉ DE RENFREW,2024/02/15 10:26:33+00,2024/02/15 19:24:59+00,8689,0,0
319585835,Lower Tier Municipality,Municipalités de palier inférieur,TOWNSHIP OF LEEDS AND THE THOUSAND ISLANDS,CANTON DE LEEDS AND THE THOUSAND ISLANDS,7019,56621,Mainland,Terre ferme,812,TOWNSHIP OF,CANTON DE,LEEDS AND THE THOUSAND ISLANDS,LEEDS AND THE THOUSAND ISLANDS,,UNITED COUNTIES OF LEEDS AND GRENVILLE,COMTÉS UNIS DE LEEDS AND GRENVILLE,2024/02/15 10:26:33+00,2024/02/15 19:24:59+00,8705,0,0
319585921,Lower Tier Municipality,Municipalités de palier inférieur,TOWNSHIP OF MALAHIDE,CANTON DE MALAHIDE,34007,44612,Water,Eau,3408,TOWNSHIP OF,CANTON DE,MALAHIDE,MALAHIDE,,COUNTY OF ELGIN,COMTÉ D'ELGIN,2024/02/15 10:26:33+00,2024/02/15 19:24:59+00,8721,0,0
319586210,Lower Tier Municipality,Municipalités de palier inférieur,TOWNSHIP OF GEORGIAN BLUFFS,CANTON DE GEORGIAN BLUFFS,42055,47622,Islands,Îles,4203,TOWNSHIP OF,CANTON DE,GEORGIAN BLUFFS,GEORGIAN BLUFFS,,COUNTY OF GREY,COMTÉ DE GREY,2024/02/15 10:26:33+00,2024/02/15 19:24:59+00,8737,0,0
319586061,Lower Tier Municipality,Municipalités de palier inférieur,TOWNSHIP OF ORO-MEDONTE,CANTON D'ORO-MEDONTE,43047,70621,Islands,Îles,4346,TOWNSHIP OF,CANTON DE,ORO-MEDONTE,ORO-MEDONTE,,COUNTY OF SIMCOE,COMTÉ DE SIMCOE,2024/02/15 10:26:33+00,2024/02/15 19:24:59+00,8753,0,0
319585752,Lower Tier Municipality,Municipalités de palier inférieur,TOWNSHIP OF PERTH SOUTH,CANTON DE PERTH SOUTH,31008,65613,Mainland,Terre ferme,3120,TOWNSHIP OF,CANTON DE,PERTH SOUTH,PERTH SOUTH,,COUNTY OF PERTH,COMTÉ DE PERTH,2024/02/15 10:26:33+00,2024/02/15 19:24:59+00,8769,0,0
319585851,Lower Tier Municipality,Municipalités de palier inférieur,CITY OF CLARENCE-ROCKLAND,CITÉ DE CLARENCE-ROCKLAND,2036,67101,Water,Eau,316,CITY OF,CITÉ DE,CLARENCE-ROCKLAND,CLARENCE-ROCKLAND,,UNITED COUNTIES OF PRESCOTT AND RUSSELL,COMTÉS UNIS DE PRESCOTT AND RUSSELL,2024/02/15 10:26:33+00,2024/02/15 19:24:59+00,8785,0,0
319585744,Lower Tier Municipality,Municipalités de palier inférieur,TOWN OF COLLINGWOOD,VILLE DE COLLINGWOOD,43031,70403,Islands,Îles,4331,TOWN OF,VILLE DE,COLLINGWOOD,COLLINGWOOD,,COUNTY OF SIMCOE,COMTÉ DE SIMCOE,2024/02/15 10:26:33+00,2024/02/15 19:24:59+00,8801,0,0
319585874,Lower Tier Municipality,Municipalités de palier inférieur,MUNICIPALITY OF NORTHERN BRUCE PENINSULA,MUNICIPALITÉ DE NORTHERN BRUCE PENINSULA,41061,41623,Water,Eau,4109,MUNICIPALITY OF,MUNICIPALITÉ DE,NORTHERN BRUCE PENINSULA,NORTHERN BRUCE PENINSULA,,COUNTY OF BRUCE,COMTÉ DE BRUCE,2024/02/15 10:26:33+00,2024/02/15 19:24:59+00,8817,0,0
319585802,Single Tier Municipality,Municipalités à palier unique,CITY OF TORONTO,CITÉ DE TORONTO,20002,1106,Islands,Îles,1999,CITY OF,CITÉ DE,TORONTO,TORONTO,,,,2024/02/15 10:26:33+00,2024/02/15 19:24:59+00,8833,0,0
319586109,Lower Tier Municipality,Municipalités de palier inférieur,MUNICIPALITY OF NORTH GRENVILLE,MUNICIPALITÉ DE NORTH GRENVILLE,7055,56617,Mainland,Terre ferme,719,MUNICIPALITY OF,MUNICIPALITÉ DE,NORTH GRENVILLE,NORTH GRENVILLE,,UNITED COUNTIES OF LEEDS AND GRENVILLE,COMTÉS UNIS DE LEEDS AND GRENVILLE,2024/02/15 10:26:33+00,2024/02/15 19:24:59+00,8849,0,0
319585639,Single Tier Municipality,Municipalités à palier unique,TOWNSHIP OF JOCELYN,CANTON DE JOCELYN,57001,80604,Water,Eau,5701,TOWNSHIP OF,CANTON DE,JOCELYN,JOCELYN,,,,2024/02/15 10:26:33+00,2024/02/15 19:24:59+00,8865,0,0
319585650,Lower Tier Municipality,Municipalités de palier inférieur,TOWN OF NEW TECUMSETH,VILLE DE NEW TECUMSETH,43025,70411,Mainland,Terre ferme,4324,TOWN OF,VILLE DE,NEW TECUMSETH,NEW TECUMSETH,,COUNTY OF SIMCOE,COMTÉ DE SIMCOE,2024/02/15 10:26:33+00,2024/02/15 19:24:59+00,8881,0,0
319585686,Single Tier Municipality,Municipalités à palier unique,TOWNSHIP OF SABLES-SPANISH RIVERS,CANTON DE SABLES-SPANISH RIVERS,52019,88621,Islands,Îles,5218,TOWNSHIP OF,CANTON DE,SABLES-SPANISH RIVERS,SABLES-SPANISH RIVERS,,,,2024/02/15 10:26:33+00,2024/02/15 19:24:59+00,8897,0,0
319586065,Lower Tier Municipality,Municipalités de palier inférieur,TOWN OF DEEP RIVER,VILLE DE DEEP RIVER,47096,69402,Mainland,Terre ferme,4796,TOWN OF,VILLE DE,DEEP RIVER,DEEP RIVER,,COUNTY OF RENFREW,COMTÉ DE RENFREW,2024/02/15 10:26:33+00,2024/02/15 19:24:59+00,8913,0,0
319585881,Single Tier Municipality,Municipalités à palier unique,MUNICIPALITY OF WAWA,MUNICIPALITÉ DE WAWA,57076,80608,Mainland,Terre ferme,5776,MUNICIPALITY OF,MUNICIPALITÉ DE,WAWA,WAWA,,,,2024/02/15 10:26:33+00,2024/02/15 19:24:59+00,8929,0,0
319585631,Single Tier Municipality,Municipalités à palier unique,TOWNSHIP OF DAWSON,CANTON DE DAWSON,59040,87613,Mainland,Terre ferme,5934,TOWNSHIP OF,CANTON DE,DAWSON,DAWSON,,,,2024/02/15 10:26:33+00,2024/02/15 19:24:59+00,8945,0,0
319586146,Single Tier Municipality,Municipalités à palier unique,TOWNSHIP OF EAR FALLS,CANTON D'EAR FALLS,60042,82605,Mainland,Terre ferme,6042,TOWNSHIP OF,CANTON DE,EAR FALLS,EAR FALLS,,,,2024/02/15 10:26:33+00,2024/02/15 19:24:59+00,8961,0,0
319585853,Single Tier Municipality,Municipalités à palier unique,TOWNSHIP OF CHAPPLE,CANTON DE CHAPPLE,59024,87605,Islands,Îles,5924,TOWNSHIP OF,CANTON DE,CHAPPLE,CHAPPLE,,,,2024/02/15 10:26:33+00,2024/02/15 19:24:59+00,8977,0,0
319585647,Lower Tier Municipality,Municipalités de palier inférieur,TOWNSHIP OF OTONABEE-SOUTH MONAGHAN,CANTON D'OTONABEE-SOUTH MONAGHAN,15005,66621,Mainland,Terre ferme,1506,TOWNSHIP OF,CANTON DE,OTONABEE-SOUTH MONAGHAN,OTONABEE-SOUTH MONAGHAN,,COUNTY OF PETERBOROUGH,COMTÉ DE PETERBOROUGH,2024/02/15 10:26:33+00,2024/02/15 19:24:59+00,8993,0,0
319585837,Lower Tier Municipality,Municipalités de palier inférieur,TOWN OF GODERICH,VILLE DE GODERICH,40028,52403,Islands,Îles,4028,TOWN OF,VILLE DE,GODERICH,GODERICH,,COUNTY OF HURON,COMTÉ DE HURON,2024/02/15 10:26:33+00,2024/02/15 19:24:59+00,9009,0,0
319585990,Lower Tier Municipality,Municipalités de palier inférieur,MUNICIPALITY OF WEST GREY,MUNICIPALITÉ DE WEST GREY,42004,47624,Mainland,Terre ferme,4205,MUNICIPALITY OF,MUNICIPALITÉ DE,WEST GREY,WEST GREY,,COUNTY OF GREY,COMTÉ DE GREY,2024/02/15 10:26:33+00,2024/02/15 19:24:59+00,9025,0,0
319585935,Lower Tier Municipality,Municipalités de palier inférieur,TOWNSHIP OF TAY,CANTON DE TAY,43070,70625,Mainland,Terre ferme,4353,TOWNSHIP OF,CANTON DE,TAY,TAY,,COUNTY OF SIMCOE,COMTÉ DE SIMCOE,2024/02/15 10:26:33+00,2024/02/15 19:24:59+00,9041,0,0
319585684,Single Tier Municipality,Municipalités à palier unique,CITY OF HAMILTON,CITÉ DE HAMILTON,25005,16103,Mainland,Terre ferme,2518,CITY OF,CITÉ DE,HAMILTON,HAMILTON,,,,2024/02/15 10:26:33+00,2024/02/15 19:24:59+00,9057,0,0
319585821,Lower Tier Municipality,Municipalités de palier inférieur,TOWNSHIP OF DOURO-DUMMER,CANTON DE DOURO-DUMMER,15021,66618,Mainland,Terre ferme,1522,TOWNSHIP OF,CANTON DE,DOURO-DUMMER,DOURO-DUMMER,,COUNTY OF PETERBOROUGH,COMTÉ DE PETERBOROUGH,2024/02/15 10:26:33+00,2024/02/15 19:24:59+00,9073,0,0
319586167,Single Tier Municipality,Municipalités à palier unique,TOWN OF BRUCE MINES,VILLE DE BRUCE MINES,57021,80402,Islands,Îles,5721,TOWN OF,VILLE DE,BRUCE MINES,BRUCE MINES,,,,2024/02/15 10:26:33+00,2024/02/15 19:24:59+00,9089,0,0
319585668,Lower Tier Municipality,Municipalités de palier inférieur,TOWNSHIP OF KING,CANTON DE KING,19049,27603,Mainland,Terre ferme,1949,TOWNSHIP OF,CANTON DE,KING,KING,,REGIONAL MUNICIPALITY OF YORK,MUNICIPALITÉ RÉGIONALE DE YORK,2024/02/15 10:26:33+00,2024/02/15 19:24:59+00,9105,0,0
319585748,Single Tier Municipality,Municipalités à palier unique,CITY OF TORONTO,CITÉ DE TORONTO,20002,1106,Water,Eau,1999,CITY OF,CITÉ DE,TORONTO,TORONTO,,,,2024/02/15 10:26:33+00,2024/02/15 19:24:59+00,9121,0,0
319586173,Single Tier Municipality,Municipalités à palier unique,TOWNSHIP OF ALBERTON,CANTON D'ALBERTON,59011,87601,Islands,Îles,5911,TOWNSHIP OF,CANTON DE,ALBERTON,ALBERTON,,,,2024/02/15 10:26:33+00,2024/02/15 19:24:59+00,9137,0,0
319585884,Lower Tier Municipality,Municipalités de palier inférieur,TOWN OF EAST GWILLIMBURY,VILLE D'EAST GWILLIMBURY,19054,27407,Mainland,Terre ferme,1954,TOWN OF,VILLE DE,EAST GWILLIMBURY,EAST GWILLIMBURY,,REGIONAL MUNICIPALITY OF YORK,MUNICIPALITÉ RÉGIONALE DE YORK,2024/02/15 10:26:33+00,2024/02/15 19:24:59+00,9153,0,0
319585780,Lower Tier Municipality,Municipalités de palier inférieur,TOWN OF WHITBY,VILLE DE WHITBY,18009,10404,Water,Eau,1809,TOWN OF,VILLE DE,WHITBY,WHITBY,,REGIONAL MUNICIPALITY OF DURHAM,REGIONAL MUNICIPALITÉ DE DURHAM,2024/02/15 10:26:33+00,2024/02/15 19:24:59+00,9169,0,0
319585850,Single Tier Municipality,Municipalités à palier unique,CITY OF KINGSTON,CITÉ DE KINGSTON,10005,46102,Islands,Îles,1011,CITY OF,CITÉ DE,KINGSTON,KINGSTON,,,,2024/02/15 10:26:33+00,2024/02/15 19:24:59+00,9185,0,0
319586039,Single Tier Municipality,Municipalités à palier unique,TOWNSHIP OF LAKE OF THE WOODS,CANTON DE LAKE OF THE WOODS,59045,87614,Islands,Îles,5946,TOWNSHIP OF,CANTON DE,LAKE OF THE WOODS,LAKE OF THE WOODS,,,,2024/02/15 10:26:33+00,2024/02/15 19:24:59+00,9201,0,0
319585938,Lower Tier Municipality,Municipalités de palier inférieur,TOWN OF COBOURG,VILLE DE COBOURG,14021,61403,Mainland,Terre ferme,1421,TOWN OF,VILLE DE,COBOURG,COBOURG,,COUNTY OF NORTHUMBERLAND,COMTÉ DE NORTHUMBERLAND,2024/02/15 10:26:33+00,2024/02/15 19:24:59+00,9217,0,0
319585737,Single Tier Municipality,Municipalités à palier unique,CITY OF WINDSOR,CITÉ DE WINDSOR,37039,45101,Water,Eau,3739,CITY OF,CITÉ DE,WINDSOR,WINDSOR,,,,2024/02/15 10:26:33+00,2024/02/15 19:24:59+00,9233,0,0
319586301,Lower Tier Municipality,Municipalités de palier inférieur,CITY OF PORT COLBORNE,CITÉ DE PORT COLBORNE,26011,18102,Mainland,Terre ferme,2711,CITY OF,CITÉ DE,PORT COLBORNE,PORT COLBORNE,,REGIONAL MUNICIPALITY OF NIAGARA,MUNICIPALITÉ RÉGIONALE DE NIAGARA,2024/02/15 10:26:33+00,2024/02/15 19:24:59+00,9249,0,0
319586008,Single Tier Municipality,Municipalités à palier unique,TOWNSHIP OF BALDWIN,CANTON DE BALDWIN,52028,88601,Mainland,Terre ferme,5228,TOWNSHIP OF,CANTON DE,BALDWIN,BALDWIN,,,,2024/02/15 10:26:33+00,2024/02/15 19:24:59+00,9265,0,0
319586169,Lower Tier Municipality,Municipalités de palier inférieur,TOWNSHIP OF ADMASTON/BROMLEY,CANTON D'ADMASTON / BROMLEY,47041,69631,Mainland,Terre ferme,4742,TOWNSHIP OF,CANTON DE,ADMASTON/BROMLEY,ADMASTON / BROMLEY,,COUNTY OF RENFREW,COMTÉ DE RENFREW,2024/02/15 10:26:33+00,2024/02/15 19:24:59+00,9281,0,0
319586094,Single Tier Municipality,Municipalités à palier unique,TOWNSHIP OF LAIRD,CANTON DE LAIRD,57011,80606,Water,Eau,5711,TOWNSHIP OF,CANTON DE,LAIRD,LAIRD,,,,2024/02/15 10:26:33+00,2024/02/15 19:24:59+00,9297,0,0
319586047,Lower Tier Municipality,Municipalités de palier inférieur,TOWN OF MIDLAND,VILLE DE MIDLAND,43074,70404,Islands,Îles,4374,TOWN OF,VILLE DE,MIDLAND,MIDLAND,,COUNTY OF SIMCOE,COMTÉ DE SIMCOE,2024/02/15 10:26:33+00,2024/02/15 19:24:59+00,9313,0,0
319585959,Lower Tier Municipality,Municipalités de palier inférieur,MUNICIPALITY OF CENTRAL ELGIN,MUNICIPALITÉ DE CENTRAL ELGIN,34015,44610,Mainland,Terre ferme,3418,MUNICIPALITY OF,MUNICIPALITÉ DE,CENTRAL ELGIN,CENTRAL ELGIN,,COUNTY OF ELGIN,COMTÉ D'ELGIN,2024/02/15 10:26:33+00,2024/02/15 19:24:59+00,9329,0,0
319586222,Lower Tier Municipality,Municipalités de palier inférieur,TOWNSHIP OF LUCAN BIDDULPH,CANTON DE LUCAN BIDDULPH,39057,59617,Mainland,Terre ferme,3958,TOWNSHIP OF,CANTON DE,LUCAN BIDDULPH,LUCAN BIDDULPH,,COUNTY OF MIDDLESEX,COMTÉ DE MIDDLESEX,2024/02/15 10:26:33+00,2024/02/15 19:24:59+00,9345,0,0
319585765,Single Tier Municipality,Municipalités à palier unique,TOWNSHIP OF SEGUIN,CANTON DE SEGUIN,49003,86623,Mainland,Terre ferme,4903,TOWNSHIP OF,CANTON DE,SEGUIN,SEGUIN,,,,2024/02/15 10:26:33+00,2024/02/15 19:24:59+00,9361,0,0
319585893,Single Tier Municipality,Municipalités à palier unique,TOWNSHIP OF BRETHOUR,CANTON DE BRETHOUR,54032,90602,Mainland,Terre ferme,5432,TOWNSHIP OF,CANTON DE,BRETHOUR,BRETHOUR,,,,2024/02/15 10:26:33+00,2024/02/15 19:24:59+00,9377,0,0
319586281,Lower Tier Municipality,Municipalités de palier inférieur,MUNICIPALITY OF SOUTH DUNDAS,MUNICIPALITÉ DE SOUTH DUNDAS,1016,71614,Water,Eau,506,MUNICIPALITY OF,MUNICIPALITÉ DE,SOUTH DUNDAS,SOUTH DUNDAS,,"UNITED COUNTIES OF STORMONT, DUNDAS AND GLENGARRY","COMTÉS UNIS DE STORMONT, DUNDAS AND GLENGARRY",2024/02/15 10:26:33+00,2024/02/15 19:24:59+00,9393,0,0
319585704,Lower Tier Municipality,Municipalités de palier inférieur,TOWNSHIP OF SOUTH STORMONT,CANTON DE SOUTH STORMONT,1009,71618,Mainland,Terre ferme,406,TOWNSHIP OF,CANTON DE,SOUTH STORMONT,SOUTH STORMONT,,"UNITED COUNTIES OF STORMONT, DUNDAS AND GLENGARRY","COMTÉS UNIS DE STORMONT, DUNDAS AND GLENGARRY",2024/02/15 10:26:33+00,2024/02/15 19:24:59+00,9409,0,0
319585734,Single Tier Municipality,Municipalités à palier unique,CITY OF BROCKVILLE,CITÉ DE BROCKVILLE,7015,56101,Islands,Îles,802,CITY OF,CITÉ DE,BROCKVILLE,BROCKVILLE,,,,2024/02/15 10:26:33+00,2024/02/15 19:24:59+00,9425,0,0
319585690,Lower Tier Municipality,Municipalités de palier inférieur,TOWNSHIP OF CHAMPLAIN,CANTON DE CHAMPLAIN,2005,67613,Water,Eau,209,TOWNSHIP OF,CANTON DE,CHAMPLAIN,CHAMPLAIN,,UNITED COUNTIES OF PRESCOTT AND RUSSELL,COMTÉS UNIS DE PRESCOTT AND RUSSELL,2024/02/15 10:26:33+00,2024/02/15 19:24:59+00,9441,0,0
319585940,Single Tier Municipality,Municipalités à palier unique,VILLAGE OF SOUTH RIVER,VILLAGE DE SOUTH RIVER,49056,86504,Mainland,Terre ferme,4956,VILLAGE OF,VILLAGE DE,SOUTH RIVER,SOUTH RIVER,,,,2024/02/15 10:26:33+00,2024/02/15 19:24:59+00,9457,0,0
319586151,Lower Tier Municipality,Municipalités de palier inférieur,TOWNSHIP OF ORO-MEDONTE,CANTON D'ORO-MEDONTE,43047,70621,Water,Eau,4346,TOWNSHIP OF,CANTON DE,ORO-MEDONTE,ORO-MEDONTE,,COUNTY OF SIMCOE,COMTÉ DE SIMCOE,2024/02/15 10:26:33+00,2024/02/15 19:24:59+00,9473,0,0
319586111,Single Tier Municipality,Municipalités à palier unique,CITY OF TIMMINS,CITÉ DE TIMMINS,56027,81101,Mainland,Terre ferme,5627,CITY OF,CITÉ DE,TIMMINS,TIMMINS,,,,2024/02/15 10:26:33+00,2024/02/15 19:24:59+00,9489,0,0
319585726,Single Tier Municipality,Municipalités à palier unique,CITY OF ELLIOT LAKE,CITÉ D'ELLIOT LAKE,57041,80102,Mainland,Terre ferme,5741,CITY OF,CITÉ DE,ELLIOT LAKE,ELLIOT LAKE,,,,2024/02/15 10:26:33+00,2024/02/15 19:24:59+00,9505,0,0
319586284,Single Tier Municipality,Municipalités à palier unique,TOWNSHIP OF TARBUTT,CANTON DE TARBUTT,57014,80612,Mainland,Terre ferme,5714,TOWNSHIP OF,CANTON DE,TARBUTT,TARBUTT,,,,2024/02/15 10:26:33+00,2024/02/15 19:24:59+00,9521,0,0
319586170,Lower Tier Municipality,Municipalités de palier inférieur,TOWN OF HAWKESBURY,VILLE DE HAWKESBURY,2008,67401,Islands,Îles,208,TOWN OF,VILLE DE,HAWKESBURY,HAWKESBURY,,UNITED COUNTIES OF PRESCOTT AND RUSSELL,COMTÉS UNIS DE PRESCOTT AND RUSSELL,2024/02/15 10:26:33+00,2024/02/15 19:24:59+00,9537,0,0
319586077,Single Tier Municipality,Municipalités à palier unique,TOWNSHIP OF KERNS,CANTON DE KERNS,54024,90615,Mainland,Terre ferme,5424,TOWNSHIP OF,CANTON DE,KERNS,KERNS,,,,2024/02/15 10:26:33+00,2024/02/15 19:24:59+00,9553,0,0
319586134,Single Tier Municipality,Municipalités à palier unique,TOWN OF GANANOQUE,VILLE DE GANANOQUE,7024,56301,Mainland,Terre ferme,814,TOWN OF,VILLE DE,GANANOQUE,GANANOQUE,,,,2024/02/15 10:26:33+00,2024/02/15 19:24:59+00,9569,0,0
319586299,Lower Tier Municipality,Municipalités de palier inférieur,TOWNSHIP OF SEVERN,CANTON DE SEVERN,43080,70623,Water,Eau,4351,TOWNSHIP OF,CANTON DE,SEVERN,SEVERN,,COUNTY OF SIMCOE,COMTÉ DE SIMCOE,2024/02/15 10:26:33+00,2024/02/15 19:24:59+00,9585,0,0
319586226,Lower Tier Municipality,Municipalités de palier inférieur,TOWNSHIP OF TINY,CANTON DE TINY,43068,70614,Islands,Îles,4368,TOWNSHIP OF,CANTON DE,TINY,TINY,,COUNTY OF SIMCOE,COMTÉ DE SIMCOE,2024/02/15 10:26:33+00,2024/02/15 19:24:59+00,9601,0,0
319586209,Single Tier Municipality,Municipalités à palier unique,TOWNSHIP OF STRONG,CANTON DE STRONG,49046,86618,Mainland,Terre ferme,4946,TOWNSHIP OF,CANTON DE,STRONG,STRONG,,,,2024/02/15 10:26:33+00,2024/02/15 19:24:59+00,9617,0,0
319586075,Single Tier Municipality,Municipalités à palier unique,MUNICIPALITY OF CHATHAM-KENT,MUNICIPALITÉ DE CHATHAM-KENT,36003,53102,Islands,Îles,3650,MUNICIPALITY OF,MUNICIPALITÉ DE,CHATHAM-KENT,CHATHAM-KENT,,,,2024/02/15 10:26:33+00,2024/02/15 19:24:59+00,9633,0,0
319586108,Lower Tier Municipality,Municipalités de palier inférieur,MUNICIPALITY OF NORTHERN BRUCE PENINSULA,MUNICIPALITÉ DE NORTHERN BRUCE PENINSULA,41061,41623,Islands,Îles,4109,MUNICIPALITY OF,MUNICIPALITÉ DE,NORTHERN BRUCE PENINSULA,NORTHERN BRUCE PENINSULA,,COUNTY OF BRUCE,COMTÉ DE BRUCE,2024/02/15 10:26:33+00,2024/02/15 19:24:59+00,9649,0,0
319586013,Single Tier Municipality,Municipalités à palier unique,CITY OF WINDSOR,CITÉ DE WINDSOR,37039,45101,Mainland,Terre ferme,3739,CITY OF,CITÉ DE,WINDSOR,WINDSOR,,,,2024/02/15 10:26:33+00,2024/02/15 19:24:59+00,9665,0,0
319585762,Lower Tier Municipality,Municipalités de palier inférieur,MUNICIPALITY OF BROOKE-ALVINSTON,MUNICIPALITÉ DE BROOKE-ALVINSTON,38011,54613,Mainland,Terre ferme,3815,MUNICIPALITY OF,MUNICIPALITÉ DE,BROOKE-ALVINSTON,BROOKE-ALVINSTON,,COUNTY OF LAMBTON,COMTÉ DE LAMBTON,2024/02/15 10:26:33+00,2024/02/15 19:24:59+00,9681,0,0
319585670,Lower Tier Municipality,Municipalités de palier inférieur,TOWNSHIP OF TINY,CANTON DE TINY,43068,70614,Mainland,Terre ferme,4368,TOWNSHIP OF,CANTON DE,TINY,TINY,,COUNTY OF SIMCOE,COMTÉ DE SIMCOE,2024/02/15 10:26:33+00,2024/02/15 19:24:59+00,9697,0,0
319585753,Single Tier Municipality,Municipalités à palier unique,VILLAGE OF BURK'S FALLS,VILLAGE DE BURK’S FALLS,49022,86501,Mainland,Terre ferme,4922,VILLAGE OF,VILLAGE DE,BURK'S FALLS,BURK'S FALLS,,,,2024/02/15 10:26:33+00,2024/02/15 19:24:59+00,9713,0,0
319585722,Lower Tier Municipality,Municipalités de palier inférieur,MUNICIPALITY OF CENTRAL HURON,MUNICIPALITÉ DE CENTRAL HURON,40025,52617,Mainland,Terre ferme,4030,MUNICIPALITY OF,MUNICIPALITÉ DE,CENTRAL HURON,CENTRAL HURON,,COUNTY OF HURON,COMTÉ DE HURON,2024/02/15 10:26:33+00,2024/02/15 19:24:59+00,9729,0,0
319586147,Single Tier Municipality,Municipalités à palier unique,CITY OF BARRIE,CITÉ DE BARRIE,43042,70101,Mainland,Terre ferme,4342,CITY OF,CITÉ DE,BARRIE,BARRIE,,,,2024/02/15 10:26:33+00,2024/02/15 19:24:59+00,9745,0,0
319585915,Single Tier Municipality,Municipalités à palier unique,TOWN OF KAPUSKASING,VILLE DE KAPUSKASING,56066,81404,Mainland,Terre ferme,5666,TOWN OF,VILLE DE,KAPUSKASING,KAPUSKASING,,,,2024/02/15 10:26:33+00,2024/02/15 19:24:59+00,9761,0,0
319585819,Lower Tier Municipality,Municipalités de palier inférieur,MUNICIPALITY OF GREY HIGHLANDS,MUNICIPALITÉ DE GREY HIGHLANDS,42013,47623,Mainland,Terre ferme,4208,MUNICIPALITY OF,MUNICIPALITÉ DE,GREY HIGHLANDS,GREY HIGHLANDS,,COUNTY OF GREY,COMTÉ DE GREY,2024/02/15 10:26:33+00,2024/02/15 19:24:59+00,9777,0,0
319585694,Lower Tier Municipality,Municipalités de palier inférieur,TOWN OF LASALLE,VILLE DE LASALLE,37034,45408,Islands,Îles,3734,TOWN OF,VILLE DE,LASALLE,LASALLE,,COUNTY OF ESSEX,COMTÉ D'ESSEX,2024/02/15 10:26:33+00,2024/02/15 19:24:59+00,9793,0,0
319585806,Lower Tier Municipality,Municipalités de palier inférieur,TOWNSHIP OF RAMARA,CANTON DE RAMARA,43050,70622,Water,Eau,4348,TOWNSHIP OF,CANTON DE,RAMARA,RAMARA,,COUNTY OF SIMCOE,COMTÉ DE SIMCOE,2024/02/15 10:26:33+00,2024/02/15 19:24:59+00,9809,0,0
319585919,Lower Tier Municipality,Municipalités de palier inférieur,TOWNSHIP OF AUGUSTA,CANTON D'AUGUSTA,7006,56601,Water,Eau,706,TOWNSHIP OF,CANTON DE,AUGUSTA,AUGUSTA,,UNITED COUNTIES OF LEEDS AND GRENVILLE,COMTÉS UNIS DE LEEDS AND GRENVILLE,2024/02/15 10:26:33+00,2024/02/15 19:24:59+00,9825,0,0
319586223,Single Tier Municipality,Municipalités à palier unique,TOWNSHIP OF TERRACE BAY,CANTON DE TERRACE BAY,58054,89613,Mainland,Terre ferme,5854,TOWNSHIP OF,CANTON DE,TERRACE BAY,TERRACE BAY,,,,2024/02/15 10:26:33+00,2024/02/15 19:24:59+00,9841,0,0
319586032,Lower Tier Municipality,Municipalités de palier inférieur,TOWN OF CALEDON,VILLE DE CALEDON,21024,21401,Mainland,Terre ferme,2124,TOWN OF,VILLE DE,CALEDON,CALEDON,,REGIONAL MUNICIPALITY OF PEEL,MUNICIPALITÉ RÉGIONALE DE PEEL,2024/02/15 10:26:33+00,2024/02/15 19:24:59+00,9857,0,0
319586002,Lower Tier Municipality,Municipalités de palier inférieur,MUNICIPALITY OF MORRIS-TURNBERRY,MUNICIPALITÉ DE MORRIS-TURNBERRY,40048,52619,Mainland,Terre ferme,4060,MUNICIPALITY OF,MUNICIPALITÉ DE,MORRIS-TURNBERRY,MORRIS-TURNBERRY,,COUNTY OF HURON,COMTÉ DE HURON,2024/02/15 10:26:33+00,2024/02/15 19:24:59+00,9873,0,0
319586090,Lower Tier Municipality,Municipalités de palier inférieur,TOWNSHIP OF FRONTENAC ISLANDS,CANTON DE FRONTENAC ISLANDS,10002,46617,Islands,Îles,1001,TOWNSHIP OF,CANTON DE,FRONTENAC ISLANDS,FRONTENAC ISLANDS,,COUNTY OF FRONTENAC,COMTÉ DE FRONTENAC,2024/02/15 10:26:33+00,2024/02/15 19:24:59+00,9889,0,0
319585988,Single Tier Municipality,Municipalités à palier unique,TOWN OF NORTHEASTERN MANITOULIN AND THE ISLANDS,VILLE DE NORTHEASTERN MANITOULIN AND THE ISLANDS,51015,83403,Mainland,Terre ferme,5119,TOWN OF,VILLE DE,NORTHEASTERN MANITOULIN AND THE ISLANDS,NORTHEASTERN MANITOULIN AND THE ISLANDS,,,,2024/02/15 10:26:33+00,2024/02/15 19:24:59+00,9905,0,0
319585746,Lower Tier Municipality,Municipalités de palier inférieur,TOWN OF GEORGINA,VILLE DE GEORGINA,19070,27408,Islands,Îles,1970,TOWN OF,VILLE DE,GEORGINA,GEORGINA,,REGIONAL MUNICIPALITY OF YORK,MUNICIPALITÉ RÉGIONALE DE YORK,2024/02/15 10:26:33+00,2024/02/15 19:24:59+00,9921,0,0
319585836,Single Tier Municipality,Municipalités à palier unique,TOWNSHIP OF PAPINEAU-CAMERON,CANTON DE PAPINEAU-CAMERON,48017,85612,Islands,Îles,4816,TOWNSHIP OF,CANTON DE,PAPINEAU-CAMERON,PAPINEAU-CAMERON,,,,2024/02/15 10:26:33+00,2024/02/15 19:24:59+00,9937,0,0
319585882,Lower Tier Municipality,Municipalités de palier inférieur,TOWNSHIP OF LAURENTIAN VALLEY,CANTON DE LAURENTIAN VALLEY,47063,69632,Islands,Îles,4766,TOWNSHIP OF,CANTON DE,LAURENTIAN VALLEY,LAURENTIAN VALLEY,,COUNTY OF RENFREW,COMTÉ DE RENFREW,2024/02/15 10:26:33+00,2024/02/15 19:24:59+00,9953,0,0
319586069,Single Tier Municipality,Municipalités à palier unique,TOWNSHIP OF LARDER LAKE,CANTON DE LARDER LAKE,54062,90616,Mainland,Terre ferme,5462,TOWNSHIP OF,CANTON DE,LARDER LAKE,LARDER LAKE,,,,2024/02/15 10:26:33+00,2024/02/15 19:24:59+00,9969,0,0
319585875,Single Tier Municipality,Municipalités à palier unique,TOWNSHIP OF PICKLE LAKE,CANTON DE PICKLE LAKE,60049,82607,Mainland,Terre ferme,6049,TOWNSHIP OF,CANTON DE,PICKLE LAKE,PICKLE LAKE,,,,2024/02/15 10:26:33+00,2024/02/15 19:24:59+00,9985,0,0
319586023,Single Tier Municipality,Municipalités à palier unique,HALDIMAND COUNTY,HALDIMAND COUNTY,28005,12102,Islands,Îles,2810,,,HALDIMAND COUNTY,HALDIMAND COUNTY,,,,2024/02/15 10:45:42+00,2024/02/15 19:24:59+00,10001,0,0
319585936,Lower Tier Municipality,Municipalités de palier inférieur,CITY OF PORT COLBORNE,CITÉ DE PORT COLBORNE,26011,18102,Water,Eau,2711,CITY OF,CITÉ DE,PORT COLBORNE,PORT COLBORNE,,REGIONAL MUNICIPALITY OF NIAGARA,MUNICIPALITÉ RÉGIONALE DE NIAGARA,2024/02/15 10:26:33+00,2024/02/15 19:24:59+00,10017,0,0
319586082,Single Tier Municipality,Municipalités à palier unique,TOWNSHIP OF HILLIARD,CANTON DE HILLIARD,54034,90612,Mainland,Terre ferme,5434,TOWNSHIP OF,CANTON DE,HILLIARD,HILLIARD,,,,2024/02/15 10:26:33+00,2024/02/15 19:24:59+00,10033,0,0
319585927,Single Tier Municipality,Municipalités à palier unique,CITY OF KENORA,CITÉ DE KENORA,60011,82102,Mainland,Terre ferme,6016,CITY OF,CITÉ DE,KENORA,KENORA,,,,2024/02/15 10:26:33+00,2024/02/15 19:24:59+00,10049,0,0
319586103,Single Tier Municipality,Municipalités à palier unique,CITY OF BELLEVILLE,CITÉ DE BELLEVILLE,12005,51103,Water,Eau,1208,CITY OF,CITÉ DE,BELLEVILLE,BELLEVILLE,,,,2024/02/15 10:26:33+00,2024/02/15 19:24:59+00,10065,0,0
319586165,Lower Tier Municipality,Municipalités de palier inférieur,CITY OF NIAGARA FALLS,CITÉ DE NIAGARA FALLS,26043,18101,Mainland,Terre ferme,2725,CITY OF,CITÉ DE,NIAGARA FALLS,NIAGARA FALLS,,REGIONAL MUNICIPALITY OF NIAGARA,MUNICIPALITÉ RÉGIONALE DE NIAGARA,2024/02/15 10:26:33+00,2024/02/15 19:24:59+00,10081,0,0
319585743,Single Tier Municipality,Municipalités à palier unique,CITY OF SAULT STE. MARIE,CITÉ DE SAULT STE. MARIE,57061,80101,Islands,Îles,5761,CITY OF,CITÉ DE,SAULT STE. MARIE,SAULT STE. MARIE,,,,2024/02/15 10:26:33+00,2024/02/15 19:24:59+00,10097,0,0
319586128,Single Tier Municipality,Municipalités à palier unique,TOWNSHIP OF HILTON,CANTON DE HILTON,57004,80603,Islands,Îles,5704,TOWNSHIP OF,CANTON DE,HILTON,HILTON,,,,2024/02/15 10:26:33+00,2024/02/15 19:24:59+00,10113,0,0
319585671,Lower Tier Municipality,Municipalités de palier inférieur,TOWN OF FORT ERIE,VILLE DE FORT ERIE,26003,18401,Water,Eau,2703,TOWN OF,VILLE DE,FORT ERIE,FORT ERIE,,REGIONAL MUNICIPALITY OF NIAGARA,MUNICIPALITÉ RÉGIONALE DE NIAGARA,2024/02/15 10:26:33+00,2024/02/15 19:24:59+00,10129,0,0
319585716,Single Tier Municipality,Municipalités à palier unique,TOWNSHIP OF LAIRD,CANTON DE LAIRD,57011,80606,Islands,Îles,5711,TOWNSHIP OF,CANTON DE,LAIRD,LAIRD,,,,2024/02/15 10:26:33+00,2024/02/15 19:24:59+00,10145,0,0
319585740,Lower Tier Municipality,Municipalités de palier inférieur,TOWN OF ARNPRIOR,VILLE D'ARNPRIOR,47002,69401,Water,Eau,4702,TOWN OF,VILLE DE,ARNPRIOR,ARNPRIOR,,COUNTY OF RENFREW,COMTÉ DE RENFREW,2024/02/15 10:26:33+00,2024/02/15 19:24:59+00,10161,0,0
319585790,Lower Tier Municipality,Municipalités de palier inférieur,TOWNSHIP OF LANARK HIGHLANDS,CANTON DE LANARK HIGHLANDS,9033,55615,Mainland,Terre ferme,940,TOWNSHIP OF,CANTON DE,LANARK HIGHLANDS,LANARK HIGHLANDS,,COUNTY OF LANARK,COMTÉ DE LANARK,2024/02/15 10:26:33+00,2024/02/15 19:24:59+00,10177,0,0
319585879,Lower Tier Municipality,Municipalités de palier inférieur,TOWNSHIP OF MAPLETON,CANTON DE MAPLETON,23023,75616,Mainland,Terre ferme,2332,TOWNSHIP OF,CANTON DE,MAPLETON,MAPLETON,,COUNTY OF WELLINGTON,COMTÉ DE WELLINGTON,2024/02/15 10:26:33+00,2024/02/15 19:24:59+00,10193,0,0
319585725,Single Tier Municipality,Municipalités à palier unique,TOWN OF RAINY RIVER,VILLE DE RAINY RIVER,59042,87402,Water,Eau,5942,TOWN OF,VILLE DE,RAINY RIVER,RAINY RIVER,,,,2024/02/15 10:26:33+00,2024/02/15 19:24:59+00,10209,0,0
319586237,Lower Tier Municipality,Municipalités de palier inférieur,TOWNSHIP OF MULMUR,CANTON DE MULMUR,22016,43606,Mainland,Terre ferme,2216,TOWNSHIP OF,CANTON DE,MULMUR,MULMUR,,COUNTY OF DUFFERIN,COMTÉ DE DUFFERIN,2024/02/15 10:26:33+00,2024/02/15 19:24:59+00,10225,0,0
319585678,Lower Tier Municipality,Municipalités de palier inférieur,CITY OF OWEN SOUND,CITÉ D'OWEN SOUND,42059,47101,Water,Eau,4259,CITY OF,CITÉ DE,OWEN SOUND,OWEN SOUND,,COUNTY OF GREY,COMTÉ DE GREY,2024/02/15 10:26:33+00,2024/02/15 19:24:59+00,10241,0,0
319585665,Single Tier Municipality,Municipalités à palier unique,TOWNSHIP OF MORLEY,CANTON DE MORLEY,59031,87610,Islands,Îles,5931,TOWNSHIP OF,CANTON DE,MORLEY,MORLEY,,,,2024/02/15 10:26:33+00,2024/02/15 19:24:59+00,10257,0,0
319586017,Lower Tier Municipality,Municipalités de palier inférieur,TOWNSHIP OF ENNISKILLEN,CANTON D'ENNISKILLEN,38016,54604,Mainland,Terre ferme,3816,TOWNSHIP OF,CANTON DE,ENNISKILLEN,ENNISKILLEN,,COUNTY OF LAMBTON,COMTÉ DE LAMBTON,2024/02/15 10:26:33+00,2024/02/15 19:24:59+00,10273,0,0
319585894,Single Tier Municipality,Municipalités à palier unique,MUNICIPALITY OF HURON SHORES,MUNICIPALITÉ DE HURON SHORES,57023,80620,Water,Eau,5724,MUNICIPALITY OF,MUNICIPALITÉ DE,HURON SHORES,HURON SHORES,,,,2024/02/15 10:26:33+00,2024/02/15 19:24:59+00,10289,0,0
319586081,Lower Tier Municipality,Municipalités de palier inférieur,TOWNSHIP OF MALAHIDE,CANTON DE MALAHIDE,34007,44612,Mainland,Terre ferme,3408,TOWNSHIP OF,CANTON DE,MALAHIDE,MALAHIDE,,COUNTY OF ELGIN,COMTÉ D'ELGIN,2024/02/15 10:26:33+00,2024/02/15 19:24:59+00,10305,0,0
319586052,Lower Tier Municipality,Municipalités de palier inférieur,TOWNSHIP OF EAST ZORRA-TAVISTOCK,CANTON D'EAST ZORRA-TAVISTOCK,32038,37602,Mainland,Terre ferme,3238,TOWNSHIP OF,CANTON DE,EAST ZORRA-TAVISTOCK,EAST ZORRA-TAVISTOCK,,COUNTY OF OXFORD,COMTÉ D'OXFORD,2024/02/15 10:26:33+00,2024/02/15 19:24:59+00,10321,0,0
319586260,Single Tier Municipality,Municipalités à palier unique,TOWNSHIP OF MATTICE-VAL CÔTÉ,CANTON DE MATTICE-VAL CÔTÉ,56077,81612,Mainland,Terre ferme,5677,TOWNSHIP OF,CANTON DE,MATTICE-VAL CÔTÉ,MATTICE-VAL CÔTÉ,,,,2024/02/15 10:26:33+00,2024/02/15 19:24:59+00,10337,0,0
319585640,Lower Tier Municipality,Municipalités de palier inférieur,TOWN OF AMHERSTBURG,VILLE D'AMHERSTBURG,37025,45409,Islands,Îles,3729,TOWN OF,VILLE DE,AMHERSTBURG,AMHERSTBURG,,COUNTY OF ESSEX,COMTÉ D'ESSEX,2024/02/15 10:26:33+00,2024/02/15 19:24:59+00,10353,0,0
319585916,Lower Tier Municipality,Municipalités de palier inférieur,MUNICIPALITY OF LEAMINGTON,MUNICIPALITÉ DE LEAMINGTON,37003,45413,Mainland,Terre ferme,3706,MUNICIPALITY OF,MUNICIPALITÉ DE,LEAMINGTON,LEAMINGTON,,COUNTY OF ESSEX,COMTÉ D'ESSEX,2024/02/15 10:26:33+00,2024/02/15 19:24:59+00,10369,0,0
319586191,Lower Tier Municipality,Municipalités de palier inférieur,TOWNSHIP OF NORTH ALGONA WILBERFORCE,CANTON DE NORTH ALGONA WILBERFORCE,47068,69630,Mainland,Terre ferme,4769,TOWNSHIP OF,CANTON DE,NORTH ALGONA WILBERFORCE,NORTH ALGONA WILBERFORCE,,COUNTY OF RENFREW,COMTÉ DE RENFREW,2024/02/15 10:26:33+00,2024/02/15 19:24:59+00,10385,0,0
319585773,Single Tier Municipality,Municipalités à palier unique,TOWN OF KIRKLAND LAKE,VILLE DE KIRKLAND LAKE,54068,90405,Mainland,Terre ferme,5468,TOWN OF,VILLE DE,KIRKLAND LAKE,KIRKLAND LAKE,,,,2024/02/15 10:26:33+00,2024/02/15 19:24:59+00,10401,0,0
319585903,Lower Tier Municipality,Municipalités de palier inférieur,TOWNSHIP OF ZORRA,CANTON DE ZORRA,32027,37605,Mainland,Terre ferme,3227,TOWNSHIP OF,CANTON DE,ZORRA,ZORRA,,COUNTY OF OXFORD,COMTÉ D'OXFORD,2024/02/15 10:26:33+00,2024/02/15 19:24:59+00,10417,0,0
319586133,Single Tier Municipality,Municipalités à palier unique,TOWNSHIP OF COLEMAN,CANTON DE COLEMAN,54001,90606,Mainland,Terre ferme,5401,TOWNSHIP OF,CANTON DE,COLEMAN,COLEMAN,,,,2024/02/15 10:26:33+00,2024/02/15 19:24:59+00,10433,0,0
319585859,Lower Tier Municipality,Municipalités de palier inférieur,MUNICIPALITY OF ARRAN-ELDERSLIE,MUNICIPALITÉ D'ARRAN-ELDERSLIE,41037,41621,Mainland,Terre ferme,4103,MUNICIPALITY OF,MUNICIPALITÉ DE,ARRAN-ELDERSLIE,ARRAN-ELDERSLIE,,COUNTY OF BRUCE,COMTÉ DE BRUCE,2024/02/15 10:26:33+00,2024/02/15 19:24:59+00,10449,0,0
319586277,Lower Tier Municipality,Municipalités de palier inférieur,TOWNSHIP OF SOUTHGATE,CANTON DE SOUTHGATE,42005,47621,Mainland,Terre ferme,4207,TOWNSHIP OF,CANTON DE,SOUTHGATE,SOUTHGATE,,COUNTY OF GREY,COMTÉ DE GREY,2024/02/15 10:26:33+00,2024/02/15 19:24:59+00,10465,0,0
319585827,Lower Tier Municipality,Municipalités de palier inférieur,MUNICIPALITY OF KINCARDINE,MUNICIPALITÉ DE KINCARDINE,41020,41625,Water,Eau,4108,MUNICIPALITY OF,MUNICIPALITÉ DE,KINCARDINE,KINCARDINE,,COUNTY OF BRUCE,COMTÉ DE BRUCE,2024/02/15 10:26:33+00,2024/02/15 19:24:59+00,10481,0,0
319586137,Single Tier Municipality,Municipalités à palier unique,TOWNSHIP OF SIOUX NARROWS-NESTOR FALLS,CANTON DE SIOUX NARROWS-NESTOR FALLS,60008,82609,Islands,Îles,6008,TOWNSHIP OF,CANTON DE,SIOUX NARROWS-NESTOR FALLS,SIOUX NARROWS-NESTOR FALLS,,,,2024/02/15 10:26:33+00,2024/02/15 19:24:59+00,10497,0,0
319585750,Single Tier Municipality,Municipalités à palier unique,TOWNSHIP OF MCGARRY,CANTON DE MCGARRY,54058,90617,Mainland,Terre ferme,5458,TOWNSHIP OF,CANTON DE,MCGARRY,MCGARRY,,,,2024/02/15 10:26:33+00,2024/02/15 19:24:59+00,10513,0,0
319585888,Single Tier Municipality,Municipalités à palier unique,TOWNSHIP OF HUDSON,CANTON DE HUDSON,54021,90613,Mainland,Terre ferme,5421,TOWNSHIP OF,CANTON DE,HUDSON,HUDSON,,,,2024/02/15 10:26:33+00,2024/02/15 19:24:59+00,10529,0,0
319585958,Single Tier Municipality,Municipalités à palier unique,TOWNSHIP OF PRINCE,CANTON DE PRINCE,57066,80610,Water,Eau,5766,TOWNSHIP OF,CANTON DE,PRINCE,PRINCE,,,,2024/02/15 10:26:33+00,2024/02/15 19:24:59+00,10545,0,0
319585911,Single Tier Municipality,Municipalités à palier unique,MUNICIPALITY OF CALVIN,MUNICIPALITÉ DE CALVIN,48022,85604,Mainland,Terre ferme,4822,MUNICIPALITY OF,MUNICIPALITÉ DE,CALVIN,CALVIN,,,,2024/02/15 10:26:33+00,2024/02/15 19:24:59+00,10561,0,0
319585643,Lower Tier Municipality,Municipalités de palier inférieur,TOWN OF LAURENTIAN HILLS,VILLE DE LAURENTIAN HILLS,47091,69406,Water,Eau,4792,TOWN OF,VILLE DE,LAURENTIAN HILLS,LAURENTIAN HILLS,,COUNTY OF RENFREW,COMTÉ DE RENFREW,2024/02/15 10:26:33+00,2024/02/15 19:24:59+00,10577,0,0
319585944,Lower Tier Municipality,Municipalités de palier inférieur,TOWNSHIP OF CENTRAL FRONTENAC,CANTON DE CENTRAL FRONTENAC,10025,46616,Mainland,Terre ferme,1039,TOWNSHIP OF,CANTON DE,CENTRAL FRONTENAC,CENTRAL FRONTENAC,,COUNTY OF FRONTENAC,COMTÉ DE FRONTENAC,2024/02/15 10:26:33+00,2024/02/15 19:24:59+00,10593,0,0
319585939,Lower Tier Municipality,Municipalités de palier inférieur,MUNICIPALITY OF MISSISSIPPI MILLS,MUNICIPALITÉ DE MISSISSIPPI MILLS,9030,55404,Mainland,Terre ferme,931,MUNICIPALITY OF,MUNICIPALITÉ DE,MISSISSIPPI MILLS,MISSISSIPPI MILLS,,COUNTY OF LANARK,COMTÉ DE LANARK,2024/02/15 10:26:33+00,2024/02/15 19:24:59+00,10609,0,0
319585805,Lower Tier Municipality,Municipalités de palier inférieur,TOWNSHIP OF WOOLWICH,CANTON DE WOOLWICH,30029,25604,Mainland,Terre ferme,3029,TOWNSHIP OF,CANTON DE,WOOLWICH,WOOLWICH,,REGIONAL MUNICIPALITY OF WATERLOO,MUNICIPALITÉ RÉGIONALE DE WATERLOO,2024/02/15 10:26:33+00,2024/02/15 19:24:59+00,10625,0,0
319586062,Lower Tier Municipality,Municipalités de palier inférieur,TOWNSHIP OF WILMOT,CANTON DE WILMOT,30018,25603,Mainland,Terre ferme,3018,TOWNSHIP OF,CANTON DE,WILMOT,WILMOT,,REGIONAL MUNICIPALITY OF WATERLOO,MUNICIPALITÉ RÉGIONALE DE WATERLOO,2024/02/15 10:26:33+00,2024/02/15 19:24:59+00,10641,0,0
319586289,Single Tier Municipality,Municipalités à palier unique,TOWN OF MATTAWA,VILLE DE MATTAWA,48021,85403,Water,Eau,4821,TOWN OF,VILLE DE,MATTAWA,MATTAWA,,,,2024/02/15 10:26:33+00,2024/02/15 19:24:59+00,10657,0,0
319586190,Single Tier Municipality,Municipalités à palier unique,TOWN OF MARATHON,VILLE DE MARATHON,58059,89403,Islands,Îles,5859,TOWN OF,VILLE DE,MARATHON,MARATHON,,,,2024/02/15 10:26:33+00,2024/02/15 19:24:59+00,10673,0,0
319585876,Lower Tier Municipality,Municipalités de palier inférieur,TOWNSHIP OF DRUMMOND/NORTH ELMSLEY,CANTON DE DRUMMOND / NORTH ELMSLEY,9007,55616,Mainland,Terre ferme,919,TOWNSHIP OF,CANTON DE,DRUMMOND/NORTH ELMSLEY,DRUMMOND / NORTH ELMSLEY,,COUNTY OF LANARK,COMTÉ DE LANARK,2024/02/15 10:26:33+00,2024/02/15 19:24:59+00,10689,0,0
319585984,Single Tier Municipality,Municipalités à palier unique,TOWNSHIP OF PERRY,CANTON DE PERRY,49014,86616,Mainland,Terre ferme,4914,TOWNSHIP OF,CANTON DE,PERRY,PERRY,,,,2024/02/15 10:26:33+00,2024/02/15 19:24:59+00,10705,0,0
319586158,Single Tier Municipality,Municipalités à palier unique,TOWN OF BRUCE MINES,VILLE DE BRUCE MINES,57021,80402,Mainland,Terre ferme,5721,TOWN OF,VILLE DE,BRUCE MINES,BRUCE MINES,,,,2024/02/15 10:26:33+00,2024/02/15 19:24:59+00,10721,0,0
319586249,Single Tier Municipality,Municipalités à palier unique,CITY OF GUELPH,CITÉ DE GUELPH,23008,75101,Mainland,Terre ferme,2308,CITY OF,CITÉ DE,GUELPH,GUELPH,,,,2024/02/15 10:26:33+00,2024/02/15 19:24:59+00,10737,0,0
319586264,Single Tier Municipality,Municipalités à palier unique,MUNICIPALITY OF GORDON / BARRIE ISLAND,MUNICIPALITÉ DE GORDON / BARRIE ISLAND,51024,83607,Mainland,Terre ferme,5124,MUNICIPALITY OF,MUNICIPALITÉ DE,GORDON / BARRIE ISLAND,GORDON / BARRIE ISLAND,,,,2024/02/15 10:26:33+00,2024/02/15 19:24:59+00,10753,0,0
319585784,Lower Tier Municipality,Municipalités de palier inférieur,CITY OF MISSISSAUGA,CITÉ DE MISSISSAUGA,21005,21102,Mainland,Terre ferme,2105,CITY OF,CITÉ DE,MISSISSAUGA,MISSISSAUGA,,REGIONAL MUNICIPALITY OF PEEL,MUNICIPALITÉ RÉGIONALE DE PEEL,2024/02/15 10:26:33+00,2024/02/15 19:24:59+00,10769,0,0
319586041,Single Tier Municipality,Municipalités à palier unique,TOWNSHIP OF MACHAR,CANTON DE MACHAR,49054,86611,Mainland,Terre ferme,4954,TOWNSHIP OF,CANTON DE,MACHAR,MACHAR,,,,2024/02/15 10:26:33+00,2024/02/15 19:24:59+00,10785,0,0
319585691,Single Tier Municipality,Municipalités à palier unique,MUNICIPALITY OF CHATHAM-KENT,MUNICIPALITÉ DE CHATHAM-KENT,36003,53102,Mainland,Terre ferme,3650,MUNICIPALITY OF,MUNICIPALITÉ DE,CHATHAM-KENT,CHATHAM-KENT,,,,2024/02/15 10:26:33+00,2024/02/15 19:24:59+00,10801,0,0
319585900,Lower Tier Municipality,Municipalités de palier inférieur,MUNICIPALITY OF CASSELMAN,MUNICIPALITÉ DE CASSELMAN,2044,67502,Mainland,Terre ferme,302,MUNICIPALITY OF,MUNICIPALITÉ DE,CASSELMAN,CASSELMAN,,UNITED COUNTIES OF PRESCOTT AND RUSSELL,COMTÉS UNIS DE PRESCOTT AND RUSSELL,2024/02/15 10:26:33+00,2024/02/15 19:24:59+00,10817,0,0
319585828,Single Tier Municipality,Municipalités à palier unique,CITY OF THUNDER BAY,CITÉ DE THUNDER BAY,58004,89101,Water,Eau,5804,CITY OF,CITÉ DE,THUNDER BAY,THUNDER BAY,,,,2024/02/15 10:26:33+00,2024/02/15 19:24:59+00,10833,0,0
319585681,Lower Tier Municipality,Municipalités de palier inférieur,TOWN OF SOUTH BRUCE PENINSULA,VILLE DE SOUTH BRUCE PENINSULA,41053,41407,Islands,Îles,4102,TOWN OF,VILLE DE,SOUTH BRUCE PENINSULA,SOUTH BRUCE PENINSULA,,COUNTY OF BRUCE,COMTÉ DE BRUCE,2024/02/15 10:26:33+00,2024/02/15 19:24:59+00,10849,0,0
319585659,Single Tier Municipality,Municipalités à palier unique,TOWNSHIP OF FAUQUIER-STRICKLAND,CANTON DE FAUQUIER-STRICKLAND,56052,81608,Mainland,Terre ferme,5652,TOWNSHIP OF,CANTON DE,FAUQUIER-STRICKLAND,FAUQUIER-STRICKLAND,,,,2024/02/15 10:26:33+00,2024/02/15 19:24:59+00,10865,0,0
319586101,Lower Tier Municipality,Municipalités de palier inférieur,TOWN OF SAUGEEN SHORES,VILLE DE SAUGEEN SHORES,41043,41408,Water,Eau,4110,TOWN OF,VILLE DE,SAUGEEN SHORES,SAUGEEN SHORES,,COUNTY OF BRUCE,COMTÉ DE BRUCE,2024/02/15 10:26:33+00,2024/02/15 19:24:59+00,10881,0,0
319585676,Lower Tier Municipality,Municipalités de palier inférieur,TOWNSHIP OF SCUGOG,CANTON DE SCUGOG,18020,10602,Mainland,Terre ferme,1820,TOWNSHIP OF,CANTON DE,SCUGOG,SCUGOG,,REGIONAL MUNICIPALITY OF DURHAM,REGIONAL MUNICIPALITÉ DE DURHAM,2024/02/15 10:26:33+00,2024/02/15 19:24:59+00,10897,0,0
319586285,Lower Tier Municipality,Municipalités de palier inférieur,CITY OF WELLAND,CITÉ DE WELLAND,26032,18104,Mainland,Terre ferme,2719,CITY OF,CITÉ DE,WELLAND,WELLAND,,REGIONAL MUNICIPALITY OF NIAGARA,MUNICIPALITÉ RÉGIONALE DE NIAGARA,2024/02/15 10:26:33+00,2024/02/15 19:24:59+00,10913,0,0
319586177,Lower Tier Municipality,Municipalités de palier inférieur,TOWN OF ESSEX,VILLE D'ESSEX,37020,45410,Water,Eau,3754,TOWN OF,VILLE DE,ESSEX,ESSEX,,COUNTY OF ESSEX,COMTÉ D'ESSEX,2024/02/15 10:26:33+00,2024/02/15 19:24:59+00,10929,0,0
319585860,Single Tier Municipality,Municipalités à palier unique,TOWNSHIP OF EMO,CANTON D'EMO,59019,87607,Water,Eau,5919,TOWNSHIP OF,CANTON DE,EMO,EMO,,,,2024/02/15 10:26:33+00,2024/02/15 19:24:59+00,10945,0,0
319586261,Lower Tier Municipality,Municipalités de palier inférieur,TOWN OF KINGSVILLE,VILLE DE KINGSVILLE,37008,45411,Water,Eau,3711,TOWN OF,VILLE DE,KINGSVILLE,KINGSVILLE,,COUNTY OF ESSEX,COMTÉ D'ESSEX,2024/02/15 10:26:33+00,2024/02/15 19:24:59+00,10961,0,0
